{"version": 0.6, "generator": "Overpass API 0.7.56.7 b85c4387", "osm3s": {"timestamp_osm_base": "2021-02-19T14:22:08Z", "timestamp_areas_base": "2021-02-19T10:50:03Z", "copyright": "The data included in this document is from www.openstreetmap.org. The data is made available under ODbL."}, "elements": [{"type": "node", "id": 502842538, "lat": 45.0819456, "lon": 134.726645, "tags": {"name": "\u041f\u0440\u0438\u043c\u043e\u0440\u0441\u043a\u0438\u0439 \u043a\u0440\u0430\u0439", "name:be": "\u041f\u0440\u044b\u043c\u043e\u0440\u0441\u043a\u0456 \u043a\u0440\u0430\u0439", "name:da": "Primorskij kraj", "name:de": "Region Primorje", "name:en": "Primorsky Krai", "name:eo": "\u0108emara Regiono", "name:es": "Primorie", "name:fr": "Primorie", "name:he": "\u05de\u05d7\u05d5\u05d6 \u05e4\u05e8\u05d9\u05de\u05d5\u05e8\u05d9\u05d4", "name:hr": "Primorski kraj", "name:hu": "Tengermell\u00e9ki hat\u00e1rter\u00fclet", "name:ja": "\u6cbf\u6d77\u5730\u65b9", "name:ko": "\ud504\ub9ac\ubaa8\ub974\uc2a4\ud0a4 \uc9c0\ubc29", "name:lt": "Primor\u0117s kra\u0161tas", "name:pl": "Kraj Nadmorski", "name:ru": "\u041f\u0440\u0438\u043c\u043e\u0440\u0441\u043a\u0438\u0439 \u043a\u0440\u0430\u0439", "name:sk": "Pr\u00edmorsk\u00fd kraj", "name:tt": "\u0414\u0438\u04a3\u0433\u0435\u0437 \u0431\u0443\u0435 \u043a\u0440\u0430\u0435", "name:uk": "\u041f\u0440\u0438\u043c\u043e\u0440\u0441\u044c\u043a\u0438\u0439 \u043a\u0440\u0430\u0439", "name:zh": "\u6ee8\u6d77\u8fb9\u7586\u533a", "official_name:es": "Krai de Primorie", "official_name:fr": "Kra\u00ef du Primorie", "place": "state", "ref": "\u041f\u0420\u0418", "ref:en": "PRI", "wikidata": "Q4341", "wikipedia": "ru:\u041f\u0440\u0438\u043c\u043e\u0440\u0441\u043a\u0438\u0439 \u043a\u0440\u0430\u0439"}}, {"type": "node", "id": 502842672, "lat": 52.8032368, "lon": 128.437295, "tags": {"name": "\u0410\u043c\u0443\u0440\u0441\u043a\u0430\u044f \u043e\u0431\u043b\u0430\u0441\u0442\u044c", "name:be": "\u0410\u043c\u0443\u0440\u0441\u043a\u0430\u044f \u0432\u043e\u0431\u043b\u0430\u0441\u0446\u044c", "name:da": "Amur oblast", "name:de": "Oblast Amur", "name:en": "Amur Oblast", "name:eo": "Amura Provinco", "name:es": "\u00d3blast de Amur", "name:fr": "Oblast d'Amour", "name:he": "\u05de\u05d7\u05d5\u05d6 \u05d0\u05de\u05d5\u05e8", "name:hr": "Amurska oblast", "name:hu": "Amuri ter\u00fclet", "name:ja": "\u30a2\u30e0\u30fc\u30eb\u5dde", "name:lt": "Am\u016bro sritis", "name:pl": "Obw\u00f3d amurski", "name:ru": "\u0410\u043c\u0443\u0440\u0441\u043a\u0430\u044f \u043e\u0431\u043b\u0430\u0441\u0442\u044c", "name:sk": "Amursk\u00e1 oblas\u0165", "name:uk": "\u0410\u043c\u0443\u0440\u0441\u044c\u043a\u0430 \u043e\u0431\u043b\u0430\u0441\u0442\u044c", "place": "state", "ref": "\u0410\u041c\u0423", "ref:en": "AMU", "wikidata": "Q6886", "wikipedia": "ru:\u0410\u043c\u0443\u0440\u0441\u043a\u0430\u044f \u043e\u0431\u043b\u0430\u0441\u0442\u044c"}}, {"type": "node", "id": 502842918, "lat": 58.6124279, "lon": 82.0475315, "tags": {"is_in:country": "\u0420\u043e\u0441\u0441\u0438\u044f", "name": "\u0422\u043e\u043c\u0441\u043a\u0430\u044f \u043e\u0431\u043b\u0430\u0441\u0442\u044c", "name:ar": "\u062a\u0648\u0645\u0633\u0643 \u0623\u0648\u0628\u0644\u0627\u0633\u062a", "name:az": "Tomsk vilay\u0259ti", "name:be": "\u0422\u043e\u043c\u0441\u043a\u0430\u044f \u0432\u043e\u0431\u043b\u0430\u0441\u0446\u044c", "name:bg": "\u0422\u043e\u043c\u0441\u043a\u0430 \u043e\u0431\u043b\u0430\u0441\u0442", "name:ca": "Prov\u00edncia de Tomsk", "name:cs": "Tomsk\u00e1 oblast", "name:cv": "\u0422\u043e\u043c\u0441\u043a \u043e\u0431\u043b\u0430\u04ab\u04d7", "name:de": "Oblast Tomsk", "name:el": "\u03a0\u03b5\u03c1\u03b9\u03c6\u03ad\u03c1\u03b5\u03b9\u03b1 \u03a4\u03bf\u03bc\u03c3\u03ba", "name:en": "Tomsk Oblast", "name:eo": "Tomska Provinco", "name:es": "\u00d3blast de Tomsk", "name:et": "Tomski oblast", "name:fa": "\u0627\u0633\u062a\u0627\u0646 \u062a\u0648\u0645\u0633\u06a9", "name:fi": "Tomskin alue", "name:fr": "Oblast de Tomsk", "name:ga": "C\u00faige Thomsk", "name:he": "\u05de\u05d7\u05d5\u05d6 \u05d8\u05d5\u05de\u05e1\u05e7", "name:hr": "Tomska oblast", "name:hu": "Tomszki ter\u00fclet", "name:it": "Oblast' di Tomsk", "name:ja": "\u30c8\u30e0\u30b9\u30af\u5dde", "name:ka": "\u10e2\u10dd\u10db\u10e1\u10d9\u10d8\u10e1 \u10dd\u10da\u10e5\u10d8", "name:ko": "\ud1b0\uc2a4\ud06c \uc8fc", "name:kv": "\u0422\u043e\u043c\u0441\u043a \u043e\u0431\u043b\u0430\u0441\u044c\u0442", "name:lt": "Tomsko sritis", "name:lv": "Tomskas apgabals", "name:mk": "\u0422\u043e\u043c\u0441\u043a\u0430 \u043e\u0431\u043b\u0430\u0441\u0442", "name:mr": "\u0924\u094b\u092e\u094d\u0938\u094d\u0915 \u0913\u092c\u094d\u0932\u093e\u0938\u094d\u0924", "name:nl": "Oblast Tomsk", "name:nn": "Tomsk oblast", "name:no": "Tomsk oblast", "name:os": "\u0422\u043e\u043c\u0441\u0447\u044b \u043e\u0431\u043b\u00e6\u0441\u0442", "name:pl": "Obw\u00f3d tomski", "name:pt": "Oblast de Tomsk", "name:ro": "Regiunea Tomsk", "name:ru": "\u0422\u043e\u043c\u0441\u043a\u0430\u044f \u043e\u0431\u043b\u0430\u0441\u0442\u044c", "name:sah": "\u0422\u043e\u043c\u0441\u043a\u0430\u0439 \u0443\u043e\u0431\u0430\u043b\u0430\u0441", "name:sh": "Tomska oblast", "name:sk": "Tomsk\u00e1 oblas\u0165", "name:sl": "Tomska oblast", "name:sr": "\u0422\u043e\u043c\u0441\u043a\u0430 \u043e\u0431\u043b\u0430\u0441\u0442", "name:sv": "Tomsk oblast", "name:sw": "Tomsk Oblast", "name:tl": "Tomsk_Oblast", "name:tr": "Tomsk Oblast\u0131", "name:tt": "\u0422\u043e\u043c\u0441\u043a \u04e9\u043b\u043a\u04d9\u0441\u0435", "name:udm": "\u0422\u043e\u043c\u0441\u043a \u0443\u043b\u043e\u0441", "name:uk": "\u0422\u043e\u043c\u0441\u044c\u043a\u0430 \u043e\u0431\u043b\u0430\u0441\u0442\u044c", "name:vi": "Tomsk", "name:xal": "\u0422\u043e\u043c\u0438\u043d \u0442\u04e9\u0433\u04d9\u043b\u04a3", "name:zh": "\u6258\u6728\u65af\u514b\u5dde", "place": "state", "ref": "\u0422\u041e\u041c", "ref:en": "TOM", "wikidata": "Q5884", "wikipedia": "ru:\u0422\u043e\u043c\u0441\u043a\u0430\u044f \u043e\u0431\u043b\u0430\u0441\u0442\u044c"}}, {"type": "node", "id": 503045144, "lat": 67.1471631, "lon": 74.3415488, "tags": {"is_in:country": "\u0420\u043e\u0441\u0441\u0438\u044f", "name": "\u042f\u043c\u0430\u043b\u043e-\u041d\u0435\u043d\u0435\u0446\u043a\u0438\u0439 \u0430\u0432\u0442\u043e\u043d\u043e\u043c\u043d\u044b\u0439 \u043e\u043a\u0440\u0443\u0433", "name:be": "\u042f\u043c\u0430\u043b\u0430-\u041d\u0435\u043d\u0435\u0446\u043a\u0430\u044f \u0430\u045e\u0442\u0430\u043d\u043e\u043c\u043d\u0430\u044f \u0430\u043a\u0440\u0443\u0433\u0430", "name:de": "Autonomer Kreis der Jamal-Nenzen", "name:en": "Yamalo-Nenets Autonomous Okrug", "name:eo": "Jamalo-Neneca a\u016dtonoma distrikto", "name:es": "Yamalia-Nenetsia", "name:fr": "Iamalie", "name:hr": "Jamalskonene\u010dki autonomni okrug", "name:hu": "Jamali Nyenyecf\u00f6ld", "name:ja": "\u30e4\u30de\u30ed\u30fb\u30cd\u30cd\u30c4\u81ea\u6cbb\u7ba1\u533a", "name:lt": "Jamalo Nenc\u0173 autonomin\u0117 apygarda", "name:pl": "Jamalsko-Nieniecki Okr\u0119g Autonomiczny", "name:ru": "\u042f\u043c\u0430\u043b\u043e-\u041d\u0435\u043d\u0435\u0446\u043a\u0438\u0439 \u0430\u0432\u0442\u043e\u043d\u043e\u043c\u043d\u044b\u0439 \u043e\u043a\u0440\u0443\u0433", "name:sk": "Jamalskoneneck\u00fd auton\u00f3mny okruh", "name:tt": "\u042f\u043c\u0430\u043b-\u041d\u0435\u043d\u0435\u0446 \u0430\u0432\u0442\u043e\u043d\u043e\u043c\u0438\u044f\u043b\u0435 \u043e\u043a\u0440\u0443\u0433\u044b", "name:uk": "\u042f\u043c\u0430\u043b\u043e-\u041d\u0435\u043d\u0435\u0446\u044c\u043a\u0438\u0439 \u0430\u0432\u0442\u043e\u043d\u043e\u043c\u043d\u0438\u0439 \u043e\u043a\u0440\u0443\u0433", "official_name:es": "Distrito aut\u00f3nomo de Yamalia-Nenetsia", "official_name:fr": "District autonome de Iamalo-N\u00e9n\u00e9tsie", "place": "state", "ref": "\u042f\u041c\u0410", "ref:en": "YAN", "wikidata": "Q6407", "wikipedia": "ru:\u042f\u043c\u0430\u043b\u043e-\u041d\u0435\u043d\u0435\u0446\u043a\u0438\u0439 \u0430\u0432\u0442\u043e\u043d\u043e\u043c\u043d\u044b\u0439 \u043e\u043a\u0440\u0443\u0433"}}, {"type": "node", "id": 503046328, "lat": 61.8793428, "lon": 68.6418156, "tags": {"alt_name": "\u0425\u0430\u043d\u0442\u044b-\u041c\u0430\u043d\u0441\u0438\u0439\u0441\u043a\u0438\u0439 \u0430\u0432\u0442\u043e\u043d\u043e\u043c\u043d\u044b\u0439 \u043e\u043a\u0440\u0443\u0433 - \u042e\u0433\u0440\u0430", "alt_name2": "\u042e\u0433\u0440\u0430", "is_in": "\u0420\u043e\u0441\u0441\u0438\u044f", "name": "\u0425\u0430\u043d\u0442\u044b-\u041c\u0430\u043d\u0441\u0438\u0439\u0441\u043a\u0438\u0439 \u0430\u0432\u0442\u043e\u043d\u043e\u043c\u043d\u044b\u0439 \u043e\u043a\u0440\u0443\u0433 \u2014 \u042e\u0433\u0440\u0430", "name:be": "\u0425\u0430\u043d\u0442\u044b-\u041c\u0430\u043d\u0441\u0456\u0439\u0441\u043a\u0430\u044f \u0430\u045e\u0442\u0430\u043d\u043e\u043c\u043d\u0430\u044f \u0430\u043a\u0440\u0443\u0433\u0430", "name:de": "Autonomer Kreis der Chanten und Mansen - Jugra", "name:en": "Khanty-Mansiysk Autonomous Okrug \u2013 Ugra", "name:eo": "\u0124anti-Mansa a\u016dtonoma distrikto \u2014 Jugra", "name:es": "Janti-Mansi", "name:fr": "Khantys-Mansis", "name:hr": "Hantijsko-Mansijski autonomni okrug", "name:hu": "Hanti- \u00e9s Manysif\u00f6ld", "name:ja": "\u30cf\u30f3\u30c6\u30a3\u30fb\u30de\u30f3\u30b7\u81ea\u6cbb\u7ba1\u533a\u30fb\u30e6\u30b0\u30e9", "name:lt": "Chant\u0173 Mansija", "name:pl": "Chanty-Mansyjski Okr\u0119g Autonomiczny - Jugra", "name:ru": "\u0425\u0430\u043d\u0442\u044b-\u041c\u0430\u043d\u0441\u0438\u0439\u0441\u043a\u0438\u0439 \u0430\u0432\u0442\u043e\u043d\u043e\u043c\u043d\u044b\u0439 \u043e\u043a\u0440\u0443\u0433 \u2014 \u042e\u0433\u0440\u0430", "name:sk": "Chantyjsko-mansijsk\u00fd auton\u00f3mny okruh", "name:tt": "\u0425\u0430\u043d\u0442-\u041c\u0430\u043d\u0441\u0438 \u2014 \u042e\u0433\u0440\u0430 \u0430\u0432\u0442\u043e\u043d\u043e\u043c\u0438\u044f\u043b\u0435 \u043e\u043a\u0440\u0443\u0433\u044b", "name:uk": "\u0425\u0430\u043d\u0442\u0438-\u041c\u0430\u043d\u0441\u0456\u0439\u0441\u044c\u043a\u0438\u0439 \u0430\u0432\u0442\u043e\u043d\u043e\u043c\u043d\u0438\u0439 \u043e\u043a\u0440\u0443\u0433 \u2014 \u042e\u0433\u0440\u0430", "official_name:es": "Distrito aut\u00f3nomo de Jant\u00fd-Mans\u00ed - Yugr\u00e1", "official_name:fr": "District autonome des Khantys-Mansis \u2014 Iougra", "place": "state", "ref": "\u0425\u0410\u041d", "ref:en": "KHM", "wikidata": "Q6320", "wikipedia": "ru:\u0425\u0430\u043d\u0442\u044b-\u041c\u0430\u043d\u0441\u0438\u0439\u0441\u043a\u0438\u0439 \u0430\u0432\u0442\u043e\u043d\u043e\u043c\u043d\u044b\u0439 \u043e\u043a\u0440\u0443\u0433 \u2014 \u042e\u0433\u0440\u0430"}}, {"type": "node", "id": 503047594, "lat": 58.8206488, "lon": 70.3658837, "tags": {"name": "\u0422\u044e\u043c\u0435\u043d\u0441\u043a\u0430\u044f \u043e\u0431\u043b\u0430\u0441\u0442\u044c", "name:be": "\u0426\u044e\u043c\u0435\u043d\u0441\u043a\u0430\u044f \u0432\u043e\u0431\u043b\u0430\u0441\u0446\u044c", "name:de": "Oblast Tjumen", "name:en": "Tyumen Oblast", "name:eo": "Tjumena Provinco", "name:es": "\u00d3blast de Tium\u00e9n", "name:fr": "Oblast de Tioumen", "name:hr": "Tjumenjska oblast", "name:hu": "Tyumenyi ter\u00fclet", "name:ja": "\u30c1\u30e5\u30e1\u30cb\u5dde", "name:lt": "Tiumen\u0117s sritis", "name:pl": "Obw\u00f3d tiume\u0144ski", "name:ru": "\u0422\u044e\u043c\u0435\u043d\u0441\u043a\u0430\u044f \u043e\u0431\u043b\u0430\u0441\u0442\u044c", "name:sk": "\u0164umensk\u00e1 oblas\u0165", "name:tt": "\u0422\u04e9\u043c\u04d9\u043d \u04e9\u043b\u043a\u04d9\u0441\u0435", "name:uk": "\u0422\u044e\u043c\u0435\u043d\u0441\u044c\u043a\u0430 \u043e\u0431\u043b\u0430\u0441\u0442\u044c", "place": "state", "ref": "\u0422\u042e\u041c", "ref:en": "TYU", "wikidata": "Q5824", "wikipedia": "ru:\u0422\u044e\u043c\u0435\u043d\u0441\u043a\u0430\u044f \u043e\u0431\u043b\u0430\u0441\u0442\u044c"}}, {"type": "node", "id": 503050374, "lat": 56.0935263, "lon": 73.5099936, "tags": {"is_in": "\u0420\u043e\u0441\u0441\u0438\u044f", "name": "\u041e\u043c\u0441\u043a\u0430\u044f \u043e\u0431\u043b\u0430\u0441\u0442\u044c", "name:af": "Omsk-oblast", "name:be": "\u041e\u043c\u0441\u043a\u0430\u044f \u0432\u043e\u0431\u043b\u0430\u0441\u0446\u044c", "name:de": "Oblast Omsk", "name:en": "Omsk Oblast", "name:eo": "Omska Provinco", "name:es": "\u00d3blast de Omsk", "name:fr": "Oblast d'Omsk", "name:he": "\u05de\u05d7\u05d5\u05d6 \u05d0\u05d5\u05de\u05e1\u05e7", "name:hr": "Omska oblast", "name:hu": "Omszki ter\u00fclet", "name:ja": "\u30aa\u30e0\u30b9\u30af\u5dde", "name:lt": "Omsko sritis", "name:pl": "Obw\u00f3d omski", "name:ru": "\u041e\u043c\u0441\u043a\u0430\u044f \u043e\u0431\u043b\u0430\u0441\u0442\u044c", "name:sk": "Omsk\u00e1 oblas\u0165", "name:tt": "\u041e\u043c\u0441\u043a \u04e9\u043b\u043a\u04d9\u0441\u0435", "name:uk": "\u041e\u043c\u0441\u044c\u043a\u0430 \u043e\u0431\u043b\u0430\u0441\u0442\u044c", "place": "state", "ref": "\u041e\u041c\u0421", "ref:en": "OMS", "wikidata": "Q5835", "wikipedia": "ru:\u041e\u043c\u0441\u043a\u0430\u044f \u043e\u0431\u043b\u0430\u0441\u0442\u044c"}}, {"type": "node", "id": 503051686, "lat": 54.9720169, "lon": 79.4813924, "tags": {"is_in:country": "\u0420\u043e\u0441\u0441\u0438\u044f", "name": "\u041d\u043e\u0432\u043e\u0441\u0438\u0431\u0438\u0440\u0441\u043a\u0430\u044f \u043e\u0431\u043b\u0430\u0441\u0442\u044c", "name:be": "\u041d\u043e\u0432\u0430\u0441\u0456\u0431\u0456\u0440\u0441\u043a\u0430\u044f \u0432\u043e\u0431\u043b\u0430\u0441\u0446\u044c", "name:de": "Oblast Nowosibirsk", "name:en": "Novosibirsk Oblast", "name:eo": "Novosibirska Provinco", "name:es": "\u00d3blast de Novosibirsk", "name:et": "Novosibirski oblast", "name:fr": "Oblast de Novossibirsk", "name:he": "\u05de\u05d7\u05d5\u05d6 \u05e0\u05d5\u05d1\u05d5\u05e1\u05d9\u05d1\u05d9\u05e8\u05e1\u05e7", "name:hr": "Novosibirska oblast", "name:hu": "Novoszibirszki ter\u00fclet", "name:ja": "\u30ce\u30f4\u30a9\u30b7\u30d3\u30eb\u30b9\u30af\u5dde", "name:lt": "Novosibirsko sritis", "name:pl": "Obw\u00f3d nowosybirski", "name:ru": "\u041d\u043e\u0432\u043e\u0441\u0438\u0431\u0438\u0440\u0441\u043a\u0430\u044f \u043e\u0431\u043b\u0430\u0441\u0442\u044c", "name:sk": "Novosibirsk\u00e1 oblas\u0165", "name:tt": "\u041d\u043e\u0432\u043e\u0441\u0438\u0431\u0438\u0440\u0441\u043a \u04e9\u043b\u043a\u04d9\u0441\u0435", "name:uk": "\u041d\u043e\u0432\u043e\u0441\u0438\u0431\u0456\u0440\u0441\u044c\u043a\u0430 \u043e\u0431\u043b\u0430\u0441\u0442\u044c", "place": "state", "ref": "\u041d\u0421\u041e", "ref:en": "NVS", "wikidata": "Q5851", "wikipedia": "ru:\u041d\u043e\u0432\u043e\u0441\u0438\u0431\u0438\u0440\u0441\u043a\u0430\u044f \u043e\u0431\u043b\u0430\u0441\u0442\u044c"}}, {"type": "node", "id": 503055077, "lat": 54.5335781, "lon": 87.342861, "tags": {"name": "\u041a\u0435\u043c\u0435\u0440\u043e\u0432\u0441\u043a\u0430\u044f \u043e\u0431\u043b\u0430\u0441\u0442\u044c", "name:af": "Kemerowo-oblast", "name:be": "\u041a\u0435\u043c\u0435\u0440\u0430\u045e\u0441\u043a\u0430\u044f \u0432\u043e\u0431\u043b\u0430\u0441\u0446\u044c", "name:de": "Oblast Kemerowo", "name:en": "Kuzbass", "name:eo": "Kemerova Provinco", "name:es": "\u00d3blast de K\u00e9merovo", "name:fr": "Oblast de Kemerovo", "name:he": "\u05de\u05d7\u05d5\u05d6 \u05e7\u05de\u05e8\u05d5\u05d1\u05d5", "name:hr": "Kemerovska oblast", "name:hu": "Kemerov\u00f3i ter\u00fclet", "name:ja": "\u30b1\u30e1\u30ed\u30f4\u30a9\u5dde", "name:lt": "Kemerovo sritis", "name:pl": "Obw\u00f3d kemerowski", "name:ru": "\u041a\u0435\u043c\u0435\u0440\u043e\u0432\u0441\u043a\u0430\u044f \u043e\u0431\u043b\u0430\u0441\u0442\u044c", "name:sk": "Kemerovsk\u00e1 oblas\u0165", "name:tt": "\u041a\u0435\u043c\u0435\u0440\u043e\u0432\u043e \u04e9\u043b\u043a\u04d9\u0441\u0435", "name:uk": "\u041a\u0435\u043c\u0435\u0440\u043e\u0432\u0441\u044c\u043a\u0430 \u043e\u0431\u043b\u0430\u0441\u0442\u044c", "official_name": "\u041a\u0435\u043c\u0435\u0440\u043e\u0432\u0441\u043a\u0430\u044f \u043e\u0431\u043b\u0430\u0441\u0442\u044c \u2014 \u041a\u0443\u0437\u0431\u0430\u0441\u0441", "place": "state", "ref": "\u041a\u0415\u041c", "ref:en": "KEM", "wikidata": "Q6076", "wikipedia": "ru:\u041a\u0435\u043c\u0435\u0440\u043e\u0432\u0441\u043a\u0430\u044f \u043e\u0431\u043b\u0430\u0441\u0442\u044c"}}, {"type": "node", "id": 503057596, "lat": 52.6932243, "lon": 82.6931424, "tags": {"is_in:country": "\u0420\u043e\u0441\u0441\u0438\u044f", "name": "\u0410\u043b\u0442\u0430\u0439\u0441\u043a\u0438\u0439 \u043a\u0440\u0430\u0439", "name:be": "\u0410\u043b\u0442\u0430\u0439\u0441\u043a\u0456 \u043a\u0440\u0430\u0439", "name:de": "Region Altai", "name:en": "Altai Krai", "name:eo": "Altaja Regiono", "name:es": "Krai de Alt\u00e1i", "name:fr": "Kra\u00ef de l'Alta\u00ef", "name:hr": "Altajski kraj", "name:hu": "Altaji hat\u00e1rter\u00fclet", "name:ja": "\u30a2\u30eb\u30bf\u30a4\u5730\u65b9", "name:lt": "Altajaus kra\u0161tas", "name:pl": "Kraj A\u0142tajski", "name:ru": "\u0410\u043b\u0442\u0430\u0439\u0441\u043a\u0438\u0439 \u043a\u0440\u0430\u0439", "name:sk": "Altajsk\u00fd kraj", "name:tt": "\u0410\u043b\u0442\u0430\u0439 \u043a\u0440\u0430\u0435", "name:uk": "\u0410\u043b\u0442\u0430\u0439\u0441\u044c\u043a\u0438\u0439 \u043a\u0440\u0430\u0439", "place": "state", "ref": "\u0410\u041b\u0422", "ref:en": "ALT", "wikidata": "Q5942", "wikipedia": "ru:\u0410\u043b\u0442\u0430\u0439\u0441\u043a\u0438\u0439 \u043a\u0440\u0430\u0439"}}, {"type": "node", "id": 503059916, "lat": 50.7114101, "lon": 86.8572186, "tags": {"addr:country": "RU", "addr:postcode": "649000", "addr:region": "\u0420\u0435\u0441\u043f\u0443\u0431\u043b\u0438\u043a\u0430 \u0410\u043b\u0442\u0430\u0439", "name": "\u0420\u0435\u0441\u043f\u0443\u0431\u043b\u0438\u043a\u0430 \u0410\u043b\u0442\u0430\u0439", "name:be": "\u0410\u043b\u0442\u0430\u0439", "name:de": "Republik Altai", "name:en": "Altai Republic", "name:eo": "Respubliko Altaj", "name:es": "Alt\u00e1i", "name:fr": "Alta\u00ef", "name:hr": "Altajska republika", "name:hu": "Altaj K\u00f6zt\u00e1rsas\u00e1g", "name:lt": "Altajaus Respublika", "name:pl": "Republika A\u0142taju", "name:ru": "\u0420\u0435\u0441\u043f\u0443\u0431\u043b\u0438\u043a\u0430 \u0410\u043b\u0442\u0430\u0439", "name:sk": "Altajsko", "name:tt": "\u0410\u043b\u0442\u0430\u0439 \u0420\u0435\u0441\u043f\u0443\u0431\u043b\u0438\u043a\u0430\u0441\u044b", "name:uk": "\u0420\u0435\u0441\u043f\u0443\u0431\u043b\u0456\u043a\u0430 \u0410\u043b\u0442\u0430\u0439", "official_name:be": "\u0420\u044d\u0441\u043f\u0443\u0431\u043b\u0456\u043a\u0430 \u0410\u043b\u0442\u0430\u0439", "official_name:es": "Rep\u00fablica de Alt\u00e1i", "official_name:fr": "R\u00e9publique de l'Alta\u00ef", "official_name:ru": "\u0420\u0435\u0441\u043f\u0443\u0431\u043b\u0438\u043a\u0430 \u0410\u043b\u0442\u0430\u0439", "place": "state", "ref": "\u0410\u041b\u0420", "ref:en": "AL", "wikidata": "Q5971", "wikipedia": "ru:\u0420\u0435\u0441\u043f\u0443\u0431\u043b\u0438\u043a\u0430 \u0410\u043b\u0442\u0430\u0439"}}, {"type": "node", "id": 503064678, "lat": 53.4399379, "lon": 90.0664303, "tags": {"name": "\u0420\u0435\u0441\u043f\u0443\u0431\u043b\u0438\u043a\u0430 \u0425\u0430\u043a\u0430\u0441\u0438\u044f", "name:be": "\u0425\u0430\u043a\u0430\u0441\u0456\u044f", "name:da": "Khakasien", "name:de": "Chakassien", "name:en": "Khakassia", "name:eo": "Respubliko \u0124akasio", "name:es": "Jakasia", "name:fr": "Khakassie", "name:hr": "Hakasija", "name:hu": "Hakaszf\u00f6ld", "name:ja": "\u30cf\u30ab\u30b9\u5171\u548c\u56fd", "name:lt": "Chakasija", "name:pl": "Chakasja", "name:ru": "\u0420\u0435\u0441\u043f\u0443\u0431\u043b\u0438\u043a\u0430 \u0425\u0430\u043a\u0430\u0441\u0438\u044f", "name:sk": "Chakasko", "name:uk": "\u0425\u0430\u043a\u0430\u0441\u0456\u044f", "official_name": "\u0420\u0435\u0441\u043f\u0443\u0431\u043b\u0438\u043a\u0430 \u0425\u0430\u043a\u0430\u0441\u0438\u044f", "official_name:be": "\u0420\u044d\u0441\u043f\u0443\u0431\u043b\u0456\u043a\u0430 \u0425\u0430\u043a\u0430\u0441\u0456\u044f", "official_name:en": "Republic of Khakassia", "official_name:es": "Rep\u00fablica de Jakasia", "official_name:fr": "R\u00e9publique de Khakassie", "official_name:ru": "\u0420\u0435\u0441\u043f\u0443\u0431\u043b\u0438\u043a\u0430 \u0425\u0430\u043a\u0430\u0441\u0438\u044f", "official_name:sk": "Chakask\u00e1 republika", "place": "state", "ref": "\u0425\u0410\u041a", "ref:en": "KK", "wikidata": "Q6543", "wikipedia": "ru:\u0425\u0430\u043a\u0430\u0441\u0438\u044f"}}, {"type": "node", "id": 503068230, "lat": 51.4017149, "lon": 93.8582593, "tags": {"is_in:country": "\u0420\u043e\u0441\u0441\u0438\u044f", "name": "\u0420\u0435\u0441\u043f\u0443\u0431\u043b\u0438\u043a\u0430 \u0422\u044b\u0432\u0430", "name:be": "\u0422\u0443\u0432\u0430", "name:de": "Tuwa", "name:en": "Tuva", "name:eo": "Tuvio", "name:es": "Tuv\u00e1", "name:fr": "Touva", "name:hr": "Tuva", "name:hu": "Tuva", "name:ru": "\u0420\u0435\u0441\u043f\u0443\u0431\u043b\u0438\u043a\u0430 \u0422\u044b\u0432\u0430", "name:sk": "Tuviansko", "official_name": "\u0420\u0435\u0441\u043f\u0443\u0431\u043b\u0438\u043a\u0430 \u0422\u0443\u0432\u0430", "official_name:be": "\u0420\u044d\u0441\u043f\u0443\u0431\u043b\u0456\u043a\u0430 \u0422\u0443\u0432\u0430", "official_name:de": "Republik Tuwa", "official_name:es": "Rep\u00fablica Tuv\u00e1", "official_name:fr": "R\u00e9publique de Touva", "official_name:ru": "\u0420\u0435\u0441\u043f\u0443\u0431\u043b\u0438\u043a\u0430 \u0422\u0443\u0432\u0430", "place": "state", "ref": "\u0422\u0423\u0412", "ref:en": "TY", "wikidata": "Q960", "wikipedia": "ru:\u0422\u044b\u0432\u0430"}}, {"type": "node", "id": 503073143, "lat": 63.3233807, "lon": 97.0979974, "tags": {"is_in:country": "\u0420\u043e\u0441\u0441\u0438\u044f", "name": "\u041a\u0440\u0430\u0441\u043d\u043e\u044f\u0440\u0441\u043a\u0438\u0439 \u043a\u0440\u0430\u0439", "name:be": "\u041a\u0440\u0430\u0441\u043d\u0430\u044f\u0440\u0441\u043a\u0456 \u043a\u0440\u0430\u0439", "name:da": "Krasnojarsk kraj", "name:de": "Region Krasnojarsk", "name:en": "Krasnoyarsk Krai", "name:eo": "Krasnojarska Regiono", "name:es": "Krai de Krasnoyarsk", "name:fr": "Kra\u00ef de Krasno\u00efarsk", "name:he": "\u05de\u05d7\u05d5\u05d6 \u05e7\u05e8\u05e1\u05e0\u05d5\u05d9\u05d0\u05e8\u05e1\u05e7", "name:hr": "Krasnojarski kraj", "name:hu": "Krasznojarszki hat\u00e1rter\u00fclet", "name:ja": "\u30af\u30e9\u30b9\u30ce\u30e4\u30eb\u30b9\u30af\u5730\u65b9", "name:lt": "Krasnojarsko kra\u0161tas", "name:pl": "Kraj Krasnojarski", "name:ru": "\u041a\u0440\u0430\u0441\u043d\u043e\u044f\u0440\u0441\u043a\u0438\u0439 \u043a\u0440\u0430\u0439", "name:sk": "Krasnojarsk\u00fd kraj", "name:tt": "\u041a\u0440\u0430\u0441\u043d\u043e\u044f\u0440\u0441\u043a \u043a\u0440\u0430\u0435", "name:uk": "\u041a\u0440\u0430\u0441\u043d\u043e\u044f\u0440\u0441\u044c\u043a\u0438\u0439 \u043a\u0440\u0430\u0439", "place": "state", "ref": "\u041a\u0420\u041d", "ref:en": "KYA", "wikidata": "Q6563", "wikipedia": "ru:\u041a\u0440\u0430\u0441\u043d\u043e\u044f\u0440\u0441\u043a\u0438\u0439 \u043a\u0440\u0430\u0439"}}, {"type": "node", "id": 503077246, "lat": 56.6370122, "lon": 104.719221, "tags": {"int_name": "Irkutsk Oblast", "is_in:country": "\u0420\u043e\u0441\u0441\u0438\u044f", "name": "\u0418\u0440\u043a\u0443\u0442\u0441\u043a\u0430\u044f \u043e\u0431\u043b\u0430\u0441\u0442\u044c", "name:be": "\u0406\u0440\u043a\u0443\u0446\u043a\u0430\u044f \u0432\u043e\u0431\u043b\u0430\u0441\u0446\u044c", "name:da": "Irkutsk oblast", "name:de": "Oblast Irkutsk", "name:en": "Irkutsk Oblast", "name:eo": "Irkutska Provinco", "name:es": "\u00d3blast de Irkutsk", "name:fr": "Oblast d'Irkoutsk", "name:hr": "Irkutska oblast", "name:hu": "Irkutszki ter\u00fclet", "name:ja": "\u30a4\u30eb\u30af\u30fc\u30c4\u30af\u5dde", "name:lt": "Irkutsko sritis", "name:pl": "Obw\u00f3d irkucki", "name:ru": "\u0418\u0440\u043a\u0443\u0442\u0441\u043a\u0430\u044f \u043e\u0431\u043b\u0430\u0441\u0442\u044c", "name:sk": "Irkutsk\u00e1 oblas\u0165", "name:tt": "\u0418\u0440\u043a\u0443\u0442\u0441\u043a \u04e9\u043b\u043a\u04d9\u0441\u0435", "name:uk": "\u0406\u0440\u043a\u0443\u0442\u0441\u044c\u043a\u0430 \u043e\u0431\u043b\u0430\u0441\u0442\u044c", "place": "state", "ref": "\u0418\u0420\u041a", "ref:en": "IRK", "wikidata": "Q6585", "wikipedia": "ru:\u0418\u0440\u043a\u0443\u0442\u0441\u043a\u0430\u044f \u043e\u0431\u043b\u0430\u0441\u0442\u044c"}}, {"type": "node", "id": 503080952, "lat": 52.7182426, "lon": 109.492143, "tags": {"is_in": "\u0420\u043e\u0441\u0441\u0438\u044f", "name": "\u0411\u0443\u0440\u044f\u0442\u0438\u044f", "name:be": "\u0411\u0443\u0440\u0430\u0446\u0456\u044f", "name:de": "Burjatien", "name:en": "Buryatia", "name:eo": "Burjatio", "name:es": "Buriatia", "name:fr": "Bouriatie", "name:hr": "Burjatska", "name:hu": "Burj\u00e1tf\u00f6ld", "name:ja": "\u30d6\u30ea\u30e4\u30fc\u30c8\u5171\u548c\u56fd", "name:lt": "Buriatija", "name:pl": "Buriacja", "name:ru": "\u0411\u0443\u0440\u044f\u0442\u0438\u044f", "name:sk": "Buriatsko", "name:uk": "\u0411\u0443\u0440\u044f\u0442\u0456\u044f", "official_name:be": "\u0420\u044d\u0441\u043f\u0443\u0431\u043b\u0456\u043a\u0430 \u0411\u0443\u0440\u0430\u0446\u0456\u044f", "official_name:en": "Buryat Republic", "official_name:es": "Rep\u00fablica de Buriatia", "official_name:fr": "R\u00e9publique de Bouriatie", "official_name:ru": "\u0420\u0435\u0441\u043f\u0443\u0431\u043b\u0438\u043a\u0430 \u0411\u0443\u0440\u044f\u0442\u0438\u044f", "place": "state", "ref": "\u0411\u0423\u0420", "ref:en": "BU", "wikidata": "Q6809", "wikipedia": "ru:\u0411\u0443\u0440\u044f\u0442\u0438\u044f"}}, {"type": "node", "id": 503087444, "lat": 52.248521, "lon": 115.956325, "tags": {"is_in:country": "\u0420\u043e\u0441\u0441\u0438\u044f", "name": "\u0417\u0430\u0431\u0430\u0439\u043a\u0430\u043b\u044c\u0441\u043a\u0438\u0439 \u043a\u0440\u0430\u0439", "name:ar": "\u0632\u0627\u0628\u0627\u064a\u0643\u0627\u0644\u0633\u0643\u064a \u0643\u0631\u0627\u064a", "name:be": "\u0417\u0430\u0431\u0430\u0439\u043a\u0430\u043b\u044c\u0441\u043a\u0456 \u043a\u0440\u0430\u0439", "name:de": "Region Transbaikalien", "name:en": "Zabaykalsky Krai", "name:eo": "Transbajkalo Regiono", "name:es": "Krai de Zabaikalie", "name:fr": "Kra\u00ef de Transba\u00efkalie", "name:he": "\u05de\u05d7\u05d5\u05d6 \u05e2\u05d1\u05e8 \u05d4\u05d1\u05d0\u05d9\u05e7\u05dc", "name:hr": "Zabajkalski kraj", "name:hu": "Bajk\u00e1lont\u00fali hat\u00e1rter\u00fclet", "name:ja": "\u30b6\u30d0\u30a4\u30ab\u30ea\u30a8\u5730\u65b9", "name:lt": "U\u017ebaikal\u0117s kra\u0161tas", "name:pl": "Kraj Zabajkalski", "name:ru": "\u0417\u0430\u0431\u0430\u0439\u043a\u0430\u043b\u044c\u0441\u043a\u0438\u0439 \u043a\u0440\u0430\u0439", "name:sk": "Zabajkalsk\u00fd kraj", "name:uk": "\u0417\u0430\u0431\u0430\u0439\u043a\u0430\u043b\u044c\u0441\u044c\u043a\u0438\u0439 \u043a\u0440\u0430\u0439", "place": "state", "ref": "\u0417\u0410\u0411", "ref:en": "ZAB", "wikidata": "Q6838", "wikipedia": "ru:\u0417\u0430\u0431\u0430\u0439\u043a\u0430\u043b\u044c\u0441\u043a\u0438\u0439 \u043a\u0440\u0430\u0439"}}, {"type": "node", "id": 503088681, "lat": 66.941626, "lon": 129.642371, "tags": {"name": "\u0420\u0435\u0441\u043f\u0443\u0431\u043b\u0438\u043a\u0430 \u0421\u0430\u0445\u0430 (\u042f\u043a\u0443\u0442\u0438\u044f)", "name:ba": "\u042f\u04a1\u0443\u0442 \u0420\u0435\u0441\u043f\u0443\u0431\u043b\u0438\u043a\u0430\u04bb\u044b", "name:be": "\u0421\u0430\u0445\u0430 (\u042f\u043a\u0443\u0446\u0456\u044f)", "name:da": "Sakha", "name:de": "Sacha (Jakutien)", "name:en": "Sakha (Yakutia)", "name:eo": "Jakutio", "name:es": "Sa\u0125a (Jakutio)", "name:fr": "Iakoutie", "name:hr": "Jakutska", "name:hu": "Jakutf\u00f6ld", "name:ja": "\u30b5\u30cf\u5171\u548c\u56fd (\u30e4\u30af\u30fc\u30c6\u30a3\u30a2)", "name:lt": "Jakutija", "name:pl": "Jakucja", "name:ru": "\u0420\u0435\u0441\u043f\u0443\u0431\u043b\u0438\u043a\u0430 \u0421\u0430\u0445\u0430 (\u042f\u043a\u0443\u0442\u0438\u044f)", "name:sah": "\u0421\u0430\u0445\u0430", "name:sk": "Republika Sacha (Jakutsko)", "name:tt": "\u042f\u043a\u0443\u0442\u0438\u044f", "name:uk": "\u0420\u0435\u0441\u043f\u0443\u0431\u043b\u0456\u043a\u0430 \u0421\u0430\u0445\u0430", "name:zh": "\u8428\u54c8\uff08\u96c5\u5e93\u7279\uff09\u5171\u548c\u56fd", "official_name:be": "\u0420\u044d\u0441\u043f\u0443\u0431\u043b\u0456\u043a\u0430 \u0421\u0430\u0445\u0430 (\u042f\u043a\u0443\u0446\u0456\u044f)", "official_name:de": "Republik Sacha (Jakutien)", "official_name:en": "Sakha (Yakutia) Republic", "official_name:es": "Respubliko Sa\u0125a (Jakutio)", "official_name:fr": "R\u00e9publique de Sakha (Iakoutie)", "official_name:ru": "\u0420\u0435\u0441\u043f\u0443\u0431\u043b\u0438\u043a\u0430 \u0421\u0430\u0445\u0430 (\u042f\u043a\u0443\u0442\u0438\u044f)", "official_name:sah": "\u0421\u0430\u0445\u0430 \u0420\u0435\u0441\u043f\u0443\u0431\u043b\u0438\u043a\u0430\u0442\u0430", "place": "state", "ref": "\u042f\u041a\u0423", "ref:en": "SA", "wikidata": "Q6605", "wikipedia": "ru:\u042f\u043a\u0443\u0442\u0438\u044f"}}, {"type": "node", "id": 505006802, "lat": 54.4226732, "lon": 40.5705246, "tags": {"int_name": "Ryazan Oblast", "is_in": "\u0420\u043e\u0441\u0441\u0438\u044f", "name": "\u0420\u044f\u0437\u0430\u043d\u0441\u043a\u0430\u044f \u043e\u0431\u043b\u0430\u0441\u0442\u044c", "name:be": "\u0420\u0430\u0437\u0430\u043d\u0441\u043a\u0430\u044f \u0432\u043e\u0431\u043b\u0430\u0441\u0446\u044c", "name:de": "Oblast Rjasan", "name:en": "Ryazan region", "name:eo": "Rjazanja Provinco", "name:es": "\u00d3blast de Riaz\u00e1n", "name:fr": "Oblast de Riazan", "name:hr": "Rjazanjska oblast", "name:hu": "Rjazanyi ter\u00fclet", "name:ja": "\u30ea\u30e3\u30b6\u30f3\u5dde", "name:lt": "Riazan\u0117s sritis", "name:pl": "Obw\u00f3d riaza\u0144ski", "name:ru": "\u0420\u044f\u0437\u0430\u043d\u0441\u043a\u0430\u044f \u043e\u0431\u043b\u0430\u0441\u0442\u044c", "name:sk": "Riazansk\u00e1 oblas\u0165", "name:tt": "\u0420\u044f\u0437\u0430\u043d\u044c \u04e9\u043b\u043a\u04d9\u0441\u0435", "name:uk": "\u0420\u044f\u0437\u0430\u043d\u0441\u044c\u043a\u0430 \u043e\u0431\u043b\u0430\u0441\u0442\u044c", "place": "state", "ref": "\u0420\u042f\u0417", "ref:en": "RYA", "wikidata": "Q2753", "wikipedia": "ru:\u0420\u044f\u0437\u0430\u043d\u0441\u043a\u0430\u044f \u043e\u0431\u043b\u0430\u0441\u0442\u044c"}}, {"type": "node", "id": 508056667, "lat": 48.5601613, "lon": 132.2775662, "tags": {"name": "\u0415\u0432\u0440\u0435\u0439\u0441\u043a\u0430\u044f \u0430\u0432\u0442\u043e\u043d\u043e\u043c\u043d\u0430\u044f \u043e\u0431\u043b\u0430\u0441\u0442\u044c", "name:af": "Joodse Outonome Oblast", "name:be": "\u042f\u045e\u0440\u044d\u0439\u0441\u043a\u0430\u044f \u0430\u045e\u0442\u0430\u043d\u043e\u043c\u043d\u0430\u044f \u0432\u043e\u0431\u043b\u0430\u0441\u0446\u044c", "name:da": "J\u00f8diske autonome oblast", "name:de": "J\u00fcdisches Autonomes Gebiet", "name:en": "Jewish region", "name:eo": "Hebrea A\u016dtonomio", "name:es": "\u00d3blast Aut\u00f3nomo Hebreo", "name:et": "Juudi autonoomne oblast", "name:fr": "Oblast autonome juif", "name:he": "\u05d4\u05de\u05d7\u05d5\u05d6 \u05d4\u05d9\u05d4\u05d5\u05d3\u05d9 \u05d4\u05d0\u05d5\u05d8\u05d5\u05e0\u05d5\u05de\u05d9", "name:hr": "\u017didovska autonomna oblast", "name:hu": "Zsid\u00f3 auton\u00f3m ter\u00fclet", "name:ja": "\u30e6\u30c0\u30e4\u81ea\u6cbb\u5dde", "name:lt": "\u017dyd\u0173 autonomin\u0117 sritis", "name:nl": "Joodse Autonome Oblast", "name:pl": "\u017bydowski Obw\u00f3d Autonomiczny", "name:ru": "\u0415\u0432\u0440\u0435\u0439\u0441\u043a\u0430\u044f \u0430\u0432\u0442\u043e\u043d\u043e\u043c\u043d\u0430\u044f \u043e\u0431\u043b\u0430\u0441\u0442\u044c", "name:sk": "\u017didovsk\u00e1 auton\u00f3mna oblas\u0165", "name:uk": "\u0404\u0432\u0440\u0435\u0439\u0441\u044c\u043a\u0430 \u0430\u0432\u0442\u043e\u043d\u043e\u043c\u043d\u0430 \u043e\u0431\u043b\u0430\u0441\u0442\u044c", "place": "state", "ref": "\u0415\u0412\u0420", "ref:en": "JEW", "wikidata": "Q7730", "wikipedia": "ru:\u0415\u0432\u0440\u0435\u0439\u0441\u043a\u0430\u044f \u0430\u0432\u0442\u043e\u043d\u043e\u043c\u043d\u0430\u044f \u043e\u0431\u043b\u0430\u0441\u0442\u044c"}}, {"type": "node", "id": 508056994, "lat": 51.6312684, "lon": 136.121524, "tags": {"name": "\u0425\u0430\u0431\u0430\u0440\u043e\u0432\u0441\u043a\u0438\u0439 \u043a\u0440\u0430\u0439", "name:be": "\u0425\u0430\u0431\u0430\u0440\u0430\u045e\u0441\u043a\u0456 \u043a\u0440\u0430\u0439", "name:da": "Khabarovsk kraj", "name:de": "Region Chabarowsk", "name:en": "Khabarovsk Krai", "name:eo": "\u0124abarovska Regiono", "name:es": "Krai de Jab\u00e1rovsk", "name:fr": "Kra\u00ef de Khabarovsk", "name:he": "\u05de\u05d7\u05d5\u05d6 \u05d7\u05d1\u05e8\u05d5\u05d1\u05e1\u05e7", "name:hr": "Habarovski kraj", "name:hu": "Habarovszki hat\u00e1rter\u00fclet", "name:ja": "\u30cf\u30d0\u30ed\u30d5\u30b9\u30af\u5730\u65b9", "name:lt": "Chabarovsko kra\u0161tas", "name:pl": "Kraj Chabarowski", "name:ru": "\u0425\u0430\u0431\u0430\u0440\u043e\u0432\u0441\u043a\u0438\u0439 \u043a\u0440\u0430\u0439", "name:sk": "Chabarovsk\u00fd kraj", "name:uk": "\u0425\u0430\u0431\u0430\u0440\u043e\u0432\u0441\u044c\u043a\u0438\u0439 \u043a\u0440\u0430\u0439", "place": "state", "ref": "\u0425\u0410\u0411", "ref:en": "KHA", "wikidata": "Q7788", "wikipedia": "ru:\u0425\u0430\u0431\u0430\u0440\u043e\u0432\u0441\u043a\u0438\u0439 \u043a\u0440\u0430\u0439"}}, {"type": "node", "id": 508057236, "lat": 49.7219665, "lon": 143.448533, "tags": {"name": "\u0421\u0430\u0445\u0430\u043b\u0438\u043d\u0441\u043a\u0430\u044f \u043e\u0431\u043b\u0430\u0441\u0442\u044c", "name:be": "\u0421\u0430\u0445\u0430\u043b\u0456\u043d\u0441\u043a\u0430\u044f \u0432\u043e\u0431\u043b\u0430\u0441\u0446\u044c", "name:de": "Sachalin", "name:en": "Sakhalin Oblast", "name:eo": "Sa\u0125alena Provinco", "name:es": "\u00d3blast de Sajal\u00edn", "name:fr": "Oblast de Sakhaline", "name:hr": "Sahalinska oblast", "name:hu": "Szahalini ter\u00fclet", "name:ja": "\u30b5\u30cf\u30ea\u30f3\u5dde", "name:ko": "\uc0ac\ud560\ub9b0 \uc8fc", "name:lt": "Sachalino sritis", "name:ms": "Wilayah Sakhalin", "name:pl": "Obw\u00f3d sachali\u0144ski", "name:ru": "\u0421\u0430\u0445\u0430\u043b\u0438\u043d\u0441\u043a\u0430\u044f \u043e\u0431\u043b\u0430\u0441\u0442\u044c", "name:sk": "Sachalinsk\u00e1 oblas\u0165", "name:ta": "\u0b9a\u0b95\u0bbe\u0bb2\u0bbf\u0ba9\u0bcd \u0bae\u0bbe\u0b95\u0bbe\u0ba3\u0bae\u0bcd", "name:uk": "\u0421\u0430\u0445\u0430\u043b\u0456\u043d\u0441\u044c\u043a\u0430 \u043e\u0431\u043b\u0430\u0441\u0442\u044c", "name:zh": "\u8428\u54c8\u6797\u5dde", "official_name:de": "Oblast Sachalin", "place": "state", "population": "490181", "population:date": "2018", "ref": "\u0421\u0410\u0425", "ref:en": "SAK", "wikidata": "Q7797", "wikipedia": "ru:\u0421\u0430\u0445\u0430\u043b\u0438\u043d\u0441\u043a\u0430\u044f \u043e\u0431\u043b\u0430\u0441\u0442\u044c"}}, {"type": "node", "id": 508057529, "lat": 57.1914882, "lon": 160.0383819, "tags": {"ISO3166-2": "RU-KAM", "addr:country": "RU", "admin_level": "4", "alt_name": "\u041a\u0430\u043c\u0447\u0430\u0442\u043a\u0430", "int_name": "Kamchatkiy Kray", "name": "\u041a\u0430\u043c\u0447\u0430\u0442\u0441\u043a\u0438\u0439 \u043a\u0440\u0430\u0439", "name:be": "\u041a\u0430\u043c\u0447\u0430\u0442\u043a\u0430", "name:br": "Kamtchatka", "name:ca": "Territori de Kamtxatka", "name:de": "Region Kamtschatka", "name:en": "Kamchatka Krai", "name:eo": "Kam\u0109atko Regiono", "name:es": "Krai de Kamchatka", "name:et": "Kamt\u0161atka krai", "name:fr": "Kra\u00ef du Kamtchatka", "name:he": "\u05de\u05d7\u05d5\u05d6 \u05e7\u05de\u05e6'\u05d8\u05e7\u05d4", "name:hr": "Kama\u010datski kraj", "name:hu": "Kamcsatkai hat\u00e1rter\u00fclet", "name:ja": "\u30ab\u30e0\u30c1\u30e3\u30c4\u30ab\u5730\u65b9", "name:lt": "Kam\u010diatkos kra\u0161tas", "name:nl": "Kraj Kamtsjatka", "name:pl": "Kraj Kamczacki", "name:pt": "Krai de Kamtchatka", "name:ru": "\u041a\u0430\u043c\u0447\u0430\u0442\u0441\u043a\u0438\u0439 \u043a\u0440\u0430\u0439", "name:sk": "Kam\u010datsk\u00fd kraj", "name:sv": "Kamtjatka kraj", "name:uk": "\u041a\u0430\u043c\u0447\u0430\u0442\u0441\u044c\u043a\u0438\u0439 \u043a\u0440\u0430\u0439", "name:vi": "Kamchatka (v\u00f9ng)", "name:zh": "\u582a\u5bdf\u52a0\u908a\u7586\u5340", "official_name": "\u041a\u0430\u043c\u0447\u0430\u0442\u0441\u043a\u0438\u0439 \u043a\u0440\u0430\u0439", "official_name:be": "\u041a\u0430\u043c\u0447\u0430\u0446\u043a\u0456 \u043a\u0440\u0430\u0439", "official_name:de": "Region Kamtschatka", "official_name:es": "Krai de Kamchatka", "official_name:fr": "Kra\u00ef du Kamtchatka", "official_name:ru": "\u041a\u0430\u043c\u0447\u0430\u0442\u0441\u043a\u0438\u0439 \u043a\u0440\u0430\u0439", "official_status": "ru:\u043a\u0440\u0430\u0439", "place": "state", "population": "319864", "population:date": "2014-01-01", "ref": "RU-KAM", "ref:en": "KAM", "source:name:br": "ofis publik ar brezhoneg", "timezone": "Asia/Kamchatka", "wikidata": "Q7948", "wikipedia": "ru:\u041a\u0430\u043c\u0447\u0430\u0442\u0441\u043a\u0438\u0439 \u043a\u0440\u0430\u0439"}}, {"type": "node", "id": 508057745, "lat": 63.5515028, "lon": 154.014726, "tags": {"name": "\u041c\u0430\u0433\u0430\u0434\u0430\u043d\u0441\u043a\u0430\u044f \u043e\u0431\u043b\u0430\u0441\u0442\u044c", "name:be": "\u041c\u0430\u0433\u0430\u0434\u0430\u043d\u0441\u043a\u0430\u044f \u0432\u043e\u0431\u043b\u0430\u0441\u0446\u044c", "name:de": "Oblast Magadan", "name:en": "Magadan region", "name:eo": "Magadana Provinco", "name:es": "\u00d3blast de Magad\u00e1n", "name:fr": "Oblast de Magadan", "name:hr": "Magadanska oblast", "name:hu": "Magadani ter\u00fclet", "name:ja": "\u30de\u30ac\u30c0\u30f3\u5dde", "name:lt": "Magadano sritis", "name:pl": "Obw\u00f3d magada\u0144ski", "name:ru": "\u041c\u0430\u0433\u0430\u0434\u0430\u043d\u0441\u043a\u0430\u044f \u043e\u0431\u043b\u0430\u0441\u0442\u044c", "name:sk": "Magadansk\u00e1 oblas\u0165", "name:tt": "\u041c\u0430\u0433\u0430\u0434\u0430\u043d \u04e9\u043b\u043a\u04d9\u0441\u0435", "name:uk": "\u041c\u0430\u0433\u0430\u0434\u0430\u043d\u0441\u044c\u043a\u0430 \u043e\u0431\u043b\u0430\u0441\u0442\u044c", "place": "state", "ref": "\u041c\u0410\u0413", "ref:en": "MAG", "wikidata": "Q7971", "wikipedia": "ru:\u041c\u0430\u0433\u0430\u0434\u0430\u043d\u0441\u043a\u0430\u044f \u043e\u0431\u043b\u0430\u0441\u0442\u044c"}}, {"type": "node", "id": 508057959, "lat": 66.0006475, "lon": 169.4900869, "tags": {"gost_7.67-2003": "\u0420\u041e\u0424-\u0427\u0423\u041a", "int_name": "Chukotka Autonomous Okrug", "int_ref": "RU-CHU", "name": "\u0427\u0443\u043a\u043e\u0442\u0441\u043a\u0438\u0439 \u0430\u0432\u0442\u043e\u043d\u043e\u043c\u043d\u044b\u0439 \u043e\u043a\u0440\u0443\u0433", "name:be": "\u0427\u0443\u043a\u043e\u0442\u043a\u0430", "name:ca": "Txukotka", "name:cs": "\u010cukotsk\u00fd autonomn\u00ed okruh", "name:de": "Autonomer Kreis der Tschuktschen", "name:en": "Chukotka Autonomous Okrug", "name:eo": "\u0108ukotko", "name:es": "Chukotka", "name:et": "T\u0161ukt\u0161imaa", "name:fr": "Tchoukotka", "name:hr": "\u010cukotski autonomni okrug", "name:hu": "Csukcsf\u00f6ld", "name:it": "Circondario autonomo della \u010cukotka", "name:ja": "\u30c1\u30e5\u30af\u30c1\u81ea\u6cbb\u7ba1\u533a", "name:lt": "\u010ciuk\u010di\u0173 autonomin\u0117 apygarda", "name:nl": "Tsjoekotka", "name:pl": "Czukocki Okr\u0119g Autonomiczny", "name:ru": "\u0427\u0443\u043a\u043e\u0442\u0441\u043a\u0438\u0439 \u0430\u0432\u0442\u043e\u043d\u043e\u043c\u043d\u044b\u0439 \u043e\u043a\u0440\u0443\u0433", "name:sk": "\u010cukotsk\u00fd auton\u00f3mny okruh", "name:sv": "Tjuktjien", "name:tt": "\u0427\u0443\u043a\u043e\u0442\u043a\u0430 \u0430\u0432\u0442\u043e\u043d\u043e\u043c\u0438\u044f\u043b\u0435 \u043e\u043a\u0440\u0443\u0433\u044b", "name:uk": "\u0427\u0443\u043a\u043e\u0442\u0441\u044c\u043a\u0438\u0439 \u0430\u0432\u0442\u043e\u043d\u043e\u043c\u043d\u0438\u0439 \u043e\u043a\u0440\u0443\u0433", "name:vi": "Khu t\u1ef1 tr\u1ecb Chukotka", "name:zh": "\u695a\u79d1\u5947\u81ea\u6cbb\u533a", "official_name": "\u0427\u0443\u043a\u043e\u0442\u0441\u043a\u0438\u0439 \u0430\u0432\u0442\u043e\u043d\u043e\u043c\u043d\u044b\u0439 \u043e\u043a\u0440\u0443\u0433", "official_name:be": "\u0427\u0443\u043a\u043e\u0446\u043a\u0430\u044f \u0430\u045e\u0442\u0430\u043d\u043e\u043c\u043d\u0430\u044f \u0430\u043a\u0440\u0443\u0433\u0430", "official_name:de": "Autonomer Kreis der Tschuktschen", "official_name:en": "Chukotka Autonomous Okrug", "official_name:es": "Distrito aut\u00f3nomo de Chukotka", "official_name:fr": "District autonome de Tchoukotka", "official_name:ru": "\u0427\u0443\u043a\u043e\u0442\u0441\u043a\u0438\u0439 \u0430\u0432\u0442\u043e\u043d\u043e\u043c\u043d\u044b\u0439 \u043e\u043a\u0440\u0443\u0433", "place": "state", "ref": "\u0427\u0423\u041a", "ref:en": "CHU", "wikidata": "Q7984", "wikipedia": "ru:\u0427\u0443\u043a\u043e\u0442\u0441\u043a\u0438\u0439 \u0430\u0432\u0442\u043e\u043d\u043e\u043c\u043d\u044b\u0439 \u043e\u043a\u0440\u0443\u0433"}}, {"type": "node", "id": 516618494, "lat": 54.7293041, "lon": 21.1489473, "tags": {"int_name": "Kaliningrad region", "name": "\u041a\u0430\u043b\u0438\u043d\u0438\u043d\u0433\u0440\u0430\u0434\u0441\u043a\u0430\u044f \u043e\u0431\u043b\u0430\u0441\u0442\u044c", "name:be": "\u041a\u0430\u043b\u0456\u043d\u0456\u043d\u0433\u0440\u0430\u0434\u0441\u043a\u0430\u044f \u0432\u043e\u0431\u043b\u0430\u0441\u0446\u044c", "name:de": "Oblast Kaliningrad", "name:en": "Kaliningrad Oblast", "name:eo": "Kaliningrada Provinco", "name:fr": "Oblast de Kaliningrad", "name:hr": "Kaljingradska oblast", "name:hu": "Kalinyingr\u00e1d", "name:ku": "Oblasta Kaliningrad\u00ea", "name:lt": "Kaliningrado sritis", "name:pl": "obw\u00f3d kaliningradzki", "name:ru": "\u041a\u0430\u043b\u0438\u043d\u0438\u043d\u0433\u0440\u0430\u0434\u0441\u043a\u0430\u044f \u043e\u0431\u043b\u0430\u0441\u0442\u044c", "name:sk": "Kaliningradsk\u00e1 oblas\u0165", "name:uk": "\u041a\u0430\u043b\u0456\u043d\u0456\u043d\u0433\u0440\u0430\u0434\u0441\u044c\u043a\u0430 \u043e\u0431\u043b\u0430\u0441\u0442\u044c", "name:zh": "\u52a0\u91cc\u5b81\u683c\u52d2\u5dde", "place": "state", "population": "937000", "ref": "\u041a\u041b\u041d", "wikidata": "Q1749", "wikipedia": "ru:\u041a\u0430\u043b\u0438\u043d\u0438\u043d\u0433\u0440\u0430\u0434\u0441\u043a\u0430\u044f \u043e\u0431\u043b\u0430\u0441\u0442\u044c"}}, {"type": "node", "id": 533634715, "lat": 58.2843833, "lon": 32.5169757, "tags": {"admin_level": "4", "is_in": "\u0420\u043e\u0441\u0441\u0438\u0439\u0441\u043a\u0430\u044f \u0424\u0435\u0434\u0435\u0440\u0430\u0446\u0438\u044f", "name": "\u041d\u043e\u0432\u0433\u043e\u0440\u043e\u0434\u0441\u043a\u0430\u044f \u043e\u0431\u043b\u0430\u0441\u0442\u044c", "name:be": "\u041d\u0430\u045e\u0433\u0430\u0440\u043e\u0434\u0441\u043a\u0430\u044f \u0432\u043e\u0431\u043b\u0430\u0441\u0446\u044c", "name:cs": "Novgorodsk\u00e1 oblast", "name:de": "Oblast Nowgorod", "name:en": "Novgorod Oblast", "name:eo": "Novgoroda Provinco", "name:es": "\u00d3blast de N\u00f3vgorod", "name:et": "Novgorodi oblast", "name:fr": "Oblast de Novgorod", "name:hr": "Novgorodska oblast", "name:hu": "Velikij Novgorod", "name:ja": "\u30ce\u30f4\u30b4\u30ed\u30c9\u5dde", "name:lt": "Novgorodo sritis", "name:pl": "Obw\u00f3d nowogrodzki", "name:ru": "\u041d\u043e\u0432\u0433\u043e\u0440\u043e\u0434\u0441\u043a\u0430\u044f \u043e\u0431\u043b\u0430\u0441\u0442\u044c", "name:sk": "Novgorodsk\u00e1 oblas\u0165", "name:sr": "\u041d\u043e\u0432\u0433\u043e\u0440\u043e\u0434\u0441\u043a\u0430 \u043e\u0431\u043b\u0430\u0441\u0442", "name:uk": "\u041d\u043e\u0432\u0433\u043e\u0440\u043e\u0434\u0441\u044c\u043a\u0430 \u043e\u0431\u043b\u0430\u0441\u0442\u044c", "place": "state", "ref": "\u041d\u041e\u0412", "ref:en": "NGR", "wikidata": "Q2240", "wikipedia": "ru:\u041d\u043e\u0432\u0433\u043e\u0440\u043e\u0434\u0441\u043a\u0430\u044f \u043e\u0431\u043b\u0430\u0441\u0442\u044c"}}, {"type": "node", "id": 533719181, "lat": 53.2128813, "lon": 50.8914633, "tags": {"int_name": "Samara Oblast", "name": "\u0421\u0430\u043c\u0430\u0440\u0441\u043a\u0430\u044f \u043e\u0431\u043b\u0430\u0441\u0442\u044c", "name:be": "\u0421\u0430\u043c\u0430\u0440\u0441\u043a\u0430\u044f \u0432\u043e\u0431\u043b\u0430\u0441\u0446\u044c", "name:cs": "Samarsk\u00e1 oblast", "name:de": "Oblast Samara", "name:en": "Samara Oblast", "name:eo": "Samara Provinco", "name:es": "\u00d3blast de Samara", "name:fr": "Oblast de Samara", "name:hr": "Samarska oblast", "name:hu": "Szamarai ter\u00fclet", "name:ja": "\u30b5\u30de\u30fc\u30e9\u5dde", "name:lt": "Samaros sritis", "name:pl": "Obw\u00f3d samarski", "name:ru": "\u0421\u0430\u043c\u0430\u0440\u0441\u043a\u0430\u044f \u043e\u0431\u043b\u0430\u0441\u0442\u044c", "name:sk": "Samarsk\u00e1 oblas\u0165", "name:tt": "\u0421\u0430\u043c\u0430\u0440\u0430 \u04e9\u043b\u043a\u04d9\u0441\u0435", "name:uk": "\u0421\u0430\u043c\u0430\u0440\u0441\u044c\u043a\u0430 \u043e\u0431\u043b\u0430\u0441\u0442\u044c", "place": "state", "ref": "\u0421\u0410\u041c", "ref:en": "SAM", "wikidata": "Q1727", "wikipedia": "ru:\u0421\u0430\u043c\u0430\u0440\u0441\u043a\u0430\u044f \u043e\u0431\u043b\u0430\u0441\u0442\u044c"}}, {"type": "node", "id": 535136806, "lat": 68.0000418, "lon": 33.9999151, "tags": {"admin_level": "4", "int_name": "Murmansk Oblast", "is_in": "\u0420\u043e\u0441\u0441\u0438\u044f", "name": "\u041c\u0443\u0440\u043c\u0430\u043d\u0441\u043a\u0430\u044f \u043e\u0431\u043b\u0430\u0441\u0442\u044c", "name:be": "\u041c\u0443\u0440\u043c\u0430\u043d\u0441\u043a\u0430\u044f \u0432\u043e\u0431\u043b\u0430\u0441\u0446\u044c", "name:cs": "Murmansk\u00e1 oblast", "name:de": "Oblast Murmansk", "name:en": "Murmansk Oblast", "name:eo": "Murmanska Provinco", "name:es": "\u00d3blast de M\u00farmansk", "name:fi": "Murmanskin alue", "name:fr": "Oblast de Mourmansk", "name:hr": "Murmanska oblast", "name:hu": "Murmanszk Oblast", "name:ja": "\u30e0\u30eb\u30de\u30f3\u30b9\u30af\u5dde", "name:lt": "Murmansko sritis", "name:pl": "Obw\u00f3d murma\u0144ski", "name:ru": "\u041c\u0443\u0440\u043c\u0430\u043d\u0441\u043a\u0430\u044f \u043e\u0431\u043b\u0430\u0441\u0442\u044c", "name:sk": "Murmansk\u00e1 oblas\u0165", "name:sr": "\u041c\u0443\u0440\u043c\u0430\u043d\u0441\u043a\u0430 \u043e\u0431\u043b\u0430\u0441\u0442", "name:sv": "Murmansk oblast", "name:uk": "\u041c\u0443\u0440\u043c\u0430\u043d\u0441\u044c\u043a\u0430 \u043e\u0431\u043b\u0430\u0441\u0442\u044c", "place": "state", "ref": "\u041c\u0423\u0420", "ref:en": "MUR", "wikidata": "Q1759", "wikipedia": "ru:\u041c\u0443\u0440\u043c\u0430\u043d\u0441\u043a\u0430\u044f \u043e\u0431\u043b\u0430\u0441\u0442\u044c"}}, {"type": "node", "id": 535182674, "lat": 58.6414755, "lon": 61.8021546, "tags": {"addr:country": "RU", "addr:postcode": "620000", "addr:region": "\u0421\u0432\u0435\u0440\u0434\u043b\u043e\u0432\u0441\u043a\u0430\u044f \u043e\u0431\u043b\u0430\u0441\u0442\u044c", "admin_level": "4", "int_name": "Sverdlovsk Oblast", "name": "\u0421\u0432\u0435\u0440\u0434\u043b\u043e\u0432\u0441\u043a\u0430\u044f \u043e\u0431\u043b\u0430\u0441\u0442\u044c", "name:be": "\u0421\u0432\u044f\u0440\u0434\u043b\u043e\u045e\u0441\u043a\u0430\u044f \u0432\u043e\u0431\u043b\u0430\u0441\u0446\u044c", "name:cs": "Sverdlovsk\u00e1 oblast", "name:de": "Oblast Swerdlowsk", "name:en": "Sverdlovsk Oblast", "name:eo": "Sverdlovska Provinco", "name:es": "\u00d3blast de Sverdlovsk", "name:fr": "Oblast de Sverdlovsk", "name:hr": "Sverdlovska oblast", "name:hu": "Szverdlovszki ter\u00fclet", "name:ja": "\u30b9\u30f4\u30a7\u30eb\u30c9\u30ed\u30d5\u30b9\u30af\u5dde", "name:pl": "Obw\u00f3d swierd\u0142owski", "name:ru": "\u0421\u0432\u0435\u0440\u0434\u043b\u043e\u0432\u0441\u043a\u0430\u044f \u043e\u0431\u043b\u0430\u0441\u0442\u044c", "name:sk": "Sverdlovsk\u00e1 oblas\u0165", "place": "state", "ref": "\u0421\u0412\u0415", "ref:en": "SVE", "wikidata": "Q5462", "wikipedia": "ru:\u0421\u0432\u0435\u0440\u0434\u043b\u043e\u0432\u0441\u043a\u0430\u044f \u043e\u0431\u043b\u0430\u0441\u0442\u044c"}}, {"type": "node", "id": 540553503, "lat": 58.5951603, "lon": 56.3159546, "tags": {"is_in:country": "\u0420\u043e\u0441\u0441\u0438\u044f", "name": "\u041f\u0435\u0440\u043c\u0441\u043a\u0438\u0439 \u043a\u0440\u0430\u0439", "name:be": "\u041f\u0435\u0440\u043c\u0441\u043a\u0456 \u043a\u0440\u0430\u0439", "name:de": "Region Perm", "name:en": "Perm Krai", "name:eo": "Permja Regiono", "name:es": "Krai de Perm", "name:fr": "Kra\u00ef de Perm", "name:hr": "Permski kraj", "name:hu": "Permi hat\u00e1rter\u00fclet", "name:ja": "\u30da\u30eb\u30df\u5730\u65b9", "name:lt": "Perm\u0117s kra\u0161tas", "name:pl": "Kraj Permski", "name:ru": "\u041f\u0435\u0440\u043c\u0441\u043a\u0438\u0439 \u043a\u0440\u0430\u0439", "name:sk": "Permsk\u00fd kraj", "name:tt": "\u041f\u0435\u0440\u043c\u044c \u043a\u0440\u0430\u0435", "name:uk": "\u041f\u0435\u0440\u043c\u0441\u044c\u043a\u0438\u0439 \u043a\u0440\u0430\u0439", "place": "state", "ref": "\u041f\u0415\u0420", "ref:en": "PER", "wikidata": "Q5400", "wikipedia": "ru:\u041f\u0435\u0440\u043c\u0441\u043a\u0438\u0439 \u043a\u0440\u0430\u0439"}}, {"type": "node", "id": 559621143, "lat": 63.9881421, "lon": 54.3326073, "tags": {"addr:country": "RU", "name": "\u041a\u043e\u043c\u0438", "name:be": "\u041a\u043e\u043c\u0456", "name:de": "Republik Komi", "name:en": "Komi", "name:eo": "Komiio", "name:es": "Komi", "name:fr": "R\u00e9publique des Komis", "name:hr": "Republika Komi", "name:hu": "Komif\u00f6ld", "name:ja": "\u30b3\u30df\u5171\u548c\u56fd", "name:lt": "Komijos Respublika", "name:pl": "Republika Komi", "name:ru": "\u041a\u043e\u043c\u0438", "name:sk": "Komijsko", "name:tt": "\u041a\u043e\u043c\u0438 \u0420\u0435\u0441\u043f\u0443\u0431\u043b\u0438\u043a\u0430\u0441\u044b", "name:uk": "\u0420\u0435\u0441\u043f\u0443\u0431\u043b\u0456\u043a\u0430 \u041a\u043e\u043c\u0456", "official_name": "\u0420\u0435\u0441\u043f\u0443\u0431\u043b\u0438\u043a\u0430 \u041a\u043e\u043c\u0438", "official_name:be": "\u0420\u044d\u0441\u043f\u0443\u0431\u043b\u0456\u043a\u0430 \u041a\u043e\u043c\u0456", "official_name:en": "Komi Republic", "official_name:ru": "\u0420\u0435\u0441\u043f\u0443\u0431\u043b\u0438\u043a\u0430 \u041a\u043e\u043c\u0438", "official_name:sk": "Komijsk\u00e1 republika", "place": "state", "ref": "\u041a\u041e\u041c", "ref:en": "KO", "wikidata": "Q2073", "wikipedia": "ru:\u0420\u0435\u0441\u043f\u0443\u0431\u043b\u0438\u043a\u0430 \u041a\u043e\u043c\u0438"}}, {"type": "node", "id": 567535537, "lat": 62.6194031, "lon": 33.4920267, "tags": {"addr:country": "RU", "alt_name": "\u041a\u0430\u0440\u0435\u043b\u0438\u044f", "name": "\u0420\u0435\u0441\u043f\u0443\u0431\u043b\u0438\u043a\u0430 \u041a\u0430\u0440\u0435\u043b\u0438\u044f", "name:be": "\u041a\u0430\u0440\u044d\u043b\u0456\u044f", "name:da": "Karelen", "name:de": "Republik Karelien", "name:en": "Karjala", "name:eo": "Respubliko Karelio", "name:es": "Carelia", "name:et": "Karjala", "name:fi": "Karjala", "name:fr": "Car\u00e9lie", "name:he": "\u05e7\u05e8\u05d9\u05d0\u05dc\u05d4", "name:ja": "\u30ab\u30ec\u30ea\u30a2\u5171\u548c\u56fd", "name:lt": "Karelijos Respublika", "name:pl": "Karjala", "name:ru": "\u041a\u0430\u0440\u0435\u043b\u0438\u044f", "name:sk": "Karelsko", "name:sv": "Karelska republiken", "name:tt": "Karjala", "name:uk": "\u0420\u0435\u0441\u043f\u0443\u0431\u043b\u0456\u043a\u0430 \u041a\u0430\u0440\u0435\u043b\u0456\u044f", "official_name": "\u0420\u0435\u0441\u043f\u0443\u0431\u043b\u0438\u043a\u0430 \u041a\u0430\u0440\u0435\u043b\u0438\u044f", "official_name:be": "\u0420\u044d\u0441\u043f\u0443\u0431\u043b\u0456\u043a\u0430 \u041a\u0430\u0440\u044d\u043b\u0456\u044f", "official_name:en": "Republic of Karelia", "official_name:es": "Rep\u00fablica de Carelia", "official_name:fr": "R\u00e9publique de Car\u00e9lie", "official_name:ru": "\u0420\u0435\u0441\u043f\u0443\u0431\u043b\u0438\u043a\u0430 \u041a\u0430\u0440\u0435\u043b\u0438\u044f", "official_name:sk": "Karelsk\u00e1 republika", "place": "state", "ref": "\u041a\u0410\u0420", "ref:en": "KR", "wikidata": "Q1914", "wikipedia": "ru:\u0420\u0435\u0441\u043f\u0443\u0431\u043b\u0438\u043a\u0430 \u041a\u0430\u0440\u0435\u043b\u0438\u044f"}}, {"type": "node", "id": 573226686, "lat": 55.448217, "lon": 50.4763591, "tags": {"admin_level": "4", "alt_name": "\u0422\u0430\u0442\u0430\u0440\u0438\u044f", "alt_name:eo": "Tatarujo;Tatarstano", "int_name": "Tatarstan", "name": "\u0422\u0430\u0442\u0430\u0440\u0441\u0442\u0430\u043d", "name:ba": "\u0422\u0430\u0442\u0430\u0440\u0441\u0442\u0430\u043d \u0420\u0435\u0441\u043f\u0443\u0431\u043b\u0438\u043a\u0430\u04bb\u044b", "name:be": "\u0422\u0430\u0442\u0430\u0440\u0441\u0442\u0430\u043d", "name:da": "Tatarstan", "name:de": "Tatarstan", "name:en": "Tatarstan", "name:eo": "Tatario", "name:es": "Tartarist\u00e1n", "name:fr": "Tatarstan", "name:he": "\u05d8\u05d8\u05e8\u05e1\u05d8\u05df", "name:hu": "Tat\u00e1rf\u00f6ld", "name:ja": "\u30bf\u30bf\u30fc\u30eb\u30b9\u30bf\u30f3\u5171\u548c\u56fd", "name:lt": "Tatarstanas", "name:pl": "Tatarstan", "name:ru": "\u0422\u0430\u0442\u0430\u0440\u0441\u0442\u0430\u043d", "name:sk": "Tat\u00e1rsko", "official_name": "\u0420\u0435\u0441\u043f\u0443\u0431\u043b\u0438\u043a\u0430 \u0422\u0430\u0442\u0430\u0440\u0441\u0442\u0430\u043d", "official_name:be": "\u0420\u044d\u0441\u043f\u0443\u0431\u043b\u0456\u043a\u0430 \u0422\u0430\u0442\u0430\u0440\u0441\u0442\u0430\u043d", "official_name:de": "Republik Tatarstan", "official_name:en": "Republic of Tatarstan", "official_name:eo": "Respubliko Tatario", "official_name:es": "Rep\u00fablica de Tartarist\u00e1n", "official_name:fr": "R\u00e9publique du Tatarstan", "official_name:ru": "\u0420\u0435\u0441\u043f\u0443\u0431\u043b\u0438\u043a\u0430 \u0422\u0430\u0442\u0430\u0440\u0441\u0442\u0430\u043d", "official_name:sk": "Tat\u00e1rska republika", "place": "state", "ref": "\u0422\u0410\u0422", "ref:en": "TA", "wikidata": "Q5481", "wikipedia": "ru:\u0422\u0430\u0442\u0430\u0440\u0441\u0442\u0430\u043d"}}, {"type": "node", "id": 573226687, "lat": 54.4747553, "lon": 55.9784582, "tags": {"alt_name": "\u0411\u0430\u0448\u043a\u0438\u0440\u0438\u044f", "alt_name:de": "Baschkirien", "int_name": "Bashkortostan", "name": "\u0411\u0430\u0448\u043a\u043e\u0440\u0442\u043e\u0441\u0442\u0430\u043d", "name:af": "Basjkortostan", "name:ba": "\u0411\u0430\u0448\u04a1\u043e\u0440\u0442\u043e\u0441\u0442\u0430\u043d", "name:be": "\u0411\u0430\u0448\u043a\u0430\u0440\u0442\u0430\u0441\u0442\u0430\u043d", "name:cs": "Ba\u0161kortost\u00e1n", "name:de": "Baschkortostan", "name:en": "Bashkortostan", "name:eo": "Ba\u015dkirio", "name:es": "Bashkortost\u00e1n", "name:fr": "Bachkirie", "name:hu": "Bask\u00edria", "name:ja": "\u30d0\u30b7\u30b3\u30eb\u30c8\u30b9\u30bf\u30f3\u5171\u548c\u56fd", "name:lt": "Ba\u0161kirija", "name:pl": "Baszkiria", "name:ru": "\u0411\u0430\u0448\u043a\u043e\u0440\u0442\u043e\u0441\u0442\u0430\u043d", "name:sk": "Ba\u0161kirsko", "name:tt": "\u0411\u0430\u0448\u043a\u043e\u0440\u0442\u0441\u0442\u0430\u043d", "official_name": "\u0420\u0435\u0441\u043f\u0443\u0431\u043b\u0438\u043a\u0430 \u0411\u0430\u0448\u043a\u043e\u0440\u0442\u043e\u0441\u0442\u0430\u043d", "official_name:be": "\u0420\u044d\u0441\u043f\u0443\u0431\u043b\u0456\u043a\u0430 \u0411\u0430\u0448\u043a\u0430\u0440\u0442\u0430\u0441\u0442\u0430\u043d", "official_name:de": "Republik Baschkortostan", "official_name:en": "Republic of Bashkortostan", "official_name:fr": "R\u00e9publique de Bachkirie", "official_name:ru": "\u0420\u0435\u0441\u043f\u0443\u0431\u043b\u0438\u043a\u0430 \u0411\u0430\u0448\u043a\u043e\u0440\u0442\u043e\u0441\u0442\u0430\u043d", "official_name:sk": "Ba\u0161kirsk\u00e1 republika", "place": "state", "ref": "\u0411\u0410\u0428", "ref:en": "BA", "wikidata": "Q5710", "wikipedia": "ru:\u0411\u0430\u0448\u043a\u043e\u0440\u0442\u043e\u0441\u0442\u0430\u043d"}}, {"type": "node", "id": 573226688, "lat": 57.1961165, "lon": 52.6959832, "tags": {"admin_level": "4", "alt_name": "\u0423\u0434\u043c\u0443\u0440\u0442\u0441\u043a\u0430\u044f \u0440\u0435\u0441\u043f\u0443\u0431\u043b\u0438\u043a\u0430", "int_name": "Udmurtia", "name": "\u0423\u0434\u043c\u0443\u0440\u0442\u0438\u044f", "name:ba": "\u0423\u0434\u043c\u0443\u0440\u0442 \u0420\u0435\u0441\u043f\u0443\u0431\u043b\u0438\u043a\u0430\u04bb\u044b", "name:be": "\u0423\u0434\u043c\u0443\u0440\u0442\u044b\u044f", "name:de": "Udmurtien", "name:en": "Udmurtia", "name:eo": "Udmurtio", "name:es": "Rep\u00fablica de Udmurtia", "name:fr": "Oudmourtie", "name:hu": "Udmurtf\u00f6ld", "name:ja": "\u30a6\u30c9\u30e0\u30eb\u30c8\u5171\u548c\u56fd", "name:lt": "Udmurtija", "name:pl": "Udmurcja", "name:ru": "\u0423\u0434\u043c\u0443\u0440\u0442\u0438\u044f", "name:sk": "Udmurtsko", "name:uk": "\u0423\u0434\u043c\u0443\u0440\u0442\u0456\u044f", "official_name": "\u0423\u0434\u043c\u0443\u0440\u0442\u0441\u043a\u0430\u044f \u0420\u0435\u0441\u043f\u0443\u0431\u043b\u0438\u043a\u0430", "official_name:be": "\u0423\u0434\u043c\u0443\u0440\u0442\u0441\u043a\u0430\u044f \u0420\u044d\u0441\u043f\u0443\u0431\u043b\u0456\u043a\u0430", "official_name:de": "Republik Udmurtien", "official_name:en": "Udmurt Republic", "official_name:fr": "R\u00e9publique d'Oudmourtie", "official_name:ru": "\u0423\u0434\u043c\u0443\u0440\u0442\u0441\u043a\u0430\u044f \u0420\u0435\u0441\u043f\u0443\u0431\u043b\u0438\u043a\u0430", "official_name:sk": "Udmurtsk\u00e1 republika", "place": "state", "ref": "\u0423\u0414\u041c", "ref:en": "UD", "wikidata": "Q5422", "wikipedia": "ru:\u0423\u0434\u043c\u0443\u0440\u0442\u0438\u044f"}}, {"type": "node", "id": 577359740, "lat": 60.0391461, "lon": 43.1215213, "tags": {"name": "\u0412\u043e\u043b\u043e\u0433\u043e\u0434\u0441\u043a\u0430\u044f \u043e\u0431\u043b\u0430\u0441\u0442\u044c", "name:be": "\u0412\u0430\u043b\u0430\u0433\u043e\u0434\u0441\u043a\u0430\u044f \u0432\u043e\u0431\u043b\u0430\u0441\u0446\u044c", "name:de": "Oblast Wologda", "name:en": "Vologda Oblast", "name:eo": "Vologda Provinco", "name:es": "\u00d3blast de V\u00f3logda", "name:fr": "Oblast de Vologda", "name:ja": "\u30f4\u30a9\u30ed\u30b0\u30c0\u5dde", "name:lt": "Vologdos sritis", "name:pl": "Obw\u00f3d wo\u0142ogodzki", "name:ru": "\u0412\u043e\u043b\u043e\u0433\u043e\u0434\u0441\u043a\u0430\u044f \u043e\u0431\u043b\u0430\u0441\u0442\u044c", "name:tt": "\u0412\u043e\u043b\u043e\u0433\u0434\u0430 \u04e9\u043b\u043a\u04d9\u0441\u0435", "name:uk": "\u0412\u043e\u043b\u043e\u0433\u043e\u0434\u0441\u044c\u043a\u0430 \u043e\u0431\u043b\u0430\u0441\u0442\u044c", "place": "state", "ref": "\u0412\u041e\u041b", "ref:en": "VLG", "wikidata": "Q2015", "wikipedia": "ru:\u0412\u043e\u043b\u043e\u0433\u043e\u0434\u0441\u043a\u0430\u044f \u043e\u0431\u043b\u0430\u0441\u0442\u044c"}}, {"type": "node", "id": 607014861, "lat": 54.1463177, "lon": 47.2324921, "tags": {"name": "\u0423\u043b\u044c\u044f\u043d\u043e\u0432\u0441\u043a\u0430\u044f \u043e\u0431\u043b\u0430\u0441\u0442\u044c", "name:be": "\u0423\u043b\u044c\u044f\u043d\u0430\u045e\u0441\u043a\u0430\u044f \u0432\u043e\u0431\u043b\u0430\u0441\u0446\u044c", "name:cs": "Uljanovsk\u00e1 oblast", "name:de": "Oblast Uljanowsk", "name:en": "Ulyanovsk Oblast", "name:eo": "Uljanovska Provinco", "name:es": "\u00d3blast de Uli\u00e1novsk", "name:fr": "Oblast d'Oulianovsk", "name:hu": "Uljanovszki ter\u00fclet", "name:ja": "\u30a6\u30ea\u30e4\u30ce\u30d5\u30b9\u30af\u5dde", "name:lt": "Uljanovsko sritis", "name:pl": "Obw\u00f3d uljanowski", "name:ru": "\u0423\u043b\u044c\u044f\u043d\u043e\u0432\u0441\u043a\u0430\u044f \u043e\u0431\u043b\u0430\u0441\u0442\u044c", "name:sk": "Ulianovsk\u00e1 oblas\u0165", "name:tt": "\u0421\u0435\u043c\u0431\u0435\u0440 \u04e9\u043b\u043a\u04d9\u0441\u0435", "name:uk": "\u0423\u043b\u044c\u044f\u043d\u043e\u0432\u0441\u044c\u043a\u0430 \u043e\u0431\u043b\u0430\u0441\u0442\u044c", "place": "state", "ref": "\u0423\u041b\u042c", "ref:en": "ULY", "wikidata": "Q5634", "wikipedia": "ru:\u0423\u043b\u044c\u044f\u043d\u043e\u0432\u0441\u043a\u0430\u044f \u043e\u0431\u043b\u0430\u0441\u0442\u044c"}}, {"type": "node", "id": 607014868, "lat": 55.4259922, "lon": 47.0849429, "tags": {"admin_level": "4", "name": "\u0427\u0443\u0432\u0430\u0448\u0438\u044f", "name:be": "\u0427\u0443\u0432\u0430\u0448\u044b\u044f", "name:cs": "\u010cuva\u0161sko", "name:de": "Tschuwaschien", "name:en": "Chuvashia", "name:eo": "\u0108uva\u015dio", "name:es": "Chuvasia", "name:fr": "Tchouvachie", "name:hu": "Csuvasf\u00f6ld", "name:ja": "\u30c1\u30e5\u30f4\u30a1\u30b7\u5171\u548c\u56fd", "name:lt": "\u010ciuva\u0161ija", "name:pl": "Czuwaszja", "name:ru": "\u0427\u0443\u0432\u0430\u0448\u0438\u044f", "name:sk": "\u010cuva\u0161sko", "name:tt": "\u0427\u0443\u0430\u0448 \u0420\u0435\u0441\u043f\u0443\u0431\u043b\u0438\u043a\u0430\u0441\u044b", "name:uk": "\u0427\u0443\u0432\u0430\u0441\u044c\u043a\u0430 \u0420\u0435\u0441\u043f\u0443\u0431\u043b\u0456\u043a\u0430", "official_name": "\u0427\u0443\u0432\u0430\u0448\u0441\u043a\u0430\u044f \u0420\u0435\u0441\u043f\u0443\u0431\u043b\u0438\u043a\u0430", "official_name:be": "\u0427\u0443\u0432\u0430\u0448\u0441\u043a\u0430\u044f \u0420\u044d\u0441\u043f\u0443\u0431\u043b\u0456\u043a\u0430", "official_name:de": "Republik Tschuwaschien", "official_name:en": "Chuvash Republic \u2014 Chuvashia", "official_name:es": "Rep\u00fablica de Chuvasia", "official_name:fr": "R\u00e9publique de Tchouvachie", "official_name:ru": "\u0427\u0443\u0432\u0430\u0448\u0441\u043a\u0430\u044f \u0420\u0435\u0441\u043f\u0443\u0431\u043b\u0438\u043a\u0430", "official_name:sk": "\u010cuva\u0161sk\u00e1 republika", "place": "state", "ref": "\u0427\u0423\u0412", "ref:en": "CU", "wikidata": "Q5466", "wikipedia": "ru:\u0427\u0443\u0432\u0430\u0448\u0438\u044f"}}, {"type": "node", "id": 607014871, "lat": 52.0269262, "lon": 54.7276647, "tags": {"name": "\u041e\u0440\u0435\u043d\u0431\u0443\u0440\u0433\u0441\u043a\u0430\u044f \u043e\u0431\u043b\u0430\u0441\u0442\u044c", "name:ba": "\u042b\u0440\u044b\u043c\u0431\u0443\u0440 \u04e9\u043b\u043a\u04d9\u04bb\u0435", "name:be": "\u0410\u0440\u044d\u043d\u0431\u0443\u0440\u0433\u0441\u043a\u0430\u044f \u0432\u043e\u0431\u043b\u0430\u0441\u0446\u044c", "name:cs": "Orenbursk\u00e1 oblast", "name:de": "Oblast Orenburg", "name:en": "Orenburg Oblast", "name:eo": "Orenburga Provinco", "name:es": "\u00d3blast de Oremburgo", "name:fr": "Oblast d'Orenbourg", "name:hu": "Orenburgi ter\u00fclet", "name:ja": "\u30aa\u30ec\u30f3\u30d6\u30eb\u30af\u5dde", "name:lt": "Orenburgo sritis", "name:pl": "Obw\u00f3d orenburski", "name:ru": "\u041e\u0440\u0435\u043d\u0431\u0443\u0440\u0433\u0441\u043a\u0430\u044f \u043e\u0431\u043b\u0430\u0441\u0442\u044c", "name:sk": "Orenbursk\u00e1 oblas\u0165", "name:tt": "\u042b\u0440\u044b\u043d\u0431\u0443\u0440 \u04e9\u043b\u043a\u04d9\u0441\u0435", "name:uk": "\u041e\u0440\u0435\u043d\u0431\u0443\u0440\u0437\u044c\u043a\u0430 \u043e\u0431\u043b\u0430\u0441\u0442\u044c", "place": "state", "ref": "\u041e\u0420\u0415", "ref:en": "ORE", "wikidata": "Q5338", "wikipedia": "ru:\u041e\u0440\u0435\u043d\u0431\u0443\u0440\u0433\u0441\u043a\u0430\u044f \u043e\u0431\u043b\u0430\u0441\u0442\u044c"}}, {"type": "node", "id": 607014878, "lat": 56.5767504, "lon": 47.8817512, "tags": {"addr:country": "RU", "addr:region": "\u041c\u0430\u0440\u0438\u0439 \u042d\u043b", "admin_level": "4", "alt_name": "\u0420\u0435\u0441\u043f\u0443\u0431\u043b\u0438\u043a\u0430 \u041c\u0430\u0440\u0438\u0439 \u042d\u043b", "alt_name:be": "\u0420\u044d\u0441\u043f\u0443\u0431\u043b\u0456\u043a\u0430 \u041c\u0430\u0440\u044b\u0439 \u042d\u043b", "alt_name:de": "Republik Mari El", "alt_name:en": "Mari El Republic", "alt_name:ru": "\u0420\u0435\u0441\u043f\u0443\u0431\u043b\u0438\u043a\u0430 \u041c\u0430\u0440\u0438\u0439 \u042d\u043b", "name": "\u041c\u0430\u0440\u0438\u0439 \u042d\u043b", "name:be": "\u041c\u0430\u0440\u044b\u0439 \u042d\u043b", "name:cs": "Marijsko", "name:de": "Mari El", "name:en": "Mari El", "name:eo": "Mariio", "name:es": "Mari-El", "name:fr": "R\u00e9publique des Maris", "name:hu": "Marif\u00f6ld", "name:ja": "\u30de\u30ea\u30fb\u30a8\u30eb\u5171\u548c\u56fd", "name:lt": "Mari\u0173 Respublika", "name:ru": "\u041c\u0430\u0440\u0438\u0439 \u042d\u043b", "name:sk": "Marijsko", "name:tt": "\u041c\u0430\u0440\u0438 \u0418\u043b", "name:uk": "\u041c\u0430\u0440\u0456\u0439 \u0415\u043b", "official_name:sk": "Marijsk\u00e1 republika", "place": "state", "ref": "\u041c\u0410\u0420", "ref:en": "ME", "wikidata": "Q5446", "wikipedia": "ru:\u041c\u0430\u0440\u0438\u0439 \u042d\u043b"}}, {"type": "node", "id": 608648126, "lat": 67.6783253, "lon": 57.0626853, "tags": {"name": "\u041d\u0435\u043d\u0435\u0446\u043a\u0438\u0439 \u0430\u0432\u0442\u043e\u043d\u043e\u043c\u043d\u044b\u0439 \u043e\u043a\u0440\u0443\u0433", "name:be": "\u041d\u0435\u043d\u0435\u0446\u043a\u0430\u044f \u0430\u045e\u0442\u0430\u043d\u043e\u043c\u043d\u0430\u044f \u0430\u043a\u0440\u0443\u0433\u0430", "name:de": "Autonomer Kreis der Nenzen", "name:en": "Nenets autonomous district", "name:eo": "Nenecio", "name:es": "Nenetsia", "name:fr": "N\u00e9n\u00e9tsie", "name:hu": "Nyenyecf\u00f6ld", "name:ja": "\u30cd\u30cd\u30c4\u81ea\u6cbb\u7ba1\u533a", "name:lt": "Nenc\u0173 autonomin\u0117 apygarda", "name:pl": "Nieniecki Okr\u0119g Autonomiczny", "name:ru": "\u041d\u0435\u043d\u0435\u0446\u043a\u0438\u0439 \u0430\u0432\u0442\u043e\u043d\u043e\u043c\u043d\u044b\u0439 \u043e\u043a\u0440\u0443\u0433", "name:tt": "\u041d\u0435\u043d\u0435\u0446 \u0430\u0432\u0442\u043e\u043d\u043e\u043c\u0438\u044f\u043b\u0435 \u043e\u043a\u0440\u0443\u0433\u044b", "name:uk": "\u041d\u0435\u043d\u0435\u0446\u044c\u043a\u0438\u0439 \u0430\u0432\u0442\u043e\u043d\u043e\u043c\u043d\u0438\u0439 \u043e\u043a\u0440\u0443\u0433", "official_name:es": "Distrito aut\u00f3nomo de Nenetsia", "official_name:fr": "District autonome de N\u00e9n\u00e9tsie", "place": "state", "ref": "\u041d\u0415\u041d", "ref:en": "NEN", "wikidata": "Q2164", "wikipedia": "ru:\u041d\u0435\u043d\u0435\u0446\u043a\u0438\u0439 \u0430\u0432\u0442\u043e\u043d\u043e\u043c\u043d\u044b\u0439 \u043e\u043a\u0440\u0443\u0433"}}, {"type": "node", "id": 610739435, "lat": 60.1853296, "lon": 32.3925325, "tags": {"addr:country": "RU", "name": "\u041b\u0435\u043d\u0438\u043d\u0433\u0440\u0430\u0434\u0441\u043a\u0430\u044f \u043e\u0431\u043b\u0430\u0441\u0442\u044c", "name:be": "\u041b\u0435\u043d\u0456\u043d\u0433\u0440\u0430\u0434\u0441\u043a\u0430\u044f \u0432\u043e\u0431\u043b\u0430\u0441\u0446\u044c", "name:de": "Oblast Leningrad", "name:en": "Leningrad Oblast", "name:eo": "Leningrada Provinco", "name:es": "\u00d3blast de Leningrado", "name:et": "Leningradi oblast", "name:fr": "Oblast de L\u00e9ningrad", "name:pl": "Obw\u00f3d leningradzki", "name:ru": "\u041b\u0435\u043d\u0438\u043d\u0433\u0440\u0430\u0434\u0441\u043a\u0430\u044f \u043e\u0431\u043b\u0430\u0441\u0442\u044c", "name:sk": "Leningradsk\u00e1 oblas\u0165", "place": "state", "ref": "\u041b\u0415\u041d", "ref:en": "LEN", "wikidata": "Q2191", "wikipedia": "ru:\u041b\u0435\u043d\u0438\u043d\u0433\u0440\u0430\u0434\u0441\u043a\u0430\u044f \u043e\u0431\u043b\u0430\u0441\u0442\u044c"}}, {"type": "node", "id": 610739454, "lat": 57.5358729, "lon": 28.8586826, "tags": {"is_in": "\u0420\u043e\u0441\u0441\u0438\u0439\u0441\u043a\u0430\u044f \u0424\u0435\u0434\u0435\u0440\u0430\u0446\u0438\u044f", "name": "\u041f\u0441\u043a\u043e\u0432\u0441\u043a\u0430\u044f \u043e\u0431\u043b\u0430\u0441\u0442\u044c", "name:be": "\u041f\u0441\u043a\u043e\u045e\u0441\u043a\u0430\u044f \u0432\u043e\u0431\u043b\u0430\u0441\u0446\u044c", "name:de": "Oblast Pskow", "name:en": "Pskov Oblast", "name:eo": "Pskova Provinco", "name:es": "\u00d3blast de Pskov", "name:et": "Pihkva oblast", "name:fr": "Oblast de Pskov", "name:lt": "Pskovo sritis", "name:pl": "Obw\u00f3d pskowski", "name:ru": "\u041f\u0441\u043a\u043e\u0432\u0441\u043a\u0430\u044f \u043e\u0431\u043b\u0430\u0441\u0442\u044c", "name:uk": "\u041f\u0441\u043a\u043e\u0432\u0441\u044c\u043a\u0430 \u043e\u0431\u043b\u0430\u0441\u0442\u044c", "place": "state", "ref": "\u041f\u0421\u041a", "ref:en": "PSK", "wikidata": "Q2218", "wikipedia": "ru:\u041f\u0441\u043a\u043e\u0432\u0441\u043a\u0430\u044f \u043e\u0431\u043b\u0430\u0441\u0442\u044c"}}, {"type": "node", "id": 610739465, "lat": 57.1134475, "lon": 35.1744428, "tags": {"is_in": "\u0420\u043e\u0441\u0441\u0438\u0439\u0441\u043a\u0430\u044f \u0424\u0435\u0434\u0435\u0440\u0430\u0446\u0438\u044f", "name": "\u0422\u0432\u0435\u0440\u0441\u043a\u0430\u044f \u043e\u0431\u043b\u0430\u0441\u0442\u044c", "name:be": "\u0426\u0432\u044f\u0440\u0441\u043a\u0430\u044f \u0432\u043e\u0431\u043b\u0430\u0441\u0446\u044c", "name:de": "Oblast Twer", "name:en": "Tver Oblast", "name:eo": "Tverja Provinco", "name:es": "\u00d3blast de Tver", "name:fr": "Oblast de Tver", "name:ja": "\u30c8\u30f4\u30a7\u30ea\u5dde", "name:lt": "Tver\u0117s sritis", "name:pl": "Obw\u00f3d twerski", "name:ru": "\u0422\u0432\u0435\u0440\u0441\u043a\u0430\u044f \u043e\u0431\u043b\u0430\u0441\u0442\u044c", "name:uk": "\u0422\u0432\u0435\u0440\u0441\u044c\u043a\u0430 \u043e\u0431\u043b\u0430\u0441\u0442\u044c", "place": "state", "ref": "\u0422\u0412\u0415", "ref:en": "TVE", "wikidata": "Q2292", "wikipedia": "ru:\u0422\u0432\u0435\u0440\u0441\u043a\u0430\u044f \u043e\u0431\u043b\u0430\u0441\u0442\u044c"}}, {"type": "node", "id": 618016965, "lat": 55.7655302, "lon": 64.5632681, "tags": {"name": "\u041a\u0443\u0440\u0433\u0430\u043d\u0441\u043a\u0430\u044f \u043e\u0431\u043b\u0430\u0441\u0442\u044c", "name:be": "\u041a\u0443\u0440\u0433\u0430\u043d\u0441\u043a\u0430\u044f \u0432\u043e\u0431\u043b\u0430\u0441\u0446\u044c", "name:de": "Oblast Kurgan", "name:en": "Kurgan Oblast", "name:eo": "Kurgana Provinco", "name:es": "\u00d3blast de Kurg\u00e1n", "name:fr": "Oblast de Kourgan", "name:hu": "Kurgani ter\u00fclet", "name:ja": "\u30af\u30eb\u30ac\u30f3\u5dde", "name:lt": "Kurgano sritis", "name:pl": "Obw\u00f3d kurga\u0144ski", "name:ru": "\u041a\u0443\u0440\u0433\u0430\u043d\u0441\u043a\u0430\u044f \u043e\u0431\u043b\u0430\u0441\u0442\u044c", "name:uk": "\u041a\u0443\u0440\u0433\u0430\u043d\u0441\u044c\u043a\u0430 \u043e\u0431\u043b\u0430\u0441\u0442\u044c", "place": "state", "ref": "\u041a\u0423\u0420", "ref:en": "KUG", "wikidata": "Q5741", "wikipedia": "ru:\u041a\u0443\u0440\u0433\u0430\u043d\u0441\u043a\u0430\u044f \u043e\u0431\u043b\u0430\u0441\u0442\u044c"}}, {"type": "node", "id": 648753997, "lat": 52.6935178, "lon": 39.1122664, "tags": {"addr:country": "RU", "name": "\u041b\u0438\u043f\u0435\u0446\u043a\u0430\u044f \u043e\u0431\u043b\u0430\u0441\u0442\u044c", "name:be": "\u041b\u0456\u043f\u0435\u0446\u043a\u0430\u044f \u0432\u043e\u0431\u043b\u0430\u0441\u0446\u044c", "name:de": "Oblast Lipezk", "name:en": "Lipetsk Oblast", "name:eo": "Lipecka Provinco", "name:es": "\u00d3blast de L\u00edpetsk", "name:fr": "Oblast de Lipetsk", "name:ja": "\u30ea\u30da\u30c4\u30af\u5dde", "name:lt": "Lipecko sritis", "name:pl": "Obw\u00f3d lipiecki", "name:ru": "\u041b\u0438\u043f\u0435\u0446\u043a\u0430\u044f \u043e\u0431\u043b\u0430\u0441\u0442\u044c", "name:tt": "\u041b\u0438\u043f\u0435\u0446\u043a \u04e9\u043b\u043a\u04d9\u0441\u0435", "name:uk": "\u041b\u0438\u043f\u0435\u0446\u044c\u043a\u0430 \u043e\u0431\u043b\u0430\u0441\u0442\u044c", "place": "state", "ref": "\u041b\u0418\u041f", "ref:en": "LIP", "wikidata": "Q3510", "wikipedia": "ru:\u041b\u0438\u043f\u0435\u0446\u043a\u0430\u044f \u043e\u0431\u043b\u0430\u0441\u0442\u044c"}}, {"type": "node", "id": 648753998, "lat": 50.9800393, "lon": 40.1506507, "tags": {"name": "\u0412\u043e\u0440\u043e\u043d\u0435\u0436\u0441\u043a\u0430\u044f \u043e\u0431\u043b\u0430\u0441\u0442\u044c", "name:be": "\u0412\u0430\u0440\u043e\u043d\u0435\u0436\u0441\u043a\u0430\u044f \u0432\u043e\u0431\u043b\u0430\u0441\u0446\u044c", "name:de": "Oblast Woronesch", "name:en": "Voronezh Oblast", "name:eo": "Vorone\u0135a Provinco", "name:es": "\u00d3blast de Vor\u00f3nezh", "name:fr": "Oblast de Voronej", "name:hu": "Voronyezsi ter\u00fclet", "name:it": "Oblast' di Vorone\u017e", "name:ja": "\u30f4\u30a9\u30ed\u30cd\u30b8\u5dde", "name:lt": "Vorone\u017eo sritis", "name:nl": "Oblast Voronezj", "name:pl": "Obw\u00f3d woroneski", "name:pt": "Oblast de Voronej", "name:ru": "\u0412\u043e\u0440\u043e\u043d\u0435\u0436\u0441\u043a\u0430\u044f \u043e\u0431\u043b\u0430\u0441\u0442\u044c", "name:sv": "Voronezj oblast", "name:tt": "\u0412\u043e\u0440\u043e\u043d\u0435\u0436 \u04e9\u043b\u043a\u04d9\u0441\u0435", "name:uk": "\u0412\u043e\u0440\u043e\u043d\u0435\u0437\u044c\u043a\u0430 \u043e\u0431\u043b\u0430\u0441\u0442\u044c", "name:zh": "\u6c83\u7f57\u6d85\u65e5\u5dde", "place": "state", "population": "2328959", "ref": "\u0412\u041e\u0420", "ref:en": "VOR", "wikidata": "Q3447", "wikipedia": "ru:\u0412\u043e\u0440\u043e\u043d\u0435\u0436\u0441\u043a\u0430\u044f \u043e\u0431\u043b\u0430\u0441\u0442\u044c"}}, {"type": "node", "id": 648753999, "lat": 52.9019574, "lon": 41.3578918, "tags": {"name": "\u0422\u0430\u043c\u0431\u043e\u0432\u0441\u043a\u0430\u044f \u043e\u0431\u043b\u0430\u0441\u0442\u044c", "name:be": "\u0422\u0430\u043c\u0431\u043e\u045e\u0441\u043a\u0430\u044f \u0432\u043e\u0431\u043b\u0430\u0441\u0446\u044c", "name:de": "Oblast Tambow", "name:en": "Tambov Oblast", "name:eo": "Tambova Provinco", "name:es": "\u00d3blast de Tambov", "name:fr": "Oblast de Tambov", "name:hu": "Tambovi ter\u00fclet", "name:ja": "\u30bf\u30f3\u30dc\u30d5\u5dde", "name:lt": "Tambovo sritis", "name:pl": "Obw\u00f3d tambowski", "name:ru": "\u0422\u0430\u043c\u0431\u043e\u0432\u0441\u043a\u0430\u044f \u043e\u0431\u043b\u0430\u0441\u0442\u044c", "name:tt": "\u0422\u0430\u043c\u0431\u043e\u0432 \u04e9\u043b\u043a\u04d9\u0441\u0435", "name:uk": "\u0422\u0430\u043c\u0431\u043e\u0432\u0441\u044c\u043a\u0430 \u043e\u0431\u043b\u0430\u0441\u0442\u044c", "place": "state", "ref": "\u0422\u0410\u041c", "ref:en": "TAM", "wikidata": "Q3550", "wikipedia": "ru:\u0422\u0430\u043c\u0431\u043e\u0432\u0441\u043a\u0430\u044f \u043e\u0431\u043b\u0430\u0441\u0442\u044c"}}, {"type": "node", "id": 658312593, "lat": 55.5043158, "lon": 38.0353929, "tags": {"is_in:country_code": "RU", "name": "\u041c\u043e\u0441\u043a\u043e\u0432\u0441\u043a\u0430\u044f \u043e\u0431\u043b\u0430\u0441\u0442\u044c", "name:af": "Moskou-oblast", "name:ar": "\u0645\u062d\u0627\u0641\u0638\u0629 \u0645\u0648\u0633\u0643\u0648", "name:az": "Moskva vilay\u0259ti", "name:ba": "\u041c\u04d9\u0441\u043a\u04d9\u04af \u04e9\u043b\u043a\u04d9\u04bb\u0435", "name:be": "\u041c\u0430\u0441\u043a\u043e\u045e\u0441\u043a\u0430\u044f \u0432\u043e\u0431\u043b\u0430\u0441\u0446\u044c", "name:bg": "\u041c\u043e\u0441\u043a\u043e\u0432\u0441\u043a\u0430 \u043e\u0431\u043b\u0430\u0441\u0442", "name:br": "Oblast Moskov", "name:bs": "Moskovska oblast", "name:ca": "Prov\u00edncia de Moscou", "name:ce": "\u041c\u043e\u0441\u043a\u0432\u0430\u043d \u043e\u0431\u043b\u0430\u0441\u0442\u044c", "name:cs": "Moskevsk\u00e1 oblast", "name:cu": "\u041c\u043e\u0441\u043a\u044a\u0432\u044c\u0441\u043a\u0430 \u043e\u0431\u043b\u0430\u0441\u0442\u044c", "name:cv": "\u041c\u0443\u0441\u043a\u0430\u0432 \u043e\u0431\u043b\u0430\u00e7\u0115", "name:cy": "Oblast Moscfa", "name:da": "Moskva oblast", "name:de": "Oblast Moskau", "name:el": "\u03a0\u03b5\u03c1\u03b9\u03c6\u03ad\u03c1\u03b5\u03b9\u03b1 \u039c\u03cc\u03c3\u03c7\u03b1\u03c2", "name:en": "Moscow Oblast", "name:eo": "Moskva Provinco", "name:es": "\u00d3blast de Mosc\u00fa", "name:et": "Moskva oblast", "name:eu": "Moskuko oblasta", "name:fa": "\u0627\u0633\u062a\u0627\u0646 \u0645\u0633\u06a9\u0648", "name:fi": "Moskovan alue", "name:fr": "Oblast de Moscou", "name:ga": "C\u00faige Mhosc\u00f3", "name:he": "\u05de\u05d5\u05e1\u05e7\u05d1\u05d4 (\u05de\u05d7\u05d5\u05d6)", "name:hr": "Moskovska oblast", "name:hu": "Moszkvai ter\u00fclet", "name:hy": "\u0544\u0578\u057d\u056f\u057e\u0561\u0575\u056b \u0574\u0561\u0580\u0566", "name:id": "Oblast Moskwa", "name:it": "Oblast' di Mosca", "name:ja": "\u30e2\u30b9\u30af\u30ef\u5dde", "name:ka": "\u10db\u10dd\u10e1\u10d9\u10dd\u10d5\u10d8\u10e1 \u10dd\u10da\u10e5\u10d8", "name:ko": "\ubaa8\uc2a4\ud06c\ubc14 \uc8fc", "name:kv": "\u041c\u04e7\u0441\u043a\u0443\u0430 \u043e\u0431\u043b\u0430\u0441\u044c\u0442", "name:ky": "\u041c\u043e\u0441\u043a\u0432\u0430 \u043e\u0431\u043b\u0430\u0441\u0442\u044b", "name:la": "Regio Moscuensis", "name:lt": "Maskvos sritis", "name:lv": "Maskavas apgabals", "name:mk": "\u041c\u043e\u0441\u043a\u043e\u0432\u0441\u043a\u0430 \u043e\u0431\u043b\u0430\u0441\u0442", "name:mn": "\u041c\u043e\u0441\u043a\u0432\u0430 \u043c\u0443\u0436", "name:mr": "\u092e\u0949\u0938\u094d\u0915\u094b \u0913\u092c\u094d\u0932\u093e\u0938\u094d\u0924", "name:ms": "Wilayah Moscow", "name:nl": "Oblast Moskou", "name:nn": "Moskva oblast", "name:no": "Moskva oblast", "name:os": "\u041c\u00e6\u0441\u043a\u0443\u044b\u0439\u044b \u043e\u0431\u043b\u00e6\u0441\u0442", "name:pl": "Obw\u00f3d moskiewski", "name:pt": "Oblast de Moscou", "name:ro": "Regiunea Moscova", "name:ru": "\u041c\u043e\u0441\u043a\u043e\u0432\u0441\u043a\u0430\u044f \u043e\u0431\u043b\u0430\u0441\u0442\u044c", "name:se": "Moskva oblast", "name:sk": "Moskovsk\u00e1 oblas\u0165", "name:sl": "Moskovska oblast", "name:sr": "\u041c\u043e\u0441\u043a\u043e\u0432\u0441\u043a\u0430 \u043e\u0431\u043b\u0430\u0441\u0442", "name:sv": "Moskva oblast", "name:sw": "Moscow Oblast", "name:ta": "\u0bae\u0bbe\u0bb8\u0bcd\u0b95\u0bcb \u0b93\u0baa\u0bcd\u0bb2\u0bb8\u0bcd\u0ba4\u0bc1", "name:tg": "\u0412\u0438\u043b\u043e\u044f\u0442\u0438 \u041c\u0430\u0441\u043a\u0430\u0432", "name:tl": "Moscow Oblast", "name:tr": "Moskova Oblast\u0131", "name:tt": "\u041c\u04d9\u0441\u043a\u04d9\u04af \u04e9\u043b\u043a\u04d9\u0441\u0435", "name:uk": "\u041c\u043e\u0441\u043a\u043e\u0432\u0441\u044c\u043a\u0430 \u043e\u0431\u043b\u0430\u0441\u0442\u044c", "name:ur": "\u0645\u0627\u0633\u06a9\u0648 \u0627\u0648\u0628\u0644\u0627\u0633\u062a", "name:uz": "Moskva viloyati", "name:vi": "Moskva (t\u1ec9nh)", "name:zh": "\u83ab\u65af\u79d1\u5dde", "place": "state", "ref": "\u041c\u041e\u042f", "ref:en": "MOS", "wikidata": "Q1697", "wikipedia": "ru:\u041c\u043e\u0441\u043a\u043e\u0432\u0441\u043a\u0430\u044f \u043e\u0431\u043b\u0430\u0441\u0442\u044c"}}, {"type": "node", "id": 681769605, "lat": 45.5359172, "lon": 33.0031985, "tags": {"is_in:country": "Ukraine", "is_in:country_code": "UA", "name": "\u0410\u0432\u0442\u043e\u043d\u043e\u043c\u043d\u0430 \u0420\u0435\u0441\u043f\u0443\u0431\u043b\u0456\u043a\u0430 \u041a\u0440\u0438\u043c", "name:az": "Kr\u0131m Muxtar Respublikas\u0131", "name:ba": "\u04a0\u044b\u0440\u044b\u043c \u0410\u0432\u0442\u043e\u043d\u043e\u043c\u0438\u044f\u043b\u044b \u0420\u0435\u0441\u043f\u0443\u0431\u043b\u0438\u043a\u0430\u04bb\u044b", "name:be": "\u0410\u045e\u0442\u0430\u043d\u043e\u043c\u043d\u0430\u044f \u0420\u044d\u0441\u043f\u0443\u0431\u043b\u0456\u043a\u0430 \u041a\u0440\u044b\u043c", "name:be-tarask": "\u0410\u045e\u0442\u0430\u043d\u043e\u043c\u043d\u0430\u044f \u0420\u044d\u0441\u043f\u0443\u0431\u043b\u0456\u043a\u0430 \u041a\u0440\u044b\u043c", "name:crh": "Q\u0131r\u0131m Muhtar Cumhuriyeti", "name:cs": "Autonomn\u00ed republika Krym", "name:cu": "\u041a\ua651\u0440\ua651\u043c\u044c\u0441\u043a\u0430 \u0410\u0475\u0442\u043e\u043d\u043e\u043c\u044c\u043d\u0430 \u0414\u0438\u043c\u043e\u043a\u0440\u0430\u0442\u0457\ua657", "name:de": "Autonome Republik Krim", "name:el": "\u0391\u03c5\u03c4\u03cc\u03bd\u03bf\u03bc\u03b7 \u0394\u03b7\u03bc\u03bf\u03ba\u03c1\u03b1\u03c4\u03af\u03b1 \u03c4\u03b7\u03c2 \u039a\u03c1\u03b9\u03bc\u03b1\u03af\u03b1\u03c2", "name:en": "Autonomous Republic of Crimea", "name:eo": "A\u016dtonoma Respubliko Krimeo", "name:es": "Rep\u00fablica Aut\u00f3noma de Crimea", "name:fi": "Krimin autonominen tasavalta", "name:fr": "R\u00e9publique Autonome de Crim\u00e9e", "name:hu": "Kr\u00edmi Auton\u00f3m K\u00f6zt\u00e1rsas\u00e1g", "name:hy": "\u0542\u0580\u056b\u0574\u056b \u053b\u0576\u0584\u0576\u0561\u057e\u0561\u0580 \u0540\u0561\u0576\u0580\u0561\u057a\u0565\u057f\u0578\u0582\u0569\u0575\u0578\u0582\u0576", "name:ja": "\u30af\u30ea\u30df\u30a2\u81ea\u6cbb\u5171\u548c\u56fd", "name:ko": "\ud06c\ub9bc \ubc18\ub3c4", "name:lt": "Krymo autonomin\u0117 respublika", "name:mk": "\u0410\u0432\u0442\u043e\u043d\u043e\u043c\u043d\u0430 \u0420\u0435\u043f\u0443\u0431\u043b\u0438\u043a\u0430 \u041a\u0440\u0438\u043c", "name:nl": "Autonome Republiek van de Krim", "name:os": "\u0425\u044a\u044b\u0440\u044b\u043c\u044b \u0410\u0432\u0442\u043e\u043d\u043e\u043c\u043e\u043d \u0420\u0435\u0441\u043f\u0443\u0431\u043b\u0438\u043a\u00e6", "name:pl": "Republika Autonomiczna Krymu", "name:pt": "Rep\u00fablica Aut\u00f4noma da Crimeia", "name:ru": "\u0410\u0432\u0442\u043e\u043d\u043e\u043c\u043d\u0430\u044f \u0420\u0435\u0441\u043f\u0443\u0431\u043b\u0438\u043a\u0430 \u041a\u0440\u044b\u043c", "name:sk": "Krymsk\u00e1 auton\u00f3mna republika", "name:sv": "Autonoma republiken Krim", "name:tr": "K\u0131r\u0131m \u00d6zerk Cumhuriyeti", "name:tt": "\u041a\u044b\u0440\u044b\u043c \u0410\u0432\u0442\u043e\u043d\u043e\u043c\u0438\u044f\u043b\u0435 \u0496\u04e9\u043c\u04bb\u04af\u0440\u0438\u044f\u0442\u0435", "name:uk": "\u0410\u0432\u0442\u043e\u043d\u043e\u043c\u043d\u0430 \u0420\u0435\u0441\u043f\u0443\u0431\u043b\u0456\u043a\u0430 \u041a\u0440\u0438\u043c", "name:zh": "\u514b\u91cc\u7c73\u4e9a\u81ea\u6cbb\u5171\u548c\u56fd", "place": "state", "ref": "\u041a\u0420\u0418", "ref:en": "CRI", "ref:ru": "\u041a\u0420\u042b", "ref:uk": "\u041a\u0420\u0418", "wikidata": "Q756294", "wikipedia": "uk:\u0410\u0432\u0442\u043e\u043d\u043e\u043c\u043d\u0430 \u0420\u0435\u0441\u043f\u0443\u0431\u043b\u0456\u043a\u0430 \u041a\u0440\u0438\u043c", "wikipedia:ru": "\u0420\u0435\u0441\u043f\u0443\u0431\u043b\u0438\u043a\u0430 \u041a\u0440\u044b\u043c", "wikipedia:uk": "\u0410\u0432\u0442\u043e\u043d\u043e\u043c\u043d\u0430 \u0420\u0435\u0441\u043f\u0443\u0431\u043b\u0456\u043a\u0430 \u041a\u0440\u0438\u043c"}}, {"type": "node", "id": 696768134, "lat": 47.6222451, "lon": 40.7957942, "tags": {"name": "\u0420\u043e\u0441\u0442\u043e\u0432\u0441\u043a\u0430\u044f \u043e\u0431\u043b\u0430\u0441\u0442\u044c", "name:be": "\u0420\u0430\u0441\u0442\u043e\u045e\u0441\u043a\u0430\u044f \u0432\u043e\u0431\u043b\u0430\u0441\u0446\u044c", "name:de": "Oblast Rostow", "name:en": "Rostov Oblast", "name:eo": "Rostova Provinco", "name:es": "\u00d3blast de Rostov", "name:fr": "Oblast de Rostov", "name:hu": "Rosztovi ter\u00fclet", "name:pl": "Obw\u00f3d rostowski", "name:pt": "Oblast de Rostov", "name:ru": "\u0420\u043e\u0441\u0442\u043e\u0432\u0441\u043a\u0430\u044f \u043e\u0431\u043b\u0430\u0441\u0442\u044c", "name:short": "\u0420\u041e", "name:zh": "\u7f57\u65af\u6258\u592b\u5dde", "place": "state", "ref": "\u0420\u041e\u0421", "ref:en": "ROS", "wikidata": "Q3573", "wikipedia": "ru:\u0420\u043e\u0441\u0442\u043e\u0432\u0441\u043a\u0430\u044f \u043e\u0431\u043b\u0430\u0441\u0442\u044c"}}, {"type": "node", "id": 771205162, "lat": 53.1655415, "lon": 44.7879181, "tags": {"name": "\u041f\u0435\u043d\u0437\u0435\u043d\u0441\u043a\u0430\u044f \u043e\u0431\u043b\u0430\u0441\u0442\u044c", "name:be": "\u041f\u0435\u043d\u0437\u0435\u043d\u0441\u043a\u0430\u044f \u0432\u043e\u0431\u043b\u0430\u0441\u0446\u044c", "name:de": "Oblast Pensa", "name:en": "Penza Oblast", "name:eo": "Penza Provinco", "name:es": "\u00d3blast de Penza", "name:fr": "Oblast de Penza", "name:hu": "Penzai ter\u00fclet", "name:ja": "\u30da\u30f3\u30b6\u5dde", "name:lt": "Penzos sritis", "name:pl": "Obw\u00f3d penze\u0144ski", "name:ru": "\u041f\u0435\u043d\u0437\u0435\u043d\u0441\u043a\u0430\u044f \u043e\u0431\u043b\u0430\u0441\u0442\u044c", "name:sk": "Penzianska oblas\u0165", "name:tt": "\u041f\u0435\u043d\u0437\u0430 \u04e9\u043b\u043a\u04d9\u0441\u0435", "name:uk": "\u041f\u0435\u043d\u0437\u0435\u043d\u0441\u044c\u043a\u0430 \u043e\u0431\u043b\u0430\u0441\u0442\u044c", "place": "state", "ref": "\u041f\u0415\u041d", "ref:en": "PNZ", "wikidata": "Q5545", "wikipedia": "ru:\u041f\u0435\u043d\u0437\u0435\u043d\u0441\u043a\u0430\u044f \u043e\u0431\u043b\u0430\u0441\u0442\u044c"}}, {"type": "node", "id": 778527151, "lat": 58.424756, "lon": 44.2533273, "tags": {"name": "\u041a\u043e\u0441\u0442\u0440\u043e\u043c\u0441\u043a\u0430\u044f \u043e\u0431\u043b\u0430\u0441\u0442\u044c", "name:be": "\u041a\u0430\u0441\u0442\u0440\u0430\u043c\u0441\u043a\u0430\u044f \u0432\u043e\u0431\u043b\u0430\u0441\u0446\u044c", "name:de": "Oblast Kostroma", "name:en": "Kostroma Oblast", "name:eo": "Kostroma Provinco", "name:es": "\u00d3blast de Kostrom\u00e1", "name:fr": "Oblast de Kostroma", "name:ja": "\u30b3\u30b9\u30c8\u30ed\u30de\u5dde", "name:lt": "Kostromos sritis", "name:pl": "Obw\u00f3d kostromski", "name:ru": "\u041a\u043e\u0441\u0442\u0440\u043e\u043c\u0441\u043a\u0430\u044f \u043e\u0431\u043b\u0430\u0441\u0442\u044c", "name:uk": "\u041a\u043e\u0441\u0442\u0440\u043e\u043c\u0441\u044c\u043a\u0430 \u043e\u0431\u043b\u0430\u0441\u0442\u044c", "place": "state", "ref": "\u041a\u041e\u0421", "ref:en": "KOS", "wikidata": "Q2596", "wikipedia": "ru:\u041a\u043e\u0441\u0442\u0440\u043e\u043c\u0441\u043a\u0430\u044f \u043e\u0431\u043b\u0430\u0441\u0442\u044c"}}, {"type": "node", "id": 778529234, "lat": 57.7781976, "lon": 39.0021095, "tags": {"name": "\u042f\u0440\u043e\u0441\u043b\u0430\u0432\u0441\u043a\u0430\u044f \u043e\u0431\u043b\u0430\u0441\u0442\u044c", "name:az": "Yaroslavl Vilay\u0259ti", "name:be": "\u042f\u0440\u0430\u0441\u043b\u0430\u045e\u0441\u043a\u0430\u044f \u0432\u043e\u0431\u043b\u0430\u0441\u0446\u044c", "name:bg": "\u042f\u0440\u043e\u0441\u043b\u0430\u0432\u0441\u043a\u0430 \u043e\u0431\u043b\u0430\u0441\u0442", "name:cs": "Jaroslavsk\u00e1 oblast", "name:de": "Oblast Jaroslawl", "name:ee": "Jaroslavli oblast", "name:en": "Yaroslavl Oblast", "name:eo": "Jaroslavla Provinco", "name:es": "\u00d3blast de Yaroslavl", "name:fi": "Jaroslavlin alue", "name:fr": "Oblast de Iaroslavl", "name:gr": "\u03a0\u03b5\u03c1\u03b9\u03c6\u03ad\u03c1\u03b5\u03b9\u03b1 \u0393\u03b9\u03b1\u03c1\u03bf\u03c3\u03bb\u03ac\u03b2\u03bb", "name:hr": "Jaroslavska oblast", "name:hu": "Jaroszlavli ter\u00fclet", "name:it": "Oblast' di Jaroslavl'", "name:ja": "\u30e4\u30ed\u30b9\u30e9\u30f4\u30ea\u5dde", "name:ko": "\uc57c\ub85c\uc2ac\ub77c\ube14 \uc8fc", "name:kr": "\uc57c\ub85c\uc2ac\ub77c\ube14 \uc8fc", "name:lt": "Jaroslavlio sritis", "name:pl": "Obw\u00f3d jaros\u0142awski", "name:ru": "\u042f\u0440\u043e\u0441\u043b\u0430\u0432\u0441\u043a\u0430\u044f \u043e\u0431\u043b\u0430\u0441\u0442\u044c", "name:uk": "\u042f\u0440\u043e\u0441\u043b\u0430\u0432\u0441\u044c\u043a\u0430 \u043e\u0431\u043b\u0430\u0441\u0442\u044c", "place": "state", "ref": "\u042f\u0420\u041e", "ref:en": "YAR", "wikidata": "Q2448", "wikipedia": "ru:\u042f\u0440\u043e\u0441\u043b\u0430\u0432\u0441\u043a\u0430\u044f \u043e\u0431\u043b\u0430\u0441\u0442\u044c"}}, {"type": "node", "id": 778545155, "lat": 55.0343496, "lon": 33.0192065, "tags": {"is_in": "\u0420\u043e\u0441\u0441\u0438\u0439\u0441\u043a\u0430\u044f \u0424\u0435\u0434\u0435\u0440\u0430\u0446\u0438\u044f", "name": "\u0421\u043c\u043e\u043b\u0435\u043d\u0441\u043a\u0430\u044f \u043e\u0431\u043b\u0430\u0441\u0442\u044c", "name:be": "\u0421\u043c\u0430\u043b\u0435\u043d\u0441\u043a\u0430\u044f \u0432\u043e\u0431\u043b\u0430\u0441\u0446\u044c", "name:de": "Oblast Smolensk", "name:en": "Smolensk Oblast", "name:eo": "Smolenska Provinco", "name:es": "\u00d3blast de Smolensk", "name:fr": "Oblast de Smolensk", "name:ja": "\u30b9\u30e2\u30ec\u30f3\u30b9\u30af\u5dde", "name:lt": "Smolensko sritis", "name:pl": "Obw\u00f3d smole\u0144ski", "name:ru": "\u0421\u043c\u043e\u043b\u0435\u043d\u0441\u043a\u0430\u044f \u043e\u0431\u043b\u0430\u0441\u0442\u044c", "name:tt": "\u0421\u043c\u043e\u043b\u0435\u043d\u0441\u043a \u04e9\u043b\u043a\u04d9\u0441\u0435", "name:uk": "\u0421\u043c\u043e\u043b\u0435\u043d\u0441\u044c\u043a\u0430 \u043e\u0431\u043b\u0430\u0441\u0442\u044c", "place": "state", "ref": "\u0421\u041c\u041e", "ref:en": "SMO", "wikidata": "Q2347", "wikipedia": "ru:\u0421\u043c\u043e\u043b\u0435\u043d\u0441\u043a\u0430\u044f \u043e\u0431\u043b\u0430\u0441\u0442\u044c"}}, {"type": "node", "id": 778568487, "lat": 52.8392765, "lon": 36.4251709, "tags": {"name": "\u041e\u0440\u043b\u043e\u0432\u0441\u043a\u0430\u044f \u043e\u0431\u043b\u0430\u0441\u0442\u044c", "name:be": "\u0410\u0440\u043b\u043e\u045e\u0441\u043a\u0430\u044f \u0432\u043e\u0431\u043b\u0430\u0441\u0446\u044c", "name:de": "Oblast Orjol", "name:en": "Oryol Oblast", "name:eo": "Orjola Provinco", "name:es": "\u00d3blast de Oriol", "name:fr": "Oblast d'Orel", "name:ja": "\u30aa\u30ea\u30e7\u30fc\u30eb\u5dde", "name:lt": "Oriolo sritis", "name:pl": "Obw\u00f3d or\u0142owski", "name:ru": "\u041e\u0440\u043b\u043e\u0432\u0441\u043a\u0430\u044f \u043e\u0431\u043b\u0430\u0441\u0442\u044c", "name:tt": "\u041e\u0440\u0435\u043b \u04e9\u043b\u043a\u04d9\u0441\u0435", "name:uk": "\u041e\u0440\u043b\u043e\u0432\u0441\u044c\u043a\u0430 \u043e\u0431\u043b\u0430\u0441\u0442\u044c", "place": "state", "ref": "\u041e\u0420\u041b", "ref:en": "ORL", "wikidata": "Q3129", "wikipedia": "ru:\u041e\u0440\u043b\u043e\u0432\u0441\u043a\u0430\u044f \u043e\u0431\u043b\u0430\u0441\u0442\u044c"}}, {"type": "node", "id": 778569127, "lat": 52.8873315, "lon": 33.415853, "tags": {"addr:country": "RU", "name": "\u0411\u0440\u044f\u043d\u0441\u043a\u0430\u044f \u043e\u0431\u043b\u0430\u0441\u0442\u044c", "name:be": "\u0411\u0440\u0430\u043d\u0441\u043a\u0430\u044f \u0432\u043e\u0431\u043b\u0430\u0441\u0446\u044c", "name:de": "Oblast Brjansk", "name:en": "Bryansk Oblast", "name:eo": "Brjanska Provinco", "name:es": "\u00d3blast de Briansk", "name:fr": "Oblast de Briansk", "name:ja": "\u30d6\u30ea\u30e3\u30f3\u30b9\u30af\u5dde", "name:lt": "Brjanskas apgabals", "name:pl": "Obw\u00f3d bria\u0144ski", "name:ru": "\u0411\u0440\u044f\u043d\u0441\u043a\u0430\u044f \u043e\u0431\u043b\u0430\u0441\u0442\u044c", "name:tt": "\u0411\u0440\u044f\u043d\u0441\u043a \u04e9\u043b\u043a\u04d9\u0441\u0435", "name:uk": "\u0411\u0440\u044f\u043d\u0441\u044c\u043a\u0430 \u043e\u0431\u043b\u0430\u0441\u0442\u044c", "place": "state", "ref": "\u0411\u0420\u042f", "ref:en": "BRY", "wikidata": "Q2810", "wikipedia": "ru:\u0411\u0440\u044f\u043d\u0441\u043a\u0430\u044f \u043e\u0431\u043b\u0430\u0441\u0442\u044c"}}, {"type": "node", "id": 786882071, "lat": 49.6048339, "lon": 44.2903582, "tags": {"is_in": "\u0420\u043e\u0441\u0441\u0438\u044f", "name": "\u0412\u043e\u043b\u0433\u043e\u0433\u0440\u0430\u0434\u0441\u043a\u0430\u044f \u043e\u0431\u043b\u0430\u0441\u0442\u044c", "name:be": "\u0412\u0430\u043b\u0433\u0430\u0433\u0440\u0430\u0434\u0441\u043a\u0430\u044f \u0432\u043e\u0431\u043b\u0430\u0441\u0446\u044c", "name:de": "Oblast Wolgograd", "name:en": "Volgograd Oblast", "name:eo": "Volgograda Provinco", "name:es": "\u00d3blast de Volgogrado", "name:fr": "Oblast de Volgograd", "name:hu": "Volgogr\u00e1di ter\u00fclet", "name:lt": "Volgogrado sritis", "name:pl": "Obw\u00f3d wo\u0142gogradzki", "name:ru": "\u0412\u043e\u043b\u0433\u043e\u0433\u0440\u0430\u0434\u0441\u043a\u0430\u044f \u043e\u0431\u043b\u0430\u0441\u0442\u044c", "name:tt": "\u0412\u043e\u043b\u0433\u043e\u0433\u0440\u0430\u0434 \u04e9\u043b\u043a\u04d9\u0441\u0435", "name:uk": "\u0412\u043e\u043b\u0433\u043e\u0433\u0440\u0430\u0434\u0441\u044c\u043a\u0430 \u043e\u0431\u043b\u0430\u0441\u0442\u044c", "name:zh": "\u4f0f\u5c14\u52a0\u683c\u52d2\u5dde", "place": "state", "ref": "\u0412\u041e\u0413", "ref:en": "VGG", "wikidata": "Q3819", "wikipedia": "ru:\u0412\u043e\u043b\u0433\u043e\u0433\u0440\u0430\u0434\u0441\u043a\u0430\u044f \u043e\u0431\u043b\u0430\u0441\u0442\u044c"}}, {"type": "node", "id": 786882072, "lat": 47.1878186, "lon": 47.608851, "tags": {"is_in": "\u0420\u043e\u0441\u0441\u0438\u044f", "name": "\u0410\u0441\u0442\u0440\u0430\u0445\u0430\u043d\u0441\u043a\u0430\u044f \u043e\u0431\u043b\u0430\u0441\u0442\u044c", "name:ba": "\u04d8\u0441\u0442\u0440\u04d9\u0445\u04d9\u043d \u04e9\u043b\u043a\u04d9\u04bb\u0435", "name:be": "\u0410\u0441\u0442\u0440\u0430\u0445\u0430\u043d\u0441\u043a\u0430\u044f \u0432\u043e\u0431\u043b\u0430\u0441\u0446\u044c", "name:de": "Oblast Astrachan", "name:en": "Astrakhan Oblast", "name:eo": "Astra\u0125ana Provinco", "name:es": "\u00d3blast de Astrac\u00e1n", "name:fr": "Oblast d'Astrakhan", "name:hu": "Asztrah\u00e1ni ter\u00fclet", "name:lt": "Astrachan\u0117s sritis", "name:pl": "Obw\u00f3d astracha\u0144ski", "name:ru": "\u0410\u0441\u0442\u0440\u0430\u0445\u0430\u043d\u0441\u043a\u0430\u044f \u043e\u0431\u043b\u0430\u0441\u0442\u044c", "name:tt": "\u04d8\u0441\u0442\u0435\u0440\u0445\u0430\u043d \u04e9\u043b\u043a\u04d9\u0441\u0435", "name:uk": "\u0410\u0441\u0442\u0440\u0430\u0445\u0430\u043d\u0441\u044c\u043a\u0430 \u043e\u0431\u043b\u0430\u0441\u0442\u044c", "name:zh": "\u963f\u65af\u7279\u62c9\u7f55\u5dde", "place": "state", "ref": "\u0410\u0421\u0422", "ref:en": "AST", "wikidata": "Q3941", "wikipedia": "ru:\u0410\u0441\u0442\u0440\u0430\u0445\u0430\u043d\u0441\u043a\u0430\u044f \u043e\u0431\u043b\u0430\u0441\u0442\u044c"}}, {"type": "node", "id": 786882074, "lat": 46.2313018, "lon": 45.3275745, "tags": {"gost_7.67-2003": "\u0420\u041e\u0424-\u041a\u0410\u0418", "int_ref": "RU-KL", "is_in:country_code": "RU", "name": "\u0420\u0435\u0441\u043f\u0443\u0431\u043b\u0438\u043a\u0430 \u041a\u0430\u043b\u043c\u044b\u043a\u0438\u044f", "name:av": "\u0413\u044a\u0430\u043b\u043c\u0443\u0433\u044a", "name:az": "Kalm\u0131kiya Respublikas\u0131", "name:be": "\u041a\u0430\u043b\u043c\u044b\u043a\u0456\u044f", "name:be-tarask": "\u041a\u0430\u043b\u043c\u044b\u043a\u0456\u044f", "name:br": "Kalmykia", "name:bxr": "\u0411\u04af\u0433\u044d\u0434\u044d \u041d\u0430\u0439\u0440\u0430\u043c\u0434\u0430\u0445\u0430 \u0425\u0430\u043b\u044c\u043c\u0430\u0433 \u0423\u043b\u0430\u0441", "name:ca": "Calm\u00faquia", "name:ce": "\u0413\u04c0\u0430\u043b\u043c\u0430\u043a\u0445\u043e\u0439\u0447\u043e\u044c", "name:cs": "Kalmycko", "name:cv": "\u041a\u0430\u043b\u043c\u0103\u043a \u0420\u0435\u0441\u043f\u0443\u0431\u043b\u0438\u043a\u0438", "name:de": "Kalm\u00fcckien", "name:el": "\u0394\u03b7\u03bc\u03bf\u03ba\u03c1\u03b1\u03c4\u03af\u03b1 \u03c4\u03b7\u03c2 \u039a\u03b1\u03bb\u03bc\u03af\u03ba\u03b9\u03b1", "name:en": "Republic of Kalmykia", "name:eo": "Kalmukio", "name:es": "Rep\u00fablica de Kalmukia", "name:fr": "R\u00e9publique de Kalmoukie", "name:he": "\u05e7\u05dc\u05de\u05d9\u05e7\u05d9\u05d4", "name:hu": "Kalm\u00fckf\u00f6ld", "name:hy": "\u053f\u0561\u056c\u0574\u056b\u056f\u056b\u0561 \u0570\u0561\u0576\u0580\u0561\u057a\u0565\u057f\u0578\u0582\u0569\u0575\u0578\u0582\u0576", "name:it": "Repubblica dei Calmucchi", "name:ka": "\u10e7\u10d0\u10da\u10db\u10e3\u10ee\u10d4\u10d7\u10d8\u10e1 \u10e0\u10d4\u10e1\u10de\u10e3\u10d1\u10da\u10d8\u10d9\u10d0", "name:kbd": "\u041a\u044a\u0430\u043b\u043c\u044b\u043a\u044a \u0440\u0435\u0441\u043f\u0443\u0431\u043b\u0438\u043a\u044d", "name:kk": "\u049a\u0430\u043b\u043c\u0430\u049b\u0441\u0442\u0430\u043d \u0420\u0435\u0441\u043f\u0443\u0431\u043b\u0438\u043a\u0430\u0441\u044b", "name:kv": "\u041a\u0430\u043b\u043c\u044b\u043a\u0438\u044f", "name:lt": "Kalmukija", "name:pl": "Republika Ka\u0142mucji", "name:pt": "Calm\u00faquia", "name:ro": "Calm\u00eechia", "name:ru": "\u041a\u0430\u043b\u043c\u044b\u043a\u0438\u044f", "name:sk": "Kalmyck\u00e1 republika", "name:sl": "Kalmikija", "name:tt": "\u041a\u0430\u043b\u043c\u044b\u043a\u0438\u044f", "name:uk": "\u041a\u0430\u043b\u043c\u0438\u043a\u0456\u044f", "name:uz": "Qalmog\u02bbiston", "name:xal": "\u0425\u0430\u043b\u044c\u043c\u0433 \u0422\u0430\u04a3\u04bb\u0447", "name:zh": "\u5361\u5c14\u6885\u514b\u5171\u548c\u56fd", "official_name": "\u0420\u0435\u0441\u043f\u0443\u0431\u043b\u0438\u043a\u0430 \u041a\u0430\u043b\u043c\u044b\u043a\u0438\u044f", "official_name:av": "\u0413\u044a\u0430\u043b\u043c\u0443\u0433\u044a \u0416\u0443\u043c\u0433\u044c\u0443\u0440\u0438\u044f\u0442", "official_name:be": "\u0420\u044d\u0441\u043f\u0443\u0431\u043b\u0456\u043a\u0430 \u041a\u0430\u043b\u043c\u044b\u043a\u0456\u044f", "official_name:de": "Republik Kalm\u00fcckien", "official_name:en": "Republic of Kalmykia", "official_name:es": "Rep\u00fablica de Kalmukia", "official_name:fr": "R\u00e9publique de Kalmoukie", "official_name:ru": "\u0420\u0435\u0441\u043f\u0443\u0431\u043b\u0438\u043a\u0430 \u041a\u0430\u043b\u043c\u044b\u043a\u0438\u044f", "official_name:tt": "\u041a\u0430\u043b\u043c\u044b\u043a\u0438\u044f \u0420\u0435\u0441\u043f\u0443\u0431\u043b\u0438\u043a\u0430\u0441\u044b", "place": "state", "ref": "\u041a\u0410\u0418", "ref:en": "KL", "wikidata": "Q3953", "wikipedia": "ru:\u041a\u0430\u043b\u043c\u044b\u043a\u0438\u044f"}}, {"type": "node", "id": 792588864, "lat": 50.7080119, "lon": 37.5837615, "tags": {"name": "\u0411\u0435\u043b\u0433\u043e\u0440\u043e\u0434\u0441\u043a\u0430\u044f \u043e\u0431\u043b\u0430\u0441\u0442\u044c", "name:be": "\u0411\u0435\u043b\u0433\u0430\u0440\u043e\u0434\u0441\u043a\u0430\u044f \u0432\u043e\u0431\u043b\u0430\u0441\u0446\u044c", "name:de": "Oblast Belgorod", "name:en": "Belgorod Oblast", "name:eo": "Belgoroda Provinco", "name:es": "\u00d3blast de B\u00e9lgorod", "name:fr": "Oblast de Belgorod", "name:lt": "Belgorodo sritis", "name:pl": "Obw\u00f3d bie\u0142gorodzki", "name:ru": "\u0411\u0435\u043b\u0433\u043e\u0440\u043e\u0434\u0441\u043a\u0430\u044f \u043e\u0431\u043b\u0430\u0441\u0442\u044c", "name:tt": "\u0411\u0435\u043b\u0433\u043e\u0440\u043e\u0434 \u04e9\u043b\u043a\u04d9\u0441\u0435", "name:uk": "\u0411\u0454\u043b\u0433\u043e\u0440\u043e\u0434\u0441\u044c\u043a\u0430 \u043e\u0431\u043b\u0430\u0441\u0442\u044c", "place": "state", "ref": "\u0411\u0415\u041b", "ref:en": "BEL", "wikidata": "Q3329", "wikipedia": "ru:\u0411\u0435\u043b\u0433\u043e\u0440\u043e\u0434\u0441\u043a\u0430\u044f \u043e\u0431\u043b\u0430\u0441\u0442\u044c"}}, {"type": "node", "id": 792588865, "lat": 51.6568453, "lon": 36.4852695, "tags": {"name": "\u041a\u0443\u0440\u0441\u043a\u0430\u044f \u043e\u0431\u043b\u0430\u0441\u0442\u044c", "name:be": "\u041a\u0443\u0440\u0441\u043a\u0430\u044f \u0432\u043e\u0431\u043b\u0430\u0441\u0446\u044c", "name:de": "Oblast Kursk", "name:en": "Kursk Oblast", "name:eo": "Kurska Provinco", "name:es": "\u00d3blast de Kursk", "name:fr": "Oblast de Koursk", "name:ja": "\u30af\u30eb\u30b9\u30af\u5dde", "name:lt": "Kursko sritis", "name:pl": "Obw\u00f3d kurski", "name:ru": "\u041a\u0443\u0440\u0441\u043a\u0430\u044f \u043e\u0431\u043b\u0430\u0441\u0442\u044c", "name:tt": "\u041a\u0443\u0440\u0441\u043a \u04e9\u043b\u043a\u04d9\u0441\u0435", "name:uk": "\u041a\u0443\u0440\u0441\u044c\u043a\u0430 \u043e\u0431\u043b\u0430\u0441\u0442\u044c", "place": "state", "ref": "\u041a\u0423\u0421", "ref:en": "KRS", "wikidata": "Q3178", "wikipedia": "ru:\u041a\u0443\u0440\u0441\u043a\u0430\u044f \u043e\u0431\u043b\u0430\u0441\u0442\u044c"}}, {"type": "node", "id": 867080411, "lat": 54.4382773, "lon": 35.5272854, "tags": {"is_in": "\u0420\u043e\u0441\u0441\u0438\u0439\u0441\u043a\u0430\u044f \u0424\u0435\u0434\u0435\u0440\u0430\u0446\u0438\u044f", "name": "\u041a\u0430\u043b\u0443\u0436\u0441\u043a\u0430\u044f \u043e\u0431\u043b\u0430\u0441\u0442\u044c", "name:be": "\u041a\u0430\u043b\u0443\u0436\u0441\u043a\u0430\u044f \u0432\u043e\u0431\u043b\u0430\u0441\u0446\u044c", "name:de": "Oblast Kaluga", "name:en": "Kaluga Oblast", "name:eo": "Kaluga Provinco", "name:es": "\u00d3blast de Kaluga", "name:fr": "Oblast de Kalouga", "name:ja": "\u30ab\u30eb\u30fc\u30ac\u5dde", "name:lt": "Kalugos sritis", "name:pl": "Obw\u00f3d ka\u0142uski", "name:ru": "\u041a\u0430\u043b\u0443\u0436\u0441\u043a\u0430\u044f \u043e\u0431\u043b\u0430\u0441\u0442\u044c", "name:uk": "\u041a\u0430\u043b\u0443\u0437\u044c\u043a\u0430 \u043e\u0431\u043b\u0430\u0441\u0442\u044c", "place": "state", "ref": "\u041a\u0410\u041b", "ref:en": "KLU", "wikidata": "Q2842", "wikipedia": "ru:\u041a\u0430\u043b\u0443\u0436\u0441\u043a\u0430\u044f \u043e\u0431\u043b\u0430\u0441\u0442\u044c"}}, {"type": "node", "id": 867084499, "lat": 53.9570701, "lon": 37.3690909, "tags": {"is_in": "\u0420\u043e\u0441\u0441\u0438\u0439\u0441\u043a\u0430\u044f \u0424\u0435\u0434\u0435\u0440\u0430\u0446\u0438\u044f", "name": "\u0422\u0443\u043b\u044c\u0441\u043a\u0430\u044f \u043e\u0431\u043b\u0430\u0441\u0442\u044c", "name:be": "\u0422\u0443\u043b\u044c\u0441\u043a\u0430\u044f \u0432\u043e\u0431\u043b\u0430\u0441\u0446\u044c", "name:de": "Oblast Tula", "name:en": "Tula Oblast", "name:eo": "Tula Provinco", "name:es": "\u00d3blast de Tula", "name:fr": "Oblast de Toula", "name:ja": "\u30c8\u30a5\u30fc\u30e9\u5dde", "name:lt": "Tulos sritis", "name:pl": "Obw\u00f3d tulski", "name:ru": "\u0422\u0443\u043b\u044c\u0441\u043a\u0430\u044f \u043e\u0431\u043b\u0430\u0441\u0442\u044c", "name:uk": "\u0422\u0443\u043b\u044c\u0441\u044c\u043a\u0430 \u043e\u0431\u043b\u0430\u0441\u0442\u044c", "place": "state", "ref": "\u0422\u0423\u041b", "ref:en": "TUL", "wikidata": "Q2792", "wikipedia": "ru:\u0422\u0443\u043b\u044c\u0441\u043a\u0430\u044f \u043e\u0431\u043b\u0430\u0441\u0442\u044c"}}, {"type": "node", "id": 867129558, "lat": 56.0503336, "lon": 40.6561633, "tags": {"is_in": "\u0420\u043e\u0441\u0441\u0438\u0439\u0441\u043a\u0430\u044f \u0424\u0435\u0434\u0435\u0440\u0430\u0446\u0438\u044f", "name": "\u0412\u043b\u0430\u0434\u0438\u043c\u0438\u0440\u0441\u043a\u0430\u044f \u043e\u0431\u043b\u0430\u0441\u0442\u044c", "name:be": "\u0423\u043b\u0430\u0434\u0437\u0456\u043c\u0456\u0440\u0441\u043a\u0430\u044f \u0432\u043e\u0431\u043b\u0430\u0441\u0446\u044c", "name:de": "Oblast Wladimir", "name:en": "Vladimir Oblast", "name:eo": "Vladimira Provinco", "name:es": "\u00d3blast de Vlad\u00edmir", "name:fr": "Oblast de Vladimir", "name:hu": "Vlagyimiri ter\u00fclet", "name:ja": "\u30f4\u30e9\u30b8\u30fc\u30df\u30eb\u5dde", "name:lt": "Vladimiro sritis", "name:pl": "Obw\u00f3d w\u0142odzimierski", "name:ru": "\u0412\u043b\u0430\u0434\u0438\u043c\u0438\u0440\u0441\u043a\u0430\u044f \u043e\u0431\u043b\u0430\u0441\u0442\u044c", "name:uk": "\u0412\u043b\u0430\u0434\u0438\u043c\u0438\u0440\u0441\u044c\u043a\u0430 \u043e\u0431\u043b\u0430\u0441\u0442\u044c", "place": "state", "ref": "\u0412\u041b\u0410", "ref:en": "VLA", "wikidata": "Q2702", "wikipedia": "ru:\u0412\u043b\u0430\u0434\u0438\u043c\u0438\u0440\u0441\u043a\u0430\u044f \u043e\u0431\u043b\u0430\u0441\u0442\u044c"}}, {"type": "node", "id": 869495624, "lat": 55.4718033, "lon": 44.0911594, "tags": {"name": "\u041d\u0438\u0436\u0435\u0433\u043e\u0440\u043e\u0434\u0441\u043a\u0430\u044f \u043e\u0431\u043b\u0430\u0441\u0442\u044c", "name:be": "\u041d\u0456\u0436\u0430\u0433\u0430\u0440\u043e\u0434\u0441\u043a\u0430\u044f \u0432\u043e\u0431\u043b\u0430\u0441\u0446\u044c", "name:de": "Oblast Nischni Nowgorod", "name:en": "Nizhny Novgorod Oblast", "name:eo": "Ni\u0135nij-Novgoroda Provinco", "name:es": "\u00d3blast de Nizhni N\u00f3vgorod", "name:fr": "Oblast de Nijni Novgorod", "name:hu": "Nyizsnyij Novgorod-i ter\u00fclet", "name:ja": "\u30cb\u30b8\u30cb\u30fb\u30ce\u30f4\u30b4\u30ed\u30c9\u5dde", "name:lt": "\u017demutinio Naugardo sritis", "name:pl": "Obw\u00f3d ni\u017cnonowogrodzki", "name:ru": "\u041d\u0438\u0436\u0435\u0433\u043e\u0440\u043e\u0434\u0441\u043a\u0430\u044f \u043e\u0431\u043b\u0430\u0441\u0442\u044c", "name:tt": "\u0422\u04af\u0431\u04d9\u043d \u041d\u043e\u0432\u0433\u043e\u0440\u043e\u0434 \u04e9\u043b\u043a\u04d9\u0441\u0435", "name:uk": "\u041d\u0438\u0436\u043d\u044c\u043e\u0433\u043e\u0440\u043e\u0434\u0441\u044c\u043a\u0430 \u043e\u0431\u043b\u0430\u0441\u0442\u044c", "place": "state", "ref": "\u041d\u0418\u0416", "ref:en": "NIZ", "wikidata": "Q2246", "wikipedia": "ru:\u041d\u0438\u0436\u0435\u0433\u043e\u0440\u043e\u0434\u0441\u043a\u0430\u044f \u043e\u0431\u043b\u0430\u0441\u0442\u044c"}}, {"type": "node", "id": 869528660, "lat": 51.6520555, "lon": 46.8631952, "tags": {"name": "\u0421\u0430\u0440\u0430\u0442\u043e\u0432\u0441\u043a\u0430\u044f \u043e\u0431\u043b\u0430\u0441\u0442\u044c", "name:be": "\u0421\u0430\u0440\u0430\u0442\u0430\u045e\u0441\u043a\u0430\u044f \u0432\u043e\u0431\u043b\u0430\u0441\u0446\u044c", "name:de": "Oblast Saratow", "name:en": "Saratov Oblast", "name:eo": "Saratova Provinco", "name:es": "\u00d3blast de Sar\u00e1tov", "name:fr": "Oblast de Saratov", "name:ja": "\u30b5\u30e9\u30c8\u30d5\u5dde", "name:lt": "Saratovo sritis", "name:pl": "Obw\u00f3d saratowski", "name:ru": "\u0421\u0430\u0440\u0430\u0442\u043e\u0432\u0441\u043a\u0430\u044f \u043e\u0431\u043b\u0430\u0441\u0442\u044c", "name:tt": "\u0421\u0430\u0440\u044b\u0442\u0430\u0443 \u04e9\u043b\u043a\u04d9\u0441\u0435", "name:uk": "\u0421\u0430\u0440\u0430\u0442\u043e\u0432\u0441\u044c\u043a\u0430 \u043e\u0431\u043b\u0430\u0441\u0442\u044c", "place": "state", "ref": "\u0421\u0410\u0420", "ref:en": "SAR", "wikidata": "Q5334", "wikipedia": "ru:\u0421\u0430\u0440\u0430\u0442\u043e\u0432\u0441\u043a\u0430\u044f \u043e\u0431\u043b\u0430\u0441\u0442\u044c"}}, {"type": "node", "id": 869547585, "lat": 44.8632577, "lon": 43.4406913, "tags": {"is_in": "\u0420\u043e\u0441\u0441\u0438\u044f", "name": "\u0421\u0442\u0430\u0432\u0440\u043e\u043f\u043e\u043b\u044c\u0441\u043a\u0438\u0439 \u043a\u0440\u0430\u0439", "name:be": "\u0421\u0442\u0430\u045e\u0440\u0430\u043f\u043e\u043b\u044c\u0441\u043a\u0456 \u043a\u0440\u0430\u0439", "name:de": "Region Stawropol", "name:en": "Stavropol Krai", "name:eo": "Stavropola Regiono", "name:es": "Krai de St\u00e1vropol", "name:et": "Stavropoli krai", "name:fr": "Kra\u00ef de Stavropol", "name:hu": "Sztavropoli hat\u00e1rter\u00fclet", "name:ru": "\u0421\u0442\u0430\u0432\u0440\u043e\u043f\u043e\u043b\u044c\u0441\u043a\u0438\u0439 \u043a\u0440\u0430\u0439", "name:zh": "\u65af\u5854\u592b\u7f57\u6ce2\u5c14\u8fb9\u7586\u533a", "place": "state", "ref": "\u0421\u0422\u0410", "ref:en": "STA", "wikidata": "Q5207", "wikipedia": "ru:\u0421\u0442\u0430\u0432\u0440\u043e\u043f\u043e\u043b\u044c\u0441\u043a\u0438\u0439 \u043a\u0440\u0430\u0439"}}, {"type": "node", "id": 869555482, "lat": 44.6939006, "lon": 40.1520421, "tags": {"is_in": "\u0420\u043e\u0441\u0441\u0438\u044f", "name": "\u0410\u0434\u044b\u0433\u0435\u044f", "name:ady": "\u0410\u0434\u044b\u0433\u044d \u0420\u0435\u0441\u043f\u0443\u0431\u043b\u0438\u043a", "name:be": "\u0410\u0434\u044b\u0433\u0435\u044f", "name:de": "Republik Adygeja", "name:en": "Republic of Adygea", "name:eo": "Adigeio", "name:et": "Ad\u00f5gee", "name:fr": "Adygu\u00e9e", "name:hu": "Adigef\u00f6ld", "name:ku": "Ad\u00eegeya", "name:ru": "\u0410\u0434\u044b\u0433\u0435\u044f", "name:zh": "\u963f\u8fea\u683c\u5171\u548c\u56fd", "official_name": "\u0420\u0435\u0441\u043f\u0443\u0431\u043b\u0438\u043a\u0430 \u0410\u0434\u044b\u0433\u0435\u044f", "official_name:be": "\u0420\u044d\u0441\u043f\u0443\u0431\u043b\u0456\u043a\u0430 \u0410\u0434\u044b\u0433\u0435\u044f", "official_name:ru": "\u0420\u0435\u0441\u043f\u0443\u0431\u043b\u0438\u043a\u0430 \u0410\u0434\u044b\u0433\u0435\u044f", "place": "state", "ref": "\u0410\u0414\u042b", "ref:en": "AD", "wikidata": "Q3734", "wikipedia": "ru:\u0410\u0434\u044b\u0433\u0435\u044f"}}, {"type": "node", "id": 869565029, "lat": 43.7368326, "lon": 41.7267991, "tags": {"name": "\u041a\u0430\u0440\u0430\u0447\u0430\u0435\u0432\u043e-\u0427\u0435\u0440\u043a\u0435\u0441\u0438\u044f", "name:be": "\u041a\u0430\u0440\u0430\u0447\u0430\u0435\u0432\u0430-\u0427\u0430\u0440\u043a\u0435\u0441\u0456\u044f", "name:de": "Karatschai-Tscherkesien", "name:en": "Karachay-Cherkesia", "name:eo": "Kara\u0109ajio-\u0108erkesio", "name:es": "Karach\u00e1yevo-Cherkesia", "name:et": "Karat\u0161ai-T\u0161erkessia", "name:fr": "Karatcha\u00ef\u00e9vo-Tcherkesie", "name:hu": "Karacs\u00e1j- \u00e9s Cserkeszf\u00f6ld", "name:ku": "Qere\u00e7ay-\u00c7erkezya", "name:ru": "\u041a\u0430\u0440\u0430\u0447\u0430\u0435\u0432\u043e-\u0427\u0435\u0440\u043a\u0435\u0441\u0438\u044f", "name:sk": "Kara\u010dajsko-\u010cerkesko", "name:tt": "\u041a\u0430\u0440\u0430\u0447\u0430\u0439-\u0427\u0438\u0440\u043a\u04d9\u0441\u0438\u044f", "name:uk": "\u041a\u0430\u0440\u0430\u0447\u0430\u0454\u0432\u043e-\u0427\u0435\u0440\u043a\u0435\u0441\u0456\u044f", "name:zh": "\u5361\u62c9\u6070\u4f0a-\u5207\u5c14\u514b\u65af\u5171\u548c\u56fd", "official_name": "\u041a\u0430\u0440\u0430\u0447\u0430\u0435\u0432\u043e-\u0427\u0435\u0440\u043a\u0435\u0441\u043a\u0430\u044f \u0440\u0435\u0441\u043f\u0443\u0431\u043b\u0438\u043a\u0430", "official_name:be": "\u0420\u044d\u0441\u043f\u0443\u0431\u043b\u0456\u043a\u0430 \u041a\u0430\u0440\u0430\u0447\u0430\u0435\u0432\u0430-\u0427\u0430\u0440\u043a\u0435\u0441\u0456\u044f", "official_name:ru": "\u041a\u0430\u0440\u0430\u0447\u0430\u0435\u0432\u043e-\u0427\u0435\u0440\u043a\u0435\u0441\u043a\u0430\u044f \u0440\u0435\u0441\u043f\u0443\u0431\u043b\u0438\u043a\u0430", "official_name:sk": "Kara\u010dajsko-\u010derkesk\u00e1 republika", "place": "state", "ref": "\u041a\u0410\u041e", "ref:en": "KC", "wikidata": "Q5328", "wikipedia": "ru:\u041a\u0430\u0440\u0430\u0447\u0430\u0435\u0432\u043e-\u0427\u0435\u0440\u043a\u0435\u0441\u0438\u044f"}}, {"type": "node", "id": 869593771, "lat": 43.3976147, "lon": 45.6985005, "tags": {"alt_name": "\u0427\u0435\u0447\u0435\u043d\u0441\u043a\u0430\u044f \u0420\u0435\u0441\u043f\u0443\u0431\u043b\u0438\u043a\u0430", "alt_name:ar": "\u062c\u0645\u0647\u0648\u0631\u064a\u0629 \u0627\u0644\u0634\u064a\u0634\u0627\u0646", "name": "\u0427\u0435\u0447\u043d\u044f", "name:ar": "\u0627\u0644\u0634\u064a\u0634\u0627\u0646", "name:azb": "\u0686\u0686\u0646\u06cc\u0633\u062a\u0627\u0646", "name:be": "\u0427\u0430\u0447\u043d\u044f", "name:ce": "\u041d\u043e\u0445\u0447\u0438\u0439\u0447\u043e\u044c", "name:da": "Tjetjenien", "name:de": "Tschetschenien", "name:en": "Chechnya", "name:eo": "\u0108e\u0109enio", "name:es": "Chechenia", "name:et": "T\u0161et\u0161eeni Vabariik", "name:fa": "\u0686\u0686\u0646", "name:fr": "Tch\u00e9tch\u00e9nie", "name:he": "\u05e6'\u05e6'\u05e0\u05d9\u05d4", "name:hu": "Csecsenf\u00f6ld", "name:kmr": "\u0686\u06d5\u0686\u06d5\u0646\u0633\u062a\u0627\u0646", "name:ku": "\u00c7e\u00e7enistan", "name:mzn": "\u0686\u0686\u0646", "name:nl": "Tsjetsjeni\u00eb", "name:pnb": "\u0686\u06cc\u0686\u0646\u06cc\u0627", "name:ps": "\u0686\u064a\u0686\u0646\u064a\u0627", "name:ru": "\u0427\u0435\u0447\u0435\u043d\u0441\u043a\u0430\u044f \u0420\u0435\u0441\u043f\u0443\u0431\u043b\u0438\u043a\u0430", "name:sd": "\u0686\u064a\u0686\u0646\u064a\u0627", "name:sl": "\u010ce\u010denija", "name:ug": "\u0686\u06d0\u0686\u06d0\u0646\u0649\u064a\u06d5", "name:ur": "\u0686\u06cc\u0686\u0646\u06cc\u0627", "name:zh": "\u8f66\u81e3\u5171\u548c\u56fd", "official_name": "\u0427\u0435\u0447\u0435\u043d\u0441\u043a\u0430\u044f \u0440\u0435\u0441\u043f\u0443\u0431\u043b\u0438\u043a\u0430", "official_name:ar": "\u062c\u0645\u0647\u0648\u0631\u064a\u0629 \u0627\u0644\u0634\u064a\u0634\u0627\u0646", "official_name:be": "\u0427\u044d\u0447\u044d\u043d\u0441\u043a\u0430\u044f \u0420\u044d\u0441\u043f\u0443\u0431\u043b\u0456\u043a\u0430", "official_name:ce": "\u041d\u043e\u0445\u0447\u0438\u0439\u043d \u0420\u0435\u0441\u043f\u0443\u0431\u043b\u0438\u043a\u0430", "official_name:ru": "\u0427\u0435\u0447\u0435\u043d\u0441\u043a\u0430\u044f \u0440\u0435\u0441\u043f\u0443\u0431\u043b\u0438\u043a\u0430", "place": "state", "ref": "\u0427\u0415\u0427", "ref:en": "CE", "wikidata": "Q5187", "wikipedia": "ru:\u0427\u0435\u0447\u043d\u044f"}}, {"type": "node", "id": 869606611, "lat": 43.1655309, "lon": 44.979682, "tags": {"is_in": "\u0420\u043e\u0441\u0441\u0438\u044f", "name": "\u0418\u043d\u0433\u0443\u0448\u0435\u0442\u0438\u044f", "name:be": "\u0406\u043d\u0433\u0443\u0448\u044d\u0446\u0456\u044f", "name:de": "Inguschetien", "name:en": "Ingushetia", "name:eo": "Ingu\u015dio", "name:et": "Ingu\u0161\u0161ia", "name:fr": "Ingouchie", "name:hu": "Ingusf\u00f6ld", "name:inh": "\u0413\u0406\u0430\u043b\u0433\u0406\u0430\u0439 \u041c\u043e\u0445\u043a", "name:ku": "\u00ceng\u00fb\u015fetya", "name:ru": "\u0418\u043d\u0433\u0443\u0448\u0435\u0442\u0438\u044f", "name:zh": "\u5370\u53e4\u4ec0\u5171\u548c\u56fd", "official_name:be": "\u0420\u044d\u0441\u043f\u0443\u0431\u043b\u0456\u043a\u0430 \u0406\u043d\u0433\u0443\u0448\u044d\u0446\u0456\u044f", "official_name:ru": "\u0420\u0435\u0441\u043f\u0443\u0431\u043b\u0438\u043a\u0430 \u0418\u043d\u0433\u0443\u0448\u0435\u0442\u0438\u044f", "place": "state", "ref": "\u0418\u041d\u0413", "ref:en": "IN", "wikidata": "Q5219", "wikipedia": "ru:\u0418\u043d\u0433\u0443\u0448\u0435\u0442\u0438\u044f"}}, {"type": "node", "id": 869609085, "lat": 42.9920711, "lon": 44.2636348, "tags": {"is_in": "\u0420\u043e\u0441\u0441\u0438\u044f", "name": "\u0421\u0435\u0432\u0435\u0440\u043d\u0430\u044f \u041e\u0441\u0435\u0442\u0438\u044f \u2014 \u0410\u043b\u0430\u043d\u0438\u044f", "name:af": "Noord-Osseti\u00eb-Alani\u00eb", "name:av": "\u0428\u0438\u043c\u0430\u043b\u0438\u044f\u0431 \u0413\u044c\u0438\u0440\u0438\u0441\u0442\u0430\u043d", "name:az": "\u015eimali Osetiya", "name:ba": "\u0422\u04e9\u043d\u044c\u044f\u04a1 \u041e\u0441\u0435\u0442\u0438\u044f \u2014 \u0410\u043b\u0430\u043d\u0438\u044f", "name:be": "\u041f\u0430\u045e\u043d\u043e\u0447\u043d\u0430\u044f \u0410\u0441\u0435\u0446\u0456\u044f", "name:bg": "\u0421\u0435\u0432\u0435\u0440\u043d\u0430 \u041e\u0441\u0435\u0442\u0438\u044f", "name:ca": "Oss\u00e8tia del Nord - Al\u00e0nia", "name:ce": "\u041a\u044a\u0438\u043b\u0431\u0430\u0441\u0435\u0434\u0430 \u0425\u04c0\u0438\u0440\u0438\u0439\u0447\u043e\u044c", "name:cs": "Severn\u00ed Osetie-Alanie", "name:cv": "\u00c7\u0443\u0440\u00e7\u0115\u0440 \u041e\u0441\u0435\u0442\u0438", "name:da": "Nordossetien\u2013Alania", "name:de": "Nordossetien-Alanien", "name:el": "\u0394\u03b7\u03bc\u03bf\u03ba\u03c1\u03b1\u03c4\u03af\u03b1 \u03c4\u03b7\u03c2 \u0392\u03cc\u03c1\u03b5\u03b9\u03b1\u03c2 \u039f\u03c3\u03b5\u03c4\u03af\u03b1\u03c2 - \u0391\u03bb\u03b1\u03bd\u03af\u03b1\u03c2", "name:en": "North Ossetia-Alania", "name:eo": "Nord-Osetio", "name:es": "Osetia del Norte-Alania", "name:et": "P\u00f5hja-Osseetia", "name:fi": "Pohjois-Ossetia-Alania", "name:fr": "Oss\u00e9tie du Nord-Alanie", "name:gl": "Osetia do Norte-Alania", "name:hi": "\u0909\u0924\u094d\u0924\u0930 \u0913\u0938\u0947\u0924\u093f\u092f\u093e-\u0906\u0932\u093e\u0928\u093f\u092f\u093e", "name:hsb": "Sewjerna Osetiska-Alanska", "name:hu": "\u00c9szak-Osz\u00e9tia", "name:hy": "\u0540\u0575\u0578\u0582\u057d\u056b\u057d\u0561\u0575\u056b\u0576 \u0555\u057d\u056b\u0561", "name:it": "Ossezia Settentrionale-Alania", "name:ja": "\u5317\u30aa\u30bb\u30c1\u30a2\u5171\u548c\u56fd", "name:ka": "\u10e9\u10e0\u10d3\u10d8\u10da\u10dd\u10d4\u10d7\u10d8 \u10dd\u10e1\u10d4\u10d7\u10d8", "name:kbd": "\u0418\u0448\u0445\u044a\u044d\u0440\u044d I\u044d\u0441\u0435\u0442\u0438\u044d", "name:krc": "\u0428\u0438\u043c\u0430\u043b \u0422\u0435\u0433\u0435\u0439", "name:ku": "Osetyaya Bakur-Alanya", "name:la": "Ossetia Septentrionalis", "name:lv": "Zieme\u013cosetija-Al\u0101nija", "name:nl": "Noord-Osseti\u00eb", "name:os": "\u0426\u00e6\u0433\u0430\u0442 \u0418\u0440\u044b\u0441\u0442\u043e\u043d", "name:pl": "Osetia P\u00f3\u0142nocna", "name:pt": "Oss\u00e9tia do Norte-Al\u00e2nia", "name:ru": "\u0421\u0435\u0432\u0435\u0440\u043d\u0430\u044f \u041e\u0441\u0435\u0442\u0438\u044f", "name:sk": "Severn\u00e9 Osetsko", "name:sv": "Nordossetien", "name:tt": "\u0422\u04e9\u043d\u044c\u044f\u043a \u041e\u0441\u0435\u0442\u0438\u044f", "name:uk": "\u041f\u0456\u0432\u043d\u0456\u0447\u043d\u0430 \u041e\u0441\u0435\u0442\u0456\u044f", "name:xal": "\u041e\u0441\u0435\u0434\u0438\u043d \u0442\u0430\u04a3\u04bb\u0447", "name:zh": "\u5317\u5965\u585e\u68af-\u963f\u5170\u5171\u548c\u56fd", "official_name": "\u0420\u0435\u0441\u043f\u0443\u0431\u043b\u0438\u043a\u0430 \u0421\u0435\u0432\u0435\u0440\u043d\u0430\u044f \u041e\u0441\u0435\u0442\u0438\u044f\u2014\u0410\u043b\u0430\u043d\u0438\u044f", "official_name:be": "\u0420\u044d\u0441\u043f\u0443\u0431\u043b\u0456\u043a\u0430 \u041f\u0430\u045e\u043d\u043e\u0447\u043d\u0430\u044f \u0410\u0441\u0435\u0446\u0456\u044f", "official_name:de": "Republik Nordossetien-Alanien", "official_name:os": "\u0420\u0435\u0441\u043f\u0443\u0431\u043b\u0438\u043a\u04d5 \u0426\u04d5\u0433\u0430\u0442 \u0418\u0440\u044b\u0441\u0442\u043e\u043d-\u0410\u043b\u0430\u043d\u0438", "official_name:ru": "\u0420\u0435\u0441\u043f\u0443\u0431\u043b\u0438\u043a\u0430 \u0421\u0435\u0432\u0435\u0440\u043d\u0430\u044f \u041e\u0441\u0435\u0442\u0438\u044f\u2014\u0410\u043b\u0430\u043d\u0438\u044f", "official_name:sk": "Republika Severn\u00e9 Osetsko \u2013 Al\u00e1nsko", "place": "state", "ref": "\u0421\u0415\u0412", "ref:en": "NO", "wikidata": "Q5237", "wikipedia": "ru:\u0421\u0435\u0432\u0435\u0440\u043d\u0430\u044f \u041e\u0441\u0435\u0442\u0438\u044f"}}, {"type": "node", "id": 869609474, "lat": 43.4428286, "lon": 43.4204809, "tags": {"is_in": "\u0420\u043e\u0441\u0441\u0438\u044f", "name": "\u041a\u0430\u0431\u0430\u0440\u0434\u0438\u043d\u043e-\u0411\u0430\u043b\u043a\u0430\u0440\u0438\u044f", "name:be": "\u041a\u0430\u0431\u0430\u0440\u0434\u0437\u0456\u043d\u0430-\u0411\u0430\u043b\u043a\u0430\u0440\u044b\u044f", "name:de": "Kabardino-Balkarien", "name:en": "Kabardino-Balkaria", "name:eo": "Kabardio-Balkario", "name:fr": "Kabardino-Balkarie", "name:hu": "Kabardino-Balkaria", "name:kbd": "\u041a\u044a\u044d\u0431\u044d\u0440\u0434\u0435\u0439-\u0411\u0430\u043b\u044a\u043a\u044a\u044d\u0440 \u0420\u0435\u0441\u043f\u0443\u0431\u043b\u0438\u043a\u044d", "name:krc": "\u041a\u044a\u0430\u0431\u0430\u0440\u0442\u044b-\u041c\u0430\u043b\u043a\u044a\u0430\u0440 \u0420\u0435\u0441\u043f\u0443\u0431\u043b\u0438\u043a\u0430", "name:ku": "Kabard\u00eeno-Balkarya", "name:ru": "\u041a\u0430\u0431\u0430\u0440\u0434\u0438\u043d\u043e-\u0411\u0430\u043b\u043a\u0430\u0440\u0438\u044f", "name:tt": "\u041a\u0430\u0431\u0430\u0440\u0434\u0430-\u0411\u0430\u043b\u043a\u0430\u0440\u0438\u044f", "name:zh": "\u5361\u5df4\u5c14\u8fbe\u2014\u5df4\u5c14\u5361\u5c14\u5171\u548c\u56fd", "official_name": "\u041a\u0430\u0431\u0430\u0440\u0434\u0438\u043d\u043e-\u0411\u0430\u043b\u043a\u0430\u0440\u0441\u043a\u0430\u044f \u0420\u0435\u0441\u043f\u0443\u0431\u043b\u0438\u043a\u0430", "official_name:be": "\u041a\u0430\u0431\u0430\u0440\u0434\u0437\u0456\u043d\u0430-\u0411\u0430\u043b\u043a\u0430\u0440\u0441\u043a\u0430\u044f \u0420\u044d\u0441\u043f\u0443\u0431\u043b\u0456\u043a\u0430", "official_name:ru": "\u041a\u0430\u0431\u0430\u0440\u0434\u0438\u043d\u043e-\u0411\u0430\u043b\u043a\u0430\u0440\u0441\u043a\u0430\u044f \u0420\u0435\u0441\u043f\u0443\u0431\u043b\u0438\u043a\u0430", "place": "state", "ref": "\u041a\u0410\u0411", "ref:en": "KB", "wikidata": "Q5267", "wikipedia": "ru:\u041a\u0430\u0431\u0430\u0440\u0434\u0438\u043d\u043e-\u0411\u0430\u043b\u043a\u0430\u0440\u0438\u044f"}}, {"type": "node", "id": 933435715, "lat": 57.9665589, "lon": 49.4074599, "tags": {"alt_name": "\u041a\u0438\u0440\u043e\u0432\u0441\u043a\u0430\u044f \u043e\u0431\u043b\u0430\u0441\u0442\u044c", "int_name": "Kirov Oblast", "is_in": "\u0420\u043e\u0441\u0441\u0438\u044f", "name": "\u041a\u0438\u0440\u043e\u0432\u0441\u043a\u0430\u044f \u043e\u0431\u043b\u0430\u0441\u0442\u044c", "name:be": "\u041a\u0456\u0440\u0430\u045e\u0441\u043a\u0430\u044f \u0432\u043e\u0431\u043b\u0430\u0441\u0446\u044c", "name:cs": "Kirovsk\u00e1 oblast", "name:de": "Oblast Kirow", "name:en": "Kirov Oblast", "name:eo": "Kirova Provinco", "name:es": "\u00d3blast de K\u00edrov", "name:fr": "Oblast de Kirov", "name:hu": "Kirovi ter\u00fclet", "name:ja": "\u30ad\u30fc\u30ed\u30d5\u5dde", "name:lt": "Kirovo sritis", "name:pl": "Obw\u00f3d kirowski", "name:ru": "\u041a\u0438\u0440\u043e\u0432\u0441\u043a\u0430\u044f \u043e\u0431\u043b\u0430\u0441\u0442\u044c", "name:sk": "Kirovsk\u00e1 oblas\u0165", "name:tt": "\u041a\u0438\u0440\u043e\u0432 \u04e9\u043b\u043a\u04d9\u0441\u0435", "name:uk": "\u041a\u0456\u0440\u043e\u0432\u0441\u044c\u043a\u0430 \u043e\u0431\u043b\u0430\u0441\u0442\u044c", "place": "state", "ref": "\u041a\u0418\u0420", "ref:en": "KIR", "wikidata": "Q5387", "wikipedia": "ru:\u041a\u0438\u0440\u043e\u0432\u0441\u043a\u0430\u044f \u043e\u0431\u043b\u0430\u0441\u0442\u044c"}}, {"type": "node", "id": 1103648780, "lat": 54.4223954, "lon": 61.1865846, "tags": {"contact:facebook": "https://www.facebook.com/gov74", "contact:ok": "https://ok.ru/gov74", "contact:phone": "+7 351 2642504", "contact:vk": "https://vk.com/gov74", "contact:website": "https://pravmin74.ru", "flag": "https://upload.wikimedia.org/wikipedia/commons/c/ce/Flag_of_Chelyabinsk_Oblast.svg", "int_name": "Chelyabinskaya oblast'", "name": "\u0427\u0435\u043b\u044f\u0431\u0438\u043d\u0441\u043a\u0430\u044f \u043e\u0431\u043b\u0430\u0441\u0442\u044c", "name:ace": "Oblast Chelyabinsk", "name:af": "Tsjeljabinsk oblast", "name:ar": "\u0623\u0648\u0628\u0644\u0627\u0633\u062a \u062a\u0634\u064a\u0644\u064a\u0627\u0628\u0646\u0633\u0643", "name:az": "\u00c7elyabinsk vilay\u0259ti", "name:azb": "\u0686\u0644\u06cc\u0627\u0628\u06cc\u0646\u0633\u06a9 \u0627\u0648\u0628\u0644\u0627\u0633\u062a\u06cc", "name:ba": "\u0421\u0438\u043b\u04d9\u0431\u0435 \u04e9\u043b\u043a\u04d9\u04bb\u0435", "name:be": "\u0427\u0430\u043b\u044f\u0431\u0456\u043d\u0441\u043a\u0430\u044f \u0432\u043e\u0431\u043b\u0430\u0441\u0446\u044c", "name:be-tarask": "\u0427\u0430\u043b\u044f\u0431\u0456\u043d\u0441\u043a\u0430\u044f \u0432\u043e\u0431\u043b\u0430\u0441\u044c\u0446\u044c", "name:bg": "\u0427\u0435\u043b\u044f\u0431\u0438\u043d\u0441\u043a\u0430 \u043e\u0431\u043b\u0430\u0441\u0442", "name:br": "Oblast Tchelyabinsk", "name:bs": "\u010celjabinska oblast", "name:bxr": "\u0427\u0435\u043b\u044f\u0431\u0438\u043d\u0441\u043a\u044b\u043d \u043c\u043e\u0436\u043e", "name:ca": "Prov\u00edncia de Txeli\u00e0binsk", "name:cdo": "Chelyabinsk Ci\u016d", "name:ce": "\u0427\u0435\u043b\u044f\u0431\u0438\u043d\u0441\u043a\u0430\u043d \u043e\u0431\u043b\u0430\u0441\u0442\u044c", "name:ceb": "Chelyabinskaya Oblast'", "name:cs": "\u010celjabinsk\u00e1 oblast", "name:cv": "\u0427\u0435\u043b\u0435\u043f\u0438 \u043e\u0431\u043b\u0430\u00e7\u0115", "name:cy": "Oblast Chelyabinsk", "name:da": "Tjeljabinsk oblast", "name:de": "Oblast Tscheljabinsk", "name:el": "\u038c\u03bc\u03c0\u03bb\u03b1\u03c3\u03c4 \u03c4\u03bf\u03c5 \u03a4\u03c3\u03b5\u03bb\u03b9\u03ac\u03bc\u03c0\u03b9\u03bd\u03c3\u03ba", "name:en": "Chelyabinsk Oblast", "name:eo": "\u0108eljabinska Provinco", "name:es": "\u00d3blast de Cheli\u00e1binsk", "name:et": "T\u0161eljabinski oblast", "name:eu": "Txeliabinsk oblasta", "name:fa": "\u0627\u0633\u062a\u0627\u0646 \u0686\u0644\u06cc\u0627\u0628\u06cc\u0646\u0633\u06a9", "name:fi": "T\u0161eljabinskin alue", "name:fr": "Oblast de Tcheliabinsk", "name:ga": "C\u00faige Chelyabinsk", "name:hak": "Chelyabinsk-ch\u00fb", "name:hi": "\u091a\u0947\u0932\u094d\u092f\u093e\u092c\u093f\u0928\u094d\u0938\u094d\u0915 \u0913\u092c\u094d\u0932\u093e\u0938\u094d\u0924", "name:hr": "\u010celjabinska oblast", "name:hsb": "Oblas\u0107 \u010celjabinsk", "name:hu": "Cseljabinszki ter\u00fclet", "name:hy": "\u0549\u0565\u056c\u0575\u0561\u0562\u056b\u0576\u057d\u056f\u056b \u0574\u0561\u0580\u0566", "name:id": "Oblast Chelyabinsk", "name:is": "Tsjeljabinskfylki", "name:it": "Oblast' di \u010celjabinsk", "name:ja": "\u30c1\u30a7\u30ea\u30e3\u30d3\u30f3\u30b9\u30af\u5dde", "name:ka": "\u10e9\u10d4\u10da\u10d8\u10d0\u10d1\u10d8\u10dc\u10e1\u10d9\u10d8\u10e1 \u10dd\u10da\u10e5\u10d8", "name:kaa": "Chelyabinsk wa'layat\u0131", "name:kk": "\u0427\u0435\u043b\u044f\u0431\u0456 \u043e\u0431\u043b\u044b\u0441\u044b", "name:ko": "\uccbc\ub7b4\ube48\uc2a4\ud06c\uc8fc", "name:kv": "\u0427\u0435\u043b\u044f\u0431\u0438\u043d\u0441\u043a \u043e\u0431\u043b\u0430\u0441\u044c\u0442", "name:la": "Regio Celiabinscensis", "name:lrc": "\u0622\u0633\u062a\u0648\u0769 \u0686\u0644\u06cc\u0627\u0628\u06cc\u0646\u0633\u06a9", "name:lt": "\u010celiabinsko sritis", "name:lv": "\u010ce\u013cabinskas apgabals", "name:mhr": "\u0427\u0435\u043b\u044f\u0431\u0438\u043d\u0441\u043a \u0432\u0435\u043b", "name:mk": "\u0427\u0435\u0459\u0430\u0431\u0438\u043d\u0441\u043a\u0430 \u043e\u0431\u043b\u0430\u0441\u0442", "name:mn": "\u0427\u0435\u043b\u044f\u0431\u0438\u043d\u0441\u043a \u043c\u0443\u0436", "name:mr": "\u091a\u0947\u0932\u093f\u092f\u093e\u092c\u093f\u0928\u094d\u0938\u094d\u0915 \u0913\u092c\u094d\u0932\u093e\u0938\u094d\u0924", "name:ms": "Wilayah Chelyabinsk", "name:myv": "\u0427\u0435\u043b\u044f\u0431\u0430\u043d\u044c \u0451\u043d\u043a\u0441", "name:nl": "Oblast Tsjeljabinsk", "name:nn": "Tsjeljabinsk oblast", "name:no": "Tsjeljabinsk oblast", "name:oc": "\u00d3blast de Cheliabinsk", "name:os": "\u0427\u0435\u043b\u044f\u0431\u0438\u043d\u0441\u0447\u044b \u043e\u0431\u043b\u00e6\u0441\u0442", "name:pam": "Chelyabinsk Oblast", "name:pl": "Obw\u00f3d czelabi\u0144ski", "name:pnb": "\u0686\u06cc\u0644\u06cc\u0627\u0628\u0646\u0633\u06a9 \u0627\u0648\u0628\u0644\u0627\u0633\u062a", "name:pt": "Oblast de Tcheliabinsk", "name:ro": "Regiunea Celeabinsk", "name:ru": "\u0427\u0435\u043b\u044f\u0431\u0438\u043d\u0441\u043a\u0430\u044f \u043e\u0431\u043b\u0430\u0441\u0442\u044c", "name:sah": "\u0427\u0435\u043b\u044f\u0431\u0438\u043d\u0441\u043a\u0430\u0439 \u0443\u043e\u0431\u0430\u043b\u0430\u0441", "name:sco": "Chelyabinsk Oblast", "name:se": "Tjeljabinsk oblast", "name:sh": "\u010celjabinska oblast", "name:simple": "Chelyabinsk Oblast", "name:sk": "\u010ce\u013eabinsk\u00e1 oblas\u0165", "name:sl": "\u010celjabinska oblast", "name:sr": "\u0427\u0435\u0459\u0430\u0431\u0438\u043d\u0441\u043a\u0430 \u043e\u0431\u043b\u0430\u0441\u0442", "name:sv": "Tjeljabinsk oblast", "name:sw": "Chelyabinsk Oblast", "name:ta": "\u0b9a\u0bc6\u0bb2\u0bcd\u0baf\u0bbe\u0baa\u0bbf\u0ba9\u0bcd\u0b9a\u0bc1\u0b95\u0bcd \u0bae\u0bbe\u0b95\u0bbe\u0ba3\u0bae\u0bcd", "name:tg": "\u0412\u0438\u043b\u043e\u044f\u0442\u0438 \u0427\u0435\u043b\u044f\u0431\u0438\u043d\u0441\u043a", "name:tl": "Chelyabinsk Oblast", "name:tr": "\u00c7elyabinsk Oblast\u0131", "name:tt": "\u0427\u0438\u043b\u04d9\u0431\u0435 \u04e9\u043b\u043a\u04d9\u0441\u0435", "name:udm": "\u0427\u0435\u043b\u044f\u0431\u0438\u043d\u0441\u043a \u0443\u043b\u043e\u0441", "name:uk": "\u0427\u0435\u043b\u044f\u0431\u0456\u043d\u0441\u044c\u043a\u0430 \u043e\u0431\u043b\u0430\u0441\u0442\u044c", "name:ur": "\u0686\u06cc\u0644\u06cc\u0627\u0628\u0646\u0633\u06a9 \u0627\u0648\u0628\u0644\u0627\u0633\u062a", "name:uz": "Chelyabinsk viloyati", "name:vep": "\u010cel\u00e4binskan agj", "name:vi": "Chelyabinsk t\u1ec9nh", "name:war": "Chelyabinsk Oblast", "name:wuu": "\u8f66\u91cc\u96c5\u5bbe\u65af\u514b\u5dde", "name:xal": "\u0427\u0435\u043b\u044f\u0431\u0438\u043d\u0441\u043a\u0430 \u0442\u04e9\u0433\u04d9\u043b\u04a3", "name:xmf": "\u10e9\u10d4\u10da\u10d8\u10d0\u10d1\u10d8\u10dc\u10e1\u10d9\u10d8\u10e8 \u10dd\u10da\u10e5\u10d8", "name:yue": "\u8eca\u91cc\u96c5\u8cd3\u65af\u514b\u5dde", "name:zh": "\u8f66\u91cc\u96c5\u5bbe\u65af\u514b\u5dde", "name:zh_min_nan": "Chelyabinsk Chiu", "place": "state", "population": "3466369", "population:date": "2020", "ref": "\u0427\u0415\u041b", "wikidata": "Q5714", "wikipedia": "ru:\u0427\u0435\u043b\u044f\u0431\u0438\u043d\u0441\u043a\u0430\u044f \u043e\u0431\u043b\u0430\u0441\u0442\u044c"}}, {"type": "node", "id": 1806706046, "lat": 56.9167446, "lon": 41.4352137, "tags": {"is_in": "\u0420\u043e\u0441\u0441\u0438\u0439\u0441\u043a\u0430\u044f \u0424\u0435\u0434\u0435\u0440\u0430\u0446\u0438\u044f", "name": "\u0418\u0432\u0430\u043d\u043e\u0432\u0441\u043a\u0430\u044f \u043e\u0431\u043b\u0430\u0441\u0442\u044c", "name:be": "\u0406\u0432\u0430\u043d\u0430\u045e\u0441\u043a\u0430\u044f \u0432\u043e\u0431\u043b\u0430\u0441\u0446\u044c", "name:de": "Oblast Iwanowo", "name:en": "Ivanovo Oblast", "name:eo": "Ivanova Provinco", "name:es": "\u00d3blast de Iv\u00e1novo", "name:fr": "Oblast d'Ivanovo", "name:hu": "Ivanov\u00f3i ter\u00fclet", "name:ja": "\u30a4\u30f4\u30a1\u30ce\u30f4\u30a9\u5dde", "name:lt": "Ivanovo sritis", "name:pl": "Obw\u00f3d iwanowski", "name:ru": "\u0418\u0432\u0430\u043d\u043e\u0432\u0441\u043a\u0430\u044f \u043e\u0431\u043b\u0430\u0441\u0442\u044c", "name:uk": "\u0406\u0432\u0430\u043d\u043e\u0432\u0441\u044c\u043a\u0430 \u043e\u0431\u043b\u0430\u0441\u0442\u044c", "place": "state", "ref": "\u0418\u0412\u0410", "wikidata": "Q2654", "wikipedia": "ru:\u0418\u0432\u0430\u043d\u043e\u0432\u0441\u043a\u0430\u044f \u043e\u0431\u043b\u0430\u0441\u0442\u044c"}}, {"type": "node", "id": 2050243275, "lat": 59.9606739, "lon": 30.1586551, "tags": {"name": "\u0421\u0430\u043d\u043a\u0442-\u041f\u0435\u0442\u0435\u0440\u0431\u0443\u0440\u0433", "name:ab": "\u0421\u0430\u043d\u049b\u0442-\u041f\u0435\u0442\u0435\u0440\u0431\u0443\u0440\u0433", "name:de": "Sankt Petersburg", "name:en": "Saint Petersburg", "name:eo": "Sankt-Peterburgo", "name:fi": "Pietari", "name:os": "\u0411\u0435\u0442\u044a\u044b\u0440\u0431\u0443\u0445", "name:ru": "\u0421\u0430\u043d\u043a\u0442-\u041f\u0435\u0442\u0435\u0440\u0431\u0443\u0440\u0433", "name:sk": "Petrohrad", "official_status": "ru:\u0433\u043e\u0440\u043e\u0434 \u0444\u0435\u0434\u0435\u0440\u0430\u043b\u044c\u043d\u043e\u0433\u043e \u0437\u043d\u0430\u0447\u0435\u043d\u0438\u044f", "okato:user": "40000000000", "place": "state", "ref": "\u0421\u041f\u0411", "ref:en": "SPE", "ref:ru": "\u0421\u041f\u0411", "wikidata": "Q656", "wikipedia": "ru:\u0421\u0430\u043d\u043a\u0442-\u041f\u0435\u0442\u0435\u0440\u0431\u0443\u0440\u0433"}}, {"type": "node", "id": 2452912060, "lat": 55.4792046, "lon": 37.3273304, "tags": {"int_name": "Moscow", "name": "\u041c\u043e\u0441\u043a\u0432\u0430", "name:de": "Moskau", "name:en": "Moscow", "name:eo": "Moskvo", "name:es": "Mosc\u00fa", "name:fr": "Moscou", "name:hu": "Moszkva", "name:it": "Mosca", "name:ja": "\u30e2\u30b9\u30af\u30ef\u9023\u90a6\u5e02", "name:nl": "Moskou", "name:pl": "Moskwa", "name:pt": "Moscovo", "name:ru": "\u041c\u043e\u0441\u043a\u0432\u0430", "name:sk": "Moskva", "name:sv": "Moskva", "official_status": "ru:\u0433\u043e\u0440\u043e\u0434 \u0444\u0435\u0434\u0435\u0440\u0430\u043b\u044c\u043d\u043e\u0433\u043e \u0437\u043d\u0430\u0447\u0435\u043d\u0438\u044f", "place": "state", "ref": "\u041c\u0421\u041a", "ref:en": "MSK", "ref:ru": "\u041c\u0421\u041a", "wikidata": "Q649", "wikipedia": "ru:\u041c\u043e\u0441\u043a\u0432\u0430"}}, {"type": "node", "id": 2898654909, "lat": 45.1890034, "lon": 34.7401104, "tags": {"addr:country": "RU", "name": "\u0420\u0435\u0441\u043f\u0443\u0431\u043b\u0438\u043a\u0430 \u041a\u0440\u044b\u043c", "name:crh": "Q\u0131r\u0131m Cumhuriyeti", "name:cs": "Republika Krym", "name:de": "Republik Krim", "name:en": "Republic of Crimea", "name:fr": "R\u00e9publique de Crim\u00e9e", "name:nl": "Republiek de Krim", "name:pl": "Republika Krymu", "name:ru": "\u0420\u0435\u0441\u043f\u0443\u0431\u043b\u0438\u043a\u0430 \u041a\u0440\u044b\u043c", "name:sk": "Republika Krym", "name:tr": "K\u0131r\u0131m Cumhuriyeti", "name:uk": "\u0420\u0435\u0441\u043f\u0443\u0431\u043b\u0456\u043a\u0430 \u041a\u0440\u0438\u043c", "name:zh": "\u514b\u91cc\u7c73\u4e9a\u5171\u548c\u56fd", "place": "state", "ref": "\u041a\u0420\u042b", "wikidata": "Q15966495", "wikipedia": "ru:\u0420\u0435\u0441\u043f\u0443\u0431\u043b\u0438\u043a\u0430 \u041a\u0440\u044b\u043c", "wikipedia:ru": "\u0420\u0435\u0441\u043f\u0443\u0431\u043b\u0438\u043a\u0430 \u041a\u0440\u044b\u043c", "wikipedia:uk": "\u0420\u0435\u0441\u043f\u0443\u0431\u043b\u0456\u043a\u0430 \u041a\u0440\u0438\u043c"}}, {"type": "node", "id": 3140016266, "lat": 45.7684014, "lon": 39.0261044, "tags": {"admin_level": "4", "name": "\u041a\u0440\u0430\u0441\u043d\u043e\u0434\u0430\u0440\u0441\u043a\u0438\u0439 \u043a\u0440\u0430\u0439", "name:af": "Krasnodar-krai", "name:ar": "\u0643\u0631\u0627\u0633\u0646\u0648\u062f\u0627\u0631 \u0643\u0631\u0627\u064a", "name:ca": "Territori de Krasnodar", "name:cs": "Krasnodarsk\u00fd kraj", "name:de": "Region Krasnodar", "name:el": "\u039a\u03c1\u03ac\u03b9 \u039a\u03c1\u03b1\u03c3\u03bd\u03bf\u03bd\u03c4\u03ac\u03c1", "name:en": "Krasnodar Krai", "name:eo": "Krasnodara regiono", "name:es": "Krai de Krasnodar", "name:fi": "Krasnodarin aluepiiri", "name:fr": "Kra\u00ef de Krasnodar", "name:he": "\u05e7\u05e8\u05e1\u05e0\u05d5\u05d3\u05d0\u05e8 (\u05de\u05d7\u05d5\u05d6)", "name:hi": "\u0915\u094d\u0930\u093e\u0938\u094d\u0928\u094b\u0926\u093e\u0930 \u0915\u094d\u0930\u093e\u092f", "name:hr": "Krasnodarski kraj", "name:hu": "Krasznodari hat\u00e1rter\u00fclet", "name:is": "Krasnodarfylki", "name:it": "Territorio di Krasnodar", "name:ja": "\u30af\u30e9\u30b9\u30ce\u30c0\u30fc\u30eb\u5730\u65b9", "name:ko": "\ud06c\ub77c\uc2a4\ub178\ub2e4\ub974 \uc9c0\ubc29", "name:ms": "Jajahan Krasnodar", "name:nn": "Krasnodar kraj", "name:no": "Krasnodar kraj", "name:pl": "Kraj Krasnodarski", "name:sk": "Krasnodarsk\u00fd kraj", "name:sr": "\u041a\u0440\u0430\u0441\u043d\u043e\u0434\u0430\u0440\u0441\u043a\u0430 \u041f\u043e\u043a\u0440\u0430\u0458\u0438\u043d\u0430", "name:sv": "Krasnodar kraj", "name:ta": "\u0b95\u0bbf\u0bb0\u0bbe\u0bb8\u0bcd\u0ba9\u0ba4\u0bbe\u0bb0\u0bcd \u0baa\u0bbf\u0bb0\u0ba4\u0bc7\u0b9a\u0bae\u0bcd", "name:tr": "Krasnodar Kray\u0131", "name:uk": "\u041a\u0440\u0430\u0441\u043d\u043e\u0434\u0430\u0440\u0441\u044c\u043a\u0438\u0439 \u043a\u0440\u0430\u0439", "name:ur": "\u06a9\u0631\u06cc\u0633\u0646\u0648\u0688\u0627\u0631 \u06a9\u0631\u0627\u0626\u06cc", "name:zh": "\u514b\u62c9\u65af\u8bfa\u8fbe\u5c14\u8fb9\u7586\u533a", "place": "state", "ref": "\u041a\u0420\u0410", "ref:en": "KDA", "wikidata": "Q3680", "wikipedia": "ru:\u041a\u0440\u0430\u0441\u043d\u043e\u0434\u0430\u0440\u0441\u043a\u0438\u0439 \u043a\u0440\u0430\u0439"}}, {"type": "node", "id": 3674772325, "lat": 44.5547288, "lon": 33.4720239, "tags": {"addr:postcode": "299000-299699", "addr:region": "\u0421\u0435\u0432\u0430\u0441\u0442\u043e\u043f\u043e\u043b\u044c", "addr:region:ru": "\u0421\u0435\u0432\u0430\u0441\u0442\u043e\u043f\u043e\u043b\u044c", "addr:region:uk": "\u0421\u0435\u0432\u0430\u0441\u0442\u043e\u043f\u043e\u043b\u044c", "int_name": "Sevastopol", "koatuu": "8500000000", "name": "\u0421\u0435\u0432\u0430\u0441\u0442\u043e\u043f\u043e\u043b\u044c", "name:ca": "Sebast\u00f2pol", "name:crh": "Aqyar", "name:cs": "Sevastopol", "name:de": "Sewastopol", "name:el": "\u03a3\u03b5\u03b2\u03b1\u03c3\u03c4\u03bf\u03cd\u03c0\u03bf\u03bb\u03b7", "name:en": "Sevastopol", "name:es": "Sebastopol", "name:fr": "S\u00e9bastopol", "name:hr": "Sevastopolj", "name:hu": "Szevasztopol", "name:it": "Sebastopoli", "name:kn": "\u0cb8\u0cc6\u0cb5\u0cb8\u0ccd\u0ca4\u0ccb\u0caa\u0cca\u0cb2\u0ccd", "name:la": "Sebastopolis", "name:lt": "Sevastopolis", "name:lv": "Sevastopole", "name:nl": "Sebastopol", "name:pl": "Sewastopol", "name:prefix": "\u0433\u043e\u0440\u043e\u0434", "name:pt": "Sebastopol", "name:ro": "Sevastopol", "name:ru": "\u0421\u0435\u0432\u0430\u0441\u0442\u043e\u043f\u043e\u043b\u044c", "name:sk": "Sevastopo\u013e", "name:tr": "Sivastopol", "name:uk": "\u0421\u0435\u0432\u0430\u0441\u0442\u043e\u043f\u043e\u043b\u044c", "place": "state", "population": "402135", "population:date": "2015", "ref": "\u0421\u0412\u0421"}}, {"type": "node", "id": 4418300334, "lat": 54.4419829, "lon": 44.4661144, "tags": {"ISO3166-2": "RU-MO", "addr:country": "RU", "int_name": "Republic of Mordovia", "int_ref": "RU-MO", "is_in:continent": "Asia", "is_in:country": "Russia", "is_in:country_code": "RU", "name": "\u041c\u043e\u0440\u0434\u043e\u0432\u0438\u044f", "name:ca": "Mord\u00f2via", "name:cs": "Mordvinsko", "name:de": "Republik Mordwinien", "name:en": "Republic of Mordovia", "name:fr": "R\u00e9publique de Mordovie", "name:ja": "\u30e2\u30eb\u30c9\u30f4\u30a3\u30a2\u5171\u548c\u56fd", "name:lt": "Mordvijos Respublika", "name:mhr": "\u041c\u043e\u0440\u0434\u043e\u0432\u0438\u0439", "name:mrj": "\u041c\u043e\u0440\u0434\u043e\u0432\u0438 \u0420\u0435\u0441\u043f\u0443\u0431\u043b\u0438\u043a\u0430", "name:myv": "\u041c\u043e\u0440\u0434\u043e\u0432\u0438\u044f \u0440\u0435\u0441\u043f\u0443\u0431\u043b\u0438\u043a\u0430\u0441\u044c", "name:pl": "Republika Mordowii", "name:ru": "\u041c\u043e\u0440\u0434\u043e\u0432\u0438\u044f", "name:sk": "Mordviansko", "official_name:sk": "Mordvianska republika", "official_status": "ru:\u0440\u0435\u0441\u043f\u0443\u0431\u043b\u0438\u043a\u0430", "place": "state", "ref": "RU-MO", "wikidata": "Q5340", "wikipedia": "ru:\u041c\u043e\u0440\u0434\u043e\u0432\u0438\u044f"}}, {"type": "node", "id": 6307688872, "lat": 63.5589686, "lon": 43.1221646, "tags": {"ISO3166-2": "RU-ARK", "admin_level": "4", "gost_7.67-2003": "\u0420\u041e\u0424-\u0410\u0420\u0425", "int_name": "Arkhangelsk Oblast", "int_ref": "RU-ARK", "is_in:country_code": "RU", "name": "\u0410\u0440\u0445\u0430\u043d\u0433\u0435\u043b\u044c\u0441\u043a\u0430\u044f \u043e\u0431\u043b\u0430\u0441\u0442\u044c", "name:be": "\u0410\u0440\u0445\u0430\u043d\u0433\u0435\u043b\u044c\u0441\u043a\u0430\u044f \u0432\u043e\u0431\u043b\u0430\u0441\u0446\u044c", "name:ca": "Regi\u00f3 d'Arkhangelsk", "name:cs": "Archangelsk\u00e1 oblast", "name:de": "Oblast Archangelsk", "name:en": "Arkhangelsk Oblast", "name:eo": "Regiono de Arkhangelsk", "name:es": "Regi\u00f3n de Arkhangelsk", "name:fi": "Arkangelin alue", "name:fr": "R\u00e9gion d'Arkhangelsk", "name:hr": "Arkhangelsk regija", "name:hu": "Arhangelszki ter\u00fclet", "name:ja": "\u30a2\u30eb\u30cf\u30f3\u30b2\u30ea\u30b9\u30af\u5dde", "name:lt": "Archangelsko sritis", "name:pl": "Obw\u00f3d archangielski", "name:ru": "\u0410\u0440\u0445\u0430\u043d\u0433\u0435\u043b\u044c\u0441\u043a\u0430\u044f \u043e\u0431\u043b\u0430\u0441\u0442\u044c", "name:sk": "Archange\u013esk\u00e1 oblas\u0165", "name:sr": "\u0410\u0440\u043a\u0445\u0430\u043d\u0433\u0435\u043b\u0441\u043a \u0440\u0435\u0433\u0438\u043e\u043d", "name:sv": "Archangelsk oblast", "name:uk": "\u0410\u0440\u0445\u0430\u043d\u0433\u0435\u043b\u044c\u0441\u044c\u043a\u0430 \u043e\u0431\u043b\u0430\u0441\u0442\u044c", "place": "state", "ref": "\u0410\u0420\u0425", "ref:en": "ARK", "wikidata": "Q1875", "wikipedia": "ru:\u0410\u0440\u0445\u0430\u043d\u0433\u0435\u043b\u044c\u0441\u043a\u0430\u044f \u043e\u0431\u043b\u0430\u0441\u0442\u044c"}}]}